<?xml version="1.0" encoding="UTF-8"?>
<kml xmlns="http://www.opengis.net/kml/2.2" xmlns:gx="http://www.google.com/kml/ext/2.2" xmlns:kml="http://www.opengis.net/kml/2.2" xmlns:atom="http://www.w3.org/2005/Atom">
<Document id="1v24uSOgp-6Oja7bNdNfYhvL8prg-L3RR">
	<name>Epsom Downs</name>
	<gx:CascadingStyle kml:id="__managed_style_28D0E01757310338066B">
		<Style>
			<IconStyle>
				<scale>1.2</scale>
				<Icon>
					<href>https://earth.google.com/earth/rpc/cc/icon?color=1976d2&amp;id=2000&amp;scale=4</href>
				</Icon>
				<hotSpot x="64" y="128" xunits="pixels" yunits="insetPixels"/>
			</IconStyle>
			<LabelStyle>
			</LabelStyle>
			<LineStyle>
				<color>ff2dc0fb</color>
				<width>4.8</width>
			</LineStyle>
			<PolyStyle>
				<color>40ffffff</color>
			</PolyStyle>
			<BalloonStyle>
			</BalloonStyle>
		</Style>
	</gx:CascadingStyle>
	<gx:CascadingStyle kml:id="__managed_style_1B227BE110310338066B">
		<Style>
			<IconStyle>
				<Icon>
					<href>https://earth.google.com/earth/rpc/cc/icon?color=1976d2&amp;id=2000&amp;scale=4</href>
				</Icon>
				<hotSpot x="64" y="128" xunits="pixels" yunits="insetPixels"/>
			</IconStyle>
			<LabelStyle>
			</LabelStyle>
			<LineStyle>
				<color>ff2dc0fb</color>
				<width>3.2</width>
			</LineStyle>
			<PolyStyle>
				<color>40ffffff</color>
			</PolyStyle>
			<BalloonStyle>
			</BalloonStyle>
		</Style>
	</gx:CascadingStyle>
	<StyleMap id="__managed_style_0E5EFB76DE310338066B">
		<Pair>
			<key>normal</key>
			<styleUrl>#__managed_style_1B227BE110310338066B</styleUrl>
		</Pair>
		<Pair>
			<key>highlight</key>
			<styleUrl>#__managed_style_28D0E01757310338066B</styleUrl>
		</Pair>
	</StyleMap>
	<Placemark id="02038DCDA931030CFD3F">
		<name>1</name>
		<LookAt>
			<longitude>-0.2544287262539435</longitude>
			<latitude>51.31030384067154</latitude>
			<altitude>131.3422953036788</altitude>
			<heading>3.399794280439182</heading>
			<tilt>0</tilt>
			<gx:fovy>35</gx:fovy>
			<range>1781.726403801295</range>
			<altitudeMode>absolute</altitudeMode>
		</LookAt>
		<styleUrl>#__managed_style_0E5EFB76DE310338066B</styleUrl>
		<Point>
			<coordinates>-0.2619306508557107,51.3091180568579,111.0725745876444</coordinates>
		</Point>
	</Placemark>
	<Placemark id="09293CACD23103387164">
		<name>2</name>
		<LookAt>
			<longitude>-0.2557706956562855</longitude>
			<latitude>51.30973453938019</latitude>
			<altitude>126.1056963096265</altitude>
			<heading>9.24634191254839</heading>
			<tilt>0</tilt>
			<gx:fovy>35</gx:fovy>
			<range>1734.402566849313</range>
			<altitudeMode>absolute</altitudeMode>
		</LookAt>
		<styleUrl>#__managed_style_0E5EFB76DE310338066B</styleUrl>
		<Point>
			<coordinates>-0.2609323927170293,51.30908342821728,114.3694020487705</coordinates>
		</Point>
	</Placemark>
	<Placemark id="072C0442EE310338A60C">
		<name>3</name>
		<LookAt>
			<longitude>-0.256931654585677</longitude>
			<latitude>51.30955253674122</latitude>
			<altitude>119.9751422270003</altitude>
			<heading>9.246341709388165</heading>
			<tilt>0</tilt>
			<gx:fovy>35</gx:fovy>
			<range>1260.738842026039</range>
			<altitudeMode>absolute</altitudeMode>
		</LookAt>
		<styleUrl>#__managed_style_0E5EFB76DE310338066B</styleUrl>
		<Point>
			<coordinates>-0.2600498355745717,51.30901480100857,115.8961082931465</coordinates>
		</Point>
	</Placemark>
	<Placemark id="086643C3CF310338B7B0">
		<name>4</name>
		<LookAt>
			<longitude>-0.256931654585677</longitude>
			<latitude>51.30955253674122</latitude>
			<altitude>119.9751422270003</altitude>
			<heading>9.246341709388165</heading>
			<tilt>0</tilt>
			<gx:fovy>35</gx:fovy>
			<range>1260.738842026039</range>
			<altitudeMode>absolute</altitudeMode>
		</LookAt>
		<styleUrl>#__managed_style_0E5EFB76DE310338066B</styleUrl>
		<Point>
			<coordinates>-0.259129047072576,51.30893220019934,118.4415625994584</coordinates>
		</Point>
	</Placemark>
	<Placemark id="049E8ADE38310338C624">
		<name>5</name>
		<LookAt>
			<longitude>-0.256931654585677</longitude>
			<latitude>51.30955253674122</latitude>
			<altitude>119.9751422270003</altitude>
			<heading>9.246341709388165</heading>
			<tilt>0</tilt>
			<gx:fovy>35</gx:fovy>
			<range>1260.738842026039</range>
			<altitudeMode>absolute</altitudeMode>
		</LookAt>
		<styleUrl>#__managed_style_0E5EFB76DE310338066B</styleUrl>
		<Point>
			<coordinates>-0.2581482094447585,51.30882941771225,120.4875186523171</coordinates>
		</Point>
	</Placemark>
	<Placemark id="0C3D7F0DFD310338D53E">
		<name>6</name>
		<LookAt>
			<longitude>-0.256931654585677</longitude>
			<latitude>51.30955253674122</latitude>
			<altitude>119.9751422270003</altitude>
			<heading>9.246341709388165</heading>
			<tilt>0</tilt>
			<gx:fovy>35</gx:fovy>
			<range>1260.738842026039</range>
			<altitudeMode>absolute</altitudeMode>
		</LookAt>
		<styleUrl>#__managed_style_0E5EFB76DE310338066B</styleUrl>
		<Point>
			<coordinates>-0.257238431547151,51.30867066401951,124.3841260858129</coordinates>
		</Point>
	</Placemark>
	<Placemark id="03DB18F53D310338E5B7">
		<name>7</name>
		<LookAt>
			<longitude>-0.256931654585677</longitude>
			<latitude>51.30955253674122</latitude>
			<altitude>119.9751422270003</altitude>
			<heading>9.246341709388165</heading>
			<tilt>0</tilt>
			<gx:fovy>35</gx:fovy>
			<range>1260.738842026039</range>
			<altitudeMode>absolute</altitudeMode>
		</LookAt>
		<styleUrl>#__managed_style_0E5EFB76DE310338066B</styleUrl>
		<Point>
			<coordinates>-0.2563997001058216,51.30835893280422,127.8815180639397</coordinates>
		</Point>
	</Placemark>
	<Placemark id="0266715616310338F4D1">
		<name>8</name>
		<LookAt>
			<longitude>-0.256931654585677</longitude>
			<latitude>51.30955253674122</latitude>
			<altitude>119.9751422270003</altitude>
			<heading>9.246341709388165</heading>
			<tilt>0</tilt>
			<gx:fovy>35</gx:fovy>
			<range>1260.738842026039</range>
			<altitudeMode>absolute</altitudeMode>
		</LookAt>
		<styleUrl>#__managed_style_0E5EFB76DE310338066B</styleUrl>
		<Point>
			<coordinates>-0.255640449232809,51.30806273374463,129.3208935862913</coordinates>
		</Point>
	</Placemark>
	<Placemark id="0D1BB4EEF531033904E5">
		<name>9</name>
		<LookAt>
			<longitude>-0.256931654585677</longitude>
			<latitude>51.30955253674122</latitude>
			<altitude>119.9751422270003</altitude>
			<heading>9.246341709388165</heading>
			<tilt>0</tilt>
			<gx:fovy>35</gx:fovy>
			<range>1260.738842026039</range>
			<altitudeMode>absolute</altitudeMode>
		</LookAt>
		<styleUrl>#__managed_style_0E5EFB76DE310338066B</styleUrl>
		<Point>
			<coordinates>-0.2549507028983311,51.30777111493078,131.2148363856227</coordinates>
		</Point>
	</Placemark>
	<Placemark id="0621C3179C31033915A0">
		<name>10</name>
		<LookAt>
			<longitude>-0.256931654585677</longitude>
			<latitude>51.30955253674122</latitude>
			<altitude>119.9751422270003</altitude>
			<heading>9.246341709388165</heading>
			<tilt>0</tilt>
			<gx:fovy>35</gx:fovy>
			<range>1260.738842026039</range>
			<altitudeMode>absolute</altitudeMode>
		</LookAt>
		<styleUrl>#__managed_style_0E5EFB76DE310338066B</styleUrl>
		<Point>
			<coordinates>-0.2541975371449867,51.30747924362204,133.7033914454467</coordinates>
		</Point>
	</Placemark>
	<Placemark id="055EEDDB8D3103392A97">
		<name>11</name>
		<LookAt>
			<longitude>-0.256931654585677</longitude>
			<latitude>51.30955253674122</latitude>
			<altitude>119.9751422270003</altitude>
			<heading>9.246341709388165</heading>
			<tilt>0</tilt>
			<gx:fovy>35</gx:fovy>
			<range>1260.738842026039</range>
			<altitudeMode>absolute</altitudeMode>
		</LookAt>
		<styleUrl>#__managed_style_0E5EFB76DE310338066B</styleUrl>
		<Point>
			<coordinates>-0.2534886776287015,51.30717816632992,136.2718234921318</coordinates>
		</Point>
	</Placemark>
	<Placemark id="0491FA241C3103393FAE">
		<name>12</name>
		<LookAt>
			<longitude>-0.256931654585677</longitude>
			<latitude>51.30955253674122</latitude>
			<altitude>119.9751422270003</altitude>
			<heading>9.246341709388165</heading>
			<tilt>0</tilt>
			<gx:fovy>35</gx:fovy>
			<range>1260.738842026039</range>
			<altitudeMode>absolute</altitudeMode>
		</LookAt>
		<styleUrl>#__managed_style_0E5EFB76DE310338066B</styleUrl>
		<Point>
			<coordinates>-0.2527661645627655,51.3069332363249,137.8296958931588</coordinates>
		</Point>
	</Placemark>
	<Placemark id="076576A00231033953DD">
		<name>13</name>
		<LookAt>
			<longitude>-0.256931654585677</longitude>
			<latitude>51.30955253674122</latitude>
			<altitude>119.9751422270003</altitude>
			<heading>9.246341709388165</heading>
			<tilt>0</tilt>
			<gx:fovy>35</gx:fovy>
			<range>1260.738842026039</range>
			<altitudeMode>absolute</altitudeMode>
		</LookAt>
		<styleUrl>#__managed_style_0E5EFB76DE310338066B</styleUrl>
		<Point>
			<coordinates>-0.2519459166883931,51.3066853994202,138.5593250033405</coordinates>
		</Point>
	</Placemark>
	<Placemark id="042949F46B3103396926">
		<name>14</name>
		<LookAt>
			<longitude>-0.256931654585677</longitude>
			<latitude>51.30955253674122</latitude>
			<altitude>119.9751422270003</altitude>
			<heading>9.246341709388165</heading>
			<tilt>0</tilt>
			<gx:fovy>35</gx:fovy>
			<range>1260.738842026039</range>
			<altitudeMode>absolute</altitudeMode>
		</LookAt>
		<styleUrl>#__managed_style_0E5EFB76DE310338066B</styleUrl>
		<Point>
			<coordinates>-0.2511495307195222,51.30647699221053,140.0971049682227</coordinates>
		</Point>
	</Placemark>
	<Placemark id="01729027E43103398A08">
		<name>15</name>
		<LookAt>
			<longitude>-0.256931654585677</longitude>
			<latitude>51.30955253674122</latitude>
			<altitude>119.9751422270003</altitude>
			<heading>9.246341709388165</heading>
			<tilt>0</tilt>
			<gx:fovy>35</gx:fovy>
			<range>1260.738842026039</range>
			<altitudeMode>absolute</altitudeMode>
		</LookAt>
		<styleUrl>#__managed_style_0E5EFB76DE310338066B</styleUrl>
		<Point>
			<coordinates>-0.25030804072112,51.30628848515161,140.8660949917991</coordinates>
		</Point>
	</Placemark>
	<Placemark id="02B595045431033A4061">
		<name>16</name>
		<LookAt>
			<longitude>-0.2535338933386477</longitude>
			<latitude>51.30777835477537</latitude>
			<altitude>138.9459342788213</altitude>
			<heading>9.248993799434956</heading>
			<tilt>0</tilt>
			<gx:fovy>35</gx:fovy>
			<range>1241.768162370863</range>
			<altitudeMode>absolute</altitudeMode>
		</LookAt>
		<styleUrl>#__managed_style_0E5EFB76DE310338066B</styleUrl>
		<Point>
			<coordinates>-0.2494079989910047,51.30619842171392,142.6356530372466</coordinates>
		</Point>
	</Placemark>
	<Placemark id="0BA9ED4FF031033A5866">
		<name>17</name>
		<LookAt>
			<longitude>-0.2535338933386477</longitude>
			<latitude>51.30777835477537</latitude>
			<altitude>138.9459342788213</altitude>
			<heading>9.248993799434956</heading>
			<tilt>0</tilt>
			<gx:fovy>35</gx:fovy>
			<range>1241.768162370863</range>
			<altitudeMode>absolute</altitudeMode>
		</LookAt>
		<styleUrl>#__managed_style_0E5EFB76DE310338066B</styleUrl>
		<Point>
			<coordinates>-0.2486034786690028,51.3061721358696,144.2541554915894</coordinates>
		</Point>
	</Placemark>
	<Placemark id="072727B20631033A6DF2">
		<name>18</name>
		<LookAt>
			<longitude>-0.2535338933386477</longitude>
			<latitude>51.30777835477537</latitude>
			<altitude>138.9459342788213</altitude>
			<heading>9.248993799434956</heading>
			<tilt>0</tilt>
			<gx:fovy>35</gx:fovy>
			<range>1241.768162370863</range>
			<altitudeMode>absolute</altitudeMode>
		</LookAt>
		<styleUrl>#__managed_style_0E5EFB76DE310338066B</styleUrl>
		<Point>
			<coordinates>-0.2477473407236852,51.30620040393419,145.2350436551208</coordinates>
		</Point>
	</Placemark>
	<Placemark id="04783DB22331033A990A">
		<name>19</name>
		<LookAt>
			<longitude>-0.2535338933386477</longitude>
			<latitude>51.30777835477537</latitude>
			<altitude>138.9459342788213</altitude>
			<heading>9.248993799434956</heading>
			<tilt>0</tilt>
			<gx:fovy>35</gx:fovy>
			<range>1241.768162370863</range>
			<altitudeMode>absolute</altitudeMode>
		</LookAt>
		<styleUrl>#__managed_style_0E5EFB76DE310338066B</styleUrl>
		<Point>
			<coordinates>-0.2470603949667571,51.30628358316633,147.7013455367163</coordinates>
		</Point>
	</Placemark>
	<Placemark id="08064ADB2D31033AB6EC">
		<name>20</name>
		<LookAt>
			<longitude>-0.2535338933386477</longitude>
			<latitude>51.30777835477537</latitude>
			<altitude>138.9459342788213</altitude>
			<heading>9.248993799434956</heading>
			<tilt>0</tilt>
			<gx:fovy>35</gx:fovy>
			<range>1241.768162370863</range>
			<altitudeMode>absolute</altitudeMode>
		</LookAt>
		<styleUrl>#__managed_style_0E5EFB76DE310338066B</styleUrl>
		<Point>
			<coordinates>-0.2473810768829687,51.30584447404596,150.776829366729</coordinates>
		</Point>
	</Placemark>
	<Placemark id="02334184C031033AD58F">
		<name>21</name>
		<LookAt>
			<longitude>-0.2535338933386477</longitude>
			<latitude>51.30777835477537</latitude>
			<altitude>138.9459342788213</altitude>
			<heading>9.248993799434956</heading>
			<tilt>0</tilt>
			<gx:fovy>35</gx:fovy>
			<range>1241.768162370863</range>
			<altitudeMode>absolute</altitudeMode>
		</LookAt>
		<styleUrl>#__managed_style_0E5EFB76DE310338066B</styleUrl>
		<Point>
			<coordinates>-0.2464345143546998,51.30650992033676,151.1626638999884</coordinates>
		</Point>
	</Placemark>
	<Placemark id="0B40B1375D31033AFB7C">
		<name>22</name>
		<LookAt>
			<longitude>-0.2487331217907307</longitude>
			<latitude>51.30846010001144</latitude>
			<altitude>136.1388768228572</altitude>
			<heading>9.25274083636271</heading>
			<tilt>0</tilt>
			<gx:fovy>35</gx:fovy>
			<range>1244.575247784524</range>
			<altitudeMode>absolute</altitudeMode>
		</LookAt>
		<styleUrl>#__managed_style_0E5EFB76DE310338066B</styleUrl>
		<Point>
			<coordinates>-0.2457824921234331,51.30684526940642,151.6286882641007</coordinates>
		</Point>
	</Placemark>
	<Placemark id="022E66A9E731033B1533">
		<name>23</name>
		<LookAt>
			<longitude>-0.2487331217907307</longitude>
			<latitude>51.30846010001144</latitude>
			<altitude>136.1388768228572</altitude>
			<heading>9.25274083636271</heading>
			<tilt>0</tilt>
			<gx:fovy>35</gx:fovy>
			<range>1244.575247784524</range>
			<altitudeMode>absolute</altitudeMode>
		</LookAt>
		<styleUrl>#__managed_style_0E5EFB76DE310338066B</styleUrl>
		<Point>
			<coordinates>-0.2452471822529023,51.30721762145284,152.3967128175734</coordinates>
		</Point>
	</Placemark>
	<Placemark id="0D7BFD72EA31033B26F9">
		<name>24</name>
		<LookAt>
			<longitude>-0.2487331217907307</longitude>
			<latitude>51.30846010001144</latitude>
			<altitude>136.1388768228572</altitude>
			<heading>9.25274083636271</heading>
			<tilt>0</tilt>
			<gx:fovy>35</gx:fovy>
			<range>1244.575247784524</range>
			<altitudeMode>absolute</altitudeMode>
		</LookAt>
		<styleUrl>#__managed_style_0E5EFB76DE310338066B</styleUrl>
		<Point>
			<coordinates>-0.2447716763729213,51.30773573328928,151.9890681710934</coordinates>
		</Point>
	</Placemark>
	<Placemark id="089FDA1FB731033B3FE0">
		<name>25</name>
		<LookAt>
			<longitude>-0.2487331217907307</longitude>
			<latitude>51.30846010001144</latitude>
			<altitude>136.1388768228572</altitude>
			<heading>9.25274083636271</heading>
			<tilt>0</tilt>
			<gx:fovy>35</gx:fovy>
			<range>1244.575247784524</range>
			<altitudeMode>absolute</altitudeMode>
		</LookAt>
		<styleUrl>#__managed_style_0E5EFB76DE310338066B</styleUrl>
		<Point>
			<coordinates>-0.2445551773539589,51.30692205112258,152.8933965953385</coordinates>
		</Point>
	</Placemark>
	<Placemark id="08C57899DE31033B570D">
		<name>26</name>
		<LookAt>
			<longitude>-0.2487331217907307</longitude>
			<latitude>51.30846010001144</latitude>
			<altitude>136.1388768228572</altitude>
			<heading>9.25274083636271</heading>
			<tilt>0</tilt>
			<gx:fovy>35</gx:fovy>
			<range>1244.575247784524</range>
			<altitudeMode>absolute</altitudeMode>
		</LookAt>
		<styleUrl>#__managed_style_0E5EFB76DE310338066B</styleUrl>
		<Point>
			<coordinates>-0.2445226372639364,51.30745629293948,153.0593192771939</coordinates>
		</Point>
	</Placemark>
	<Placemark id="0606D4E30A31033B7577">
		<name>27</name>
		<LookAt>
			<longitude>-0.2487331217907307</longitude>
			<latitude>51.30846010001144</latitude>
			<altitude>136.1388768228572</altitude>
			<heading>9.25274083636271</heading>
			<tilt>0</tilt>
			<gx:fovy>35</gx:fovy>
			<range>1244.575247784524</range>
			<altitudeMode>absolute</altitudeMode>
		</LookAt>
		<styleUrl>#__managed_style_0E5EFB76DE310338066B</styleUrl>
		<Point>
			<coordinates>-0.2445291544879169,51.30824297879396,150.7438002277108</coordinates>
		</Point>
	</Placemark>
	<Placemark id="0C57F70AC931033B91EA">
		<name>28</name>
		<LookAt>
			<longitude>-0.2487331217907307</longitude>
			<latitude>51.30846010001144</latitude>
			<altitude>136.1388768228572</altitude>
			<heading>9.25274083636271</heading>
			<tilt>0</tilt>
			<gx:fovy>35</gx:fovy>
			<range>1244.575247784524</range>
			<altitudeMode>absolute</altitudeMode>
		</LookAt>
		<styleUrl>#__managed_style_0E5EFB76DE310338066B</styleUrl>
		<Point>
			<coordinates>-0.2444118342295387,51.30875943511355,149.3228586883724</coordinates>
		</Point>
	</Placemark>
	<Placemark id="0F4B2A2F3C31033BB0A4">
		<name>29</name>
		<LookAt>
			<longitude>-0.2487331217907307</longitude>
			<latitude>51.30846010001144</latitude>
			<altitude>136.1388768228572</altitude>
			<heading>9.25274083636271</heading>
			<tilt>0</tilt>
			<gx:fovy>35</gx:fovy>
			<range>1244.575247784524</range>
			<altitudeMode>absolute</altitudeMode>
		</LookAt>
		<styleUrl>#__managed_style_0E5EFB76DE310338066B</styleUrl>
		<Point>
			<coordinates>-0.2443569488774155,51.30923497406921,147.4159391663144</coordinates>
		</Point>
	</Placemark>
	<Placemark id="05958FD53131033BDE57">
		<name>30</name>
		<LookAt>
			<longitude>-0.2464365945327696</longitude>
			<latitude>51.30991083326131</latitude>
			<altitude>139.3779043593523</altitude>
			<heading>9.253144155268844</heading>
			<tilt>0</tilt>
			<gx:fovy>35</gx:fovy>
			<range>726.6912592739391</range>
			<altitudeMode>absolute</altitudeMode>
		</LookAt>
		<styleUrl>#__managed_style_0E5EFB76DE310338066B</styleUrl>
		<Point>
			<coordinates>-0.2443395043431884,51.30966238463054,145.9024924617291</coordinates>
		</Point>
	</Placemark>
	<Placemark id="0F19D519FD31033BF404">
		<name>31</name>
		<LookAt>
			<longitude>-0.2464365945327696</longitude>
			<latitude>51.30991083326131</latitude>
			<altitude>139.3779043593523</altitude>
			<heading>9.253144155268844</heading>
			<tilt>0</tilt>
			<gx:fovy>35</gx:fovy>
			<range>726.6912592739391</range>
			<altitudeMode>absolute</altitudeMode>
		</LookAt>
		<styleUrl>#__managed_style_0E5EFB76DE310338066B</styleUrl>
		<Point>
			<coordinates>-0.2444457297237101,51.31001998136094,143.4439565276496</coordinates>
		</Point>
	</Placemark>
	<Placemark id="00C412741F31033C0C85">
		<name>32</name>
		<LookAt>
			<longitude>-0.2464365945327696</longitude>
			<latitude>51.30991083326131</latitude>
			<altitude>139.3779043593523</altitude>
			<heading>9.253144155268844</heading>
			<tilt>0</tilt>
			<gx:fovy>35</gx:fovy>
			<range>726.6912592739391</range>
			<altitudeMode>absolute</altitudeMode>
		</LookAt>
		<styleUrl>#__managed_style_0E5EFB76DE310338066B</styleUrl>
		<Point>
			<coordinates>-0.2446836721039092,51.31034392091076,142.1508947621551</coordinates>
		</Point>
	</Placemark>
	<Placemark id="081474A3DB31033C2202">
		<name>33</name>
		<LookAt>
			<longitude>-0.2464365945327696</longitude>
			<latitude>51.30991083326131</latitude>
			<altitude>139.3779043593523</altitude>
			<heading>9.253144155268844</heading>
			<tilt>0</tilt>
			<gx:fovy>35</gx:fovy>
			<range>726.6912592739391</range>
			<altitudeMode>absolute</altitudeMode>
		</LookAt>
		<styleUrl>#__managed_style_0E5EFB76DE310338066B</styleUrl>
		<Point>
			<coordinates>-0.2450467511591603,51.31062716988398,141.1263364953624</coordinates>
		</Point>
	</Placemark>
	<Placemark id="04438A9BBA31033C3C6E">
		<name>34</name>
		<LookAt>
			<longitude>-0.2464365945327696</longitude>
			<latitude>51.30991083326131</latitude>
			<altitude>139.3779043593523</altitude>
			<heading>9.253144155268844</heading>
			<tilt>0</tilt>
			<gx:fovy>35</gx:fovy>
			<range>726.6912592739391</range>
			<altitudeMode>absolute</altitudeMode>
		</LookAt>
		<styleUrl>#__managed_style_0E5EFB76DE310338066B</styleUrl>
		<Point>
			<coordinates>-0.2415718206147688,51.3102962830935,153.2009614632675</coordinates>
		</Point>
	</Placemark>
	<Placemark id="096CF252E031033C5037">
		<name>35</name>
		<LookAt>
			<longitude>-0.2464365945327696</longitude>
			<latitude>51.30991083326131</latitude>
			<altitude>139.3779043593523</altitude>
			<heading>9.253144155268844</heading>
			<tilt>0</tilt>
			<gx:fovy>35</gx:fovy>
			<range>726.6912592739391</range>
			<altitudeMode>absolute</altitudeMode>
		</LookAt>
		<styleUrl>#__managed_style_0E5EFB76DE310338066B</styleUrl>
		<Point>
			<coordinates>-0.2424838497949167,51.31045659819426,152.709863130265</coordinates>
		</Point>
	</Placemark>
	<Placemark id="088F6D24A331033C6177">
		<name>36</name>
		<LookAt>
			<longitude>-0.2464365945327696</longitude>
			<latitude>51.30991083326131</latitude>
			<altitude>139.3779043593523</altitude>
			<heading>9.253144155268844</heading>
			<tilt>0</tilt>
			<gx:fovy>35</gx:fovy>
			<range>726.6912592739391</range>
			<altitudeMode>absolute</altitudeMode>
		</LookAt>
		<styleUrl>#__managed_style_0E5EFB76DE310338066B</styleUrl>
		<Point>
			<coordinates>-0.2434284328171465,51.31063641502502,150.7879189362753</coordinates>
		</Point>
	</Placemark>
	<Placemark id="0CD1CEEBC131033C70E7">
		<name>37</name>
		<LookAt>
			<longitude>-0.2464365945327696</longitude>
			<latitude>51.30991083326131</latitude>
			<altitude>139.3779043593523</altitude>
			<heading>9.253144155268844</heading>
			<tilt>0</tilt>
			<gx:fovy>35</gx:fovy>
			<range>726.6912592739391</range>
			<altitudeMode>absolute</altitudeMode>
		</LookAt>
		<styleUrl>#__managed_style_0E5EFB76DE310338066B</styleUrl>
		<Point>
			<coordinates>-0.2444351068837625,51.31080289365943,148.507505067372</coordinates>
		</Point>
	</Placemark>
	<Placemark id="030FC544F031033C8D38">
		<name>38</name>
		<LookAt>
			<longitude>-0.2464365945327696</longitude>
			<latitude>51.30991083326131</latitude>
			<altitude>139.3779043593523</altitude>
			<heading>9.253144155268844</heading>
			<tilt>0</tilt>
			<gx:fovy>35</gx:fovy>
			<range>726.6912592739391</range>
			<altitudeMode>absolute</altitudeMode>
		</LookAt>
		<styleUrl>#__managed_style_0E5EFB76DE310338066B</styleUrl>
		<Point>
			<coordinates>-0.2455099089194246,51.31096587291005,140.9297758543362</coordinates>
		</Point>
	</Placemark>
	<Placemark id="05F33E8BB431033CC2AB">
		<name>39</name>
		<LookAt>
			<longitude>-0.2520174598646363</longitude>
			<latitude>51.31184625252756</latitude>
			<altitude>126.1188083645063</altitude>
			<heading>9.248636895434489</heading>
			<tilt>0</tilt>
			<gx:fovy>35</gx:fovy>
			<range>716.9368275177841</range>
			<altitudeMode>absolute</altitudeMode>
		</LookAt>
		<styleUrl>#__managed_style_0E5EFB76DE310338066B</styleUrl>
		<Point>
			<coordinates>-0.2465682784365408,51.31110619542662,138.505978843696</coordinates>
		</Point>
	</Placemark>
	<Placemark id="0A58C9049A31033CE3AD">
		<name>40</name>
		<LookAt>
			<longitude>-0.2488260685417765</longitude>
			<latitude>51.31155341223299</latitude>
			<altitude>134.0721349025296</altitude>
			<heading>9.248637085927683</heading>
			<tilt>0</tilt>
			<gx:fovy>35</gx:fovy>
			<range>281.9652539809249</range>
			<altitudeMode>absolute</altitudeMode>
		</LookAt>
		<styleUrl>#__managed_style_0E5EFB76DE310338066B</styleUrl>
		<Point>
			<coordinates>-0.246527570670213,51.31122189565068,138.8350686837467</coordinates>
		</Point>
	</Placemark>
	<Placemark id="0FF9256F2331033D164E">
		<name>41</name>
		<LookAt>
			<longitude>-0.2488260685417765</longitude>
			<latitude>51.31155341231241</latitude>
			<altitude>134.0721349025296</altitude>
			<heading>9.248637085927683</heading>
			<tilt>0</tilt>
			<gx:fovy>35</gx:fovy>
			<range>281.965253980925</range>
			<altitudeMode>absolute</altitudeMode>
		</LookAt>
		<styleUrl>#__managed_style_0E5EFB76DE310338066B</styleUrl>
		<Point>
			<coordinates>-0.2474380956822109,51.31127767750758,137.3792301625183</coordinates>
		</Point>
	</Placemark>
	<Placemark id="0F2EC9FB9B31033D33DB">
		<name>42</name>
		<LookAt>
			<longitude>-0.2488260685417765</longitude>
			<latitude>51.31155341231241</latitude>
			<altitude>134.0721349025296</altitude>
			<heading>9.248637085927683</heading>
			<tilt>0</tilt>
			<gx:fovy>35</gx:fovy>
			<range>281.965253980925</range>
			<altitudeMode>absolute</altitudeMode>
		</LookAt>
		<styleUrl>#__managed_style_0E5EFB76DE310338066B</styleUrl>
		<Point>
			<coordinates>-0.2474056864019414,51.31136663666471,137.6594033826777</coordinates>
		</Point>
	</Placemark>
	<Placemark id="028A2AC4F231033D469C">
		<name>43</name>
		<LookAt>
			<longitude>-0.2488260685417765</longitude>
			<latitude>51.31155341231241</latitude>
			<altitude>134.0721349025296</altitude>
			<heading>9.248637085927683</heading>
			<tilt>0</tilt>
			<gx:fovy>35</gx:fovy>
			<range>281.965253980925</range>
			<altitudeMode>absolute</altitudeMode>
		</LookAt>
		<styleUrl>#__managed_style_0E5EFB76DE310338066B</styleUrl>
		<Point>
			<coordinates>-0.2482110506538393,51.31140311143383,136.3043653301697</coordinates>
		</Point>
	</Placemark>
	<Placemark id="05C86269A031033D58D6">
		<name>44</name>
		<LookAt>
			<longitude>-0.2488260685417765</longitude>
			<latitude>51.31155341231241</latitude>
			<altitude>134.0721349025296</altitude>
			<heading>9.248637085927683</heading>
			<tilt>0</tilt>
			<gx:fovy>35</gx:fovy>
			<range>281.965253980925</range>
			<altitudeMode>absolute</altitudeMode>
		</LookAt>
		<styleUrl>#__managed_style_0E5EFB76DE310338066B</styleUrl>
		<Point>
			<coordinates>-0.2481843919191196,51.31150168215642,136.9898726557334</coordinates>
		</Point>
	</Placemark>
	<Placemark id="0AFF79B43F31033D6A8C">
		<name>45</name>
		<LookAt>
			<longitude>-0.2488260685417765</longitude>
			<latitude>51.31155341231241</latitude>
			<altitude>134.0721349025296</altitude>
			<heading>9.248637085927683</heading>
			<tilt>0</tilt>
			<gx:fovy>35</gx:fovy>
			<range>281.965253980925</range>
			<altitudeMode>absolute</altitudeMode>
		</LookAt>
		<styleUrl>#__managed_style_0E5EFB76DE310338066B</styleUrl>
		<Point>
			<coordinates>-0.2490635541534825,51.31156595602941,135.3889314561811</coordinates>
		</Point>
	</Placemark>
	<Placemark id="0324FCF04631033D7A2B">
		<name>46</name>
		<LookAt>
			<longitude>-0.2488260685417765</longitude>
			<latitude>51.31155341231241</latitude>
			<altitude>134.0721349025296</altitude>
			<heading>9.248637085927683</heading>
			<tilt>0</tilt>
			<gx:fovy>35</gx:fovy>
			<range>281.965253980925</range>
			<altitudeMode>absolute</altitudeMode>
		</LookAt>
		<styleUrl>#__managed_style_0E5EFB76DE310338066B</styleUrl>
		<Point>
			<coordinates>-0.249036008835456,51.31165855927924,136.0336063010494</coordinates>
		</Point>
	</Placemark>
	<Placemark id="0089420D6531033D8B5A">
		<name>47</name>
		<LookAt>
			<longitude>-0.2488260685417765</longitude>
			<latitude>51.31155341231241</latitude>
			<altitude>134.0721349025296</altitude>
			<heading>9.248637085927683</heading>
			<tilt>0</tilt>
			<gx:fovy>35</gx:fovy>
			<range>281.965253980925</range>
			<altitudeMode>absolute</altitudeMode>
		</LookAt>
		<styleUrl>#__managed_style_0E5EFB76DE310338066B</styleUrl>
		<Point>
			<coordinates>-0.2500422912836242,51.31174072409512,134.7820899114847</coordinates>
		</Point>
	</Placemark>
	<Placemark id="020637D8E431033D9DB6">
		<name>48</name>
		<LookAt>
			<longitude>-0.2488260685417765</longitude>
			<latitude>51.31155341231241</latitude>
			<altitude>134.0721349025296</altitude>
			<heading>9.248637085927683</heading>
			<tilt>0</tilt>
			<gx:fovy>35</gx:fovy>
			<range>281.965253980925</range>
			<altitudeMode>absolute</altitudeMode>
		</LookAt>
		<styleUrl>#__managed_style_0E5EFB76DE310338066B</styleUrl>
		<Point>
			<coordinates>-0.2500053773175204,51.31183980222806,135.3599192408729</coordinates>
		</Point>
	</Placemark>
	<Placemark id="0F2300BC2231033DAFBF">
		<name>49</name>
		<LookAt>
			<longitude>-0.2488260685417765</longitude>
			<latitude>51.31155341231241</latitude>
			<altitude>134.0721349025296</altitude>
			<heading>9.248637085927683</heading>
			<tilt>0</tilt>
			<gx:fovy>35</gx:fovy>
			<range>281.965253980925</range>
			<altitudeMode>absolute</altitudeMode>
		</LookAt>
		<styleUrl>#__managed_style_0E5EFB76DE310338066B</styleUrl>
		<Point>
			<coordinates>-0.2509937856591538,51.31189997265165,134.3387634589286</coordinates>
		</Point>
	</Placemark>
	<Placemark id="062C5B32C931033DC0EE">
		<name>50</name>
		<LookAt>
			<longitude>-0.2488260685417765</longitude>
			<latitude>51.31155341231241</latitude>
			<altitude>134.0721349025296</altitude>
			<heading>9.248637085927683</heading>
			<tilt>0</tilt>
			<gx:fovy>35</gx:fovy>
			<range>281.965253980925</range>
			<altitudeMode>absolute</altitudeMode>
		</LookAt>
		<styleUrl>#__managed_style_0E5EFB76DE310338066B</styleUrl>
		<Point>
			<coordinates>-0.2509543242316981,51.31201171316564,134.8663502236521</coordinates>
		</Point>
	</Placemark>
	<Placemark id="0E6F444FBD31033DD272">
		<name>51</name>
		<LookAt>
			<longitude>-0.2488260685417765</longitude>
			<latitude>51.31155341231241</latitude>
			<altitude>134.0721349025296</altitude>
			<heading>9.248637085927683</heading>
			<tilt>0</tilt>
			<gx:fovy>35</gx:fovy>
			<range>281.965253980925</range>
			<altitudeMode>absolute</altitudeMode>
		</LookAt>
		<styleUrl>#__managed_style_0E5EFB76DE310338066B</styleUrl>
		<Point>
			<coordinates>-0.2520471357215581,51.31210740924885,133.4932242214941</coordinates>
		</Point>
	</Placemark>
	<Placemark id="0CC28831FB31033DEB3F">
		<name>52</name>
		<LookAt>
			<longitude>-0.2488411992441875</longitude>
			<latitude>51.31156154336207</latitude>
			<altitude>134.0690654847282</altitude>
			<heading>9.248637085362196</heading>
			<tilt>0</tilt>
			<gx:fovy>35</gx:fovy>
			<range>270.6576912916717</range>
			<altitudeMode>absolute</altitudeMode>
		</LookAt>
		<styleUrl>#__managed_style_0E5EFB76DE310338066B</styleUrl>
		<Point>
			<coordinates>-0.2519974948669712,51.31221254898711,134.2183366441535</coordinates>
		</Point>
	</Placemark>
	<Placemark id="01112A91EC31033E0974">
		<name>53</name>
		<LookAt>
			<longitude>-0.2499798515497809</longitude>
			<latitude>51.3118738794598</latitude>
			<altitude>132.3629186605857</altitude>
			<heading>9.248046200184945</heading>
			<tilt>0</tilt>
			<gx:fovy>35</gx:fovy>
			<range>125.5519547959011</range>
			<altitudeMode>absolute</altitudeMode>
		</LookAt>
		<styleUrl>#__managed_style_0E5EFB76DE310338066B</styleUrl>
		<Point>
			<coordinates>-0.2531690943578246,51.31228852147194,132.4380086073296</coordinates>
		</Point>
	</Placemark>
	<Placemark id="0FEAB11F4431033E1A82">
		<name>54</name>
		<LookAt>
			<longitude>-0.2499798515497809</longitude>
			<latitude>51.3118738794598</latitude>
			<altitude>132.3629186605857</altitude>
			<heading>9.248046200184945</heading>
			<tilt>0</tilt>
			<gx:fovy>35</gx:fovy>
			<range>125.5519547959011</range>
			<altitudeMode>absolute</altitudeMode>
		</LookAt>
		<styleUrl>#__managed_style_0E5EFB76DE310338066B</styleUrl>
		<Point>
			<coordinates>-0.2531193654495534,51.31239867912582,132.9564222546719</coordinates>
		</Point>
	</Placemark>
	<Placemark id="0CFAD754B431033E2BC3">
		<name>55</name>
		<LookAt>
			<longitude>-0.2499798515497809</longitude>
			<latitude>51.3118738794598</latitude>
			<altitude>132.3629186605857</altitude>
			<heading>9.248046200184945</heading>
			<tilt>0</tilt>
			<gx:fovy>35</gx:fovy>
			<range>125.5519547959011</range>
			<altitudeMode>absolute</altitudeMode>
		</LookAt>
		<styleUrl>#__managed_style_0E5EFB76DE310338066B</styleUrl>
		<Point>
			<coordinates>-0.2541217565381271,51.31244332143018,130.9191463249656</coordinates>
		</Point>
	</Placemark>
	<Placemark id="09677052B231033E3AAB">
		<name>56</name>
		<LookAt>
			<longitude>-0.2499798515497809</longitude>
			<latitude>51.3118738794598</latitude>
			<altitude>132.3629186605857</altitude>
			<heading>9.248046200184945</heading>
			<tilt>0</tilt>
			<gx:fovy>35</gx:fovy>
			<range>125.5519547959011</range>
			<altitudeMode>absolute</altitudeMode>
		</LookAt>
		<styleUrl>#__managed_style_0E5EFB76DE310338066B</styleUrl>
		<Point>
			<coordinates>-0.2540580241854018,51.31256069173801,131.774162850775</coordinates>
		</Point>
	</Placemark>
	<Placemark id="00FE435A4431033E6A52">
		<name>57</name>
		<LookAt>
			<longitude>-0.2545405247915511</longitude>
			<latitude>51.31253395803935</latitude>
			<altitude>123.3507566028278</altitude>
			<heading>9.245015643729943</heading>
			<tilt>0</tilt>
			<gx:fovy>35</gx:fovy>
			<range>456.149247380672</range>
			<altitudeMode>absolute</altitudeMode>
		</LookAt>
		<styleUrl>#__managed_style_0E5EFB76DE310338066B</styleUrl>
		<Point>
			<coordinates>-0.2550636302371712,51.3126249938311,127.9149021245864</coordinates>
		</Point>
	</Placemark>
	<Placemark id="014847F1F731033E7AA8">
		<name>58</name>
		<LookAt>
			<longitude>-0.2545405247915511</longitude>
			<latitude>51.31253395803935</latitude>
			<altitude>123.3507566028278</altitude>
			<heading>9.245015643729943</heading>
			<tilt>0</tilt>
			<gx:fovy>35</gx:fovy>
			<range>456.149247380672</range>
			<altitudeMode>absolute</altitudeMode>
		</LookAt>
		<styleUrl>#__managed_style_0E5EFB76DE310338066B</styleUrl>
		<Point>
			<coordinates>-0.2549881430451939,51.31274891082644,128.5496560141738</coordinates>
		</Point>
	</Placemark>
	<Placemark id="01B3E4867131033E8DFE">
		<name>59</name>
		<LookAt>
			<longitude>-0.2545405247915511</longitude>
			<latitude>51.31253395803935</latitude>
			<altitude>123.3507566028278</altitude>
			<heading>9.245015643729943</heading>
			<tilt>0</tilt>
			<gx:fovy>35</gx:fovy>
			<range>456.149247380672</range>
			<altitudeMode>absolute</altitudeMode>
		</LookAt>
		<styleUrl>#__managed_style_0E5EFB76DE310338066B</styleUrl>
		<Point>
			<coordinates>-0.2558990729027688,51.31276177983298,125.2364681459381</coordinates>
		</Point>
	</Placemark>
	<Placemark id="0D4C28176E31033EA1B8">
		<name>60</name>
		<LookAt>
			<longitude>-0.2545405247915511</longitude>
			<latitude>51.31253395803935</latitude>
			<altitude>123.3507566028278</altitude>
			<heading>9.245015643729943</heading>
			<tilt>0</tilt>
			<gx:fovy>35</gx:fovy>
			<range>456.149247380672</range>
			<altitudeMode>absolute</altitudeMode>
		</LookAt>
		<styleUrl>#__managed_style_0E5EFB76DE310338066B</styleUrl>
		<Point>
			<coordinates>-0.2558259104162997,51.31288563480719,126.2433902010869</coordinates>
		</Point>
	</Placemark>
	<Placemark id="07102696E131033ECB94">
		<name>61</name>
		<LookAt>
			<longitude>-0.2584352296068759</longitude>
			<latitude>51.31263646241691</latitude>
			<altitude>121.1040965629133</altitude>
			<heading>9.241771366180405</heading>
			<tilt>0</tilt>
			<gx:fovy>35</gx:fovy>
			<range>737.3927277399343</range>
			<altitudeMode>absolute</altitudeMode>
		</LookAt>
		<styleUrl>#__managed_style_0E5EFB76DE310338066B</styleUrl>
		<Point>
			<coordinates>-0.260117498435356,51.31352961221656,116.9829235736599</coordinates>
		</Point>
	</Placemark>
</Document>
</kml>
