<?xml version="1.0" encoding="UTF-8"?>
<kml xmlns="http://www.opengis.net/kml/2.2" xmlns:gx="http://www.google.com/kml/ext/2.2" xmlns:kml="http://www.opengis.net/kml/2.2" xmlns:atom="http://www.w3.org/2005/Atom">
<Document id="11kGkWr0N1_1yB9nCfqbaWJd3sG7pyePT">
	<name>Southwell Racecourse</name>
	<StyleMap id="__managed_style_3DBCB6DD2C3A3EEEECD4">
		<Pair>
			<key>normal</key>
			<styleUrl>#__managed_style_4659CFA0943A3EEEECD4</styleUrl>
		</Pair>
		<Pair>
			<key>highlight</key>
			<styleUrl>#__managed_style_5B04181B563A3EEEECD4</styleUrl>
		</Pair>
	</StyleMap>
	<gx:CascadingStyle kml:id="__managed_style_5CAB39158E3A3EEB5C10">
		<Style>
			<IconStyle>
				<scale>1.2</scale>
				<Icon>
					<href>https://earth.google.com/earth/document/icon?color=fbc02d&amp;id=2000&amp;scale=4</href>
				</Icon>
				<hotSpot x="64" y="128" xunits="pixels" yunits="insetPixels"/>
			</IconStyle>
			<LabelStyle>
			</LabelStyle>
			<LineStyle>
				<color>ff2dc0fb</color>
				<width>6</width>
			</LineStyle>
			<PolyStyle>
				<color>40ffffff</color>
			</PolyStyle>
			<BalloonStyle>
				<gx:displayMode>card</gx:displayMode>
			</BalloonStyle>
		</Style>
	</gx:CascadingStyle>
	<gx:CascadingStyle kml:id="__managed_style_4659CFA0943A3EEEECD4">
		<Style>
			<IconStyle>
				<Icon>
					<href>https://earth.google.com/earth/document/icon?color=1976d2&amp;id=2000&amp;scale=4</href>
				</Icon>
				<hotSpot x="64" y="128" xunits="pixels" yunits="insetPixels"/>
			</IconStyle>
			<LabelStyle>
			</LabelStyle>
			<LineStyle>
				<color>ff2dc0fb</color>
				<width>4</width>
			</LineStyle>
			<PolyStyle>
				<color>40ffffff</color>
			</PolyStyle>
			<BalloonStyle>
			</BalloonStyle>
		</Style>
	</gx:CascadingStyle>
	<gx:CascadingStyle kml:id="__managed_style_48704B5E073A3EEB5C10">
		<Style>
			<IconStyle>
				<Icon>
					<href>https://earth.google.com/earth/document/icon?color=fbc02d&amp;id=2000&amp;scale=4</href>
				</Icon>
				<hotSpot x="64" y="128" xunits="pixels" yunits="insetPixels"/>
			</IconStyle>
			<LabelStyle>
			</LabelStyle>
			<LineStyle>
				<color>ff2dc0fb</color>
				<width>4</width>
			</LineStyle>
			<PolyStyle>
				<color>40ffffff</color>
			</PolyStyle>
			<BalloonStyle>
				<gx:displayMode>card</gx:displayMode>
			</BalloonStyle>
		</Style>
	</gx:CascadingStyle>
	<gx:CascadingStyle kml:id="__managed_style_5B04181B563A3EEEECD4">
		<Style>
			<IconStyle>
				<scale>1.2</scale>
				<Icon>
					<href>https://earth.google.com/earth/document/icon?color=1976d2&amp;id=2000&amp;scale=4</href>
				</Icon>
				<hotSpot x="64" y="128" xunits="pixels" yunits="insetPixels"/>
			</IconStyle>
			<LabelStyle>
			</LabelStyle>
			<LineStyle>
				<color>ff2dc0fb</color>
				<width>6</width>
			</LineStyle>
			<PolyStyle>
				<color>40ffffff</color>
			</PolyStyle>
			<BalloonStyle>
			</BalloonStyle>
		</Style>
	</gx:CascadingStyle>
	<StyleMap id="__managed_style_3728B85BBC3A3EEB5C10">
		<Pair>
			<key>normal</key>
			<styleUrl>#__managed_style_48704B5E073A3EEB5C10</styleUrl>
		</Pair>
		<Pair>
			<key>highlight</key>
			<styleUrl>#__managed_style_5CAB39158E3A3EEB5C10</styleUrl>
		</Pair>
	</StyleMap>
	<Placemark id="0B1F9B5E0E361062F876">
		<name>Southwell Racecourse</name>
		<gx:mid>/m/027ljrc</gx:mid>
		<gx:fid>0x4879b6721dcd9791:0x2e8f8e771e4b4785</gx:fid>
		<LookAt>
			<longitude>-0.9012476999999999</longitude>
			<latitude>53.06540450000001</latitude>
			<altitude>0</altitude>
			<heading>0</heading>
			<tilt>0</tilt>
			<gx:fovy>35</gx:fovy>
			<range>604.5035719933292</range>
			<altitudeMode>relativeToGround</altitudeMode>
		</LookAt>
		<styleUrl>#__managed_style_3728B85BBC3A3EEB5C10</styleUrl>
		<Point>
			<altitudeMode>relativeToGround</altitudeMode>
			<coordinates>-0.9012477,53.0654045,0</coordinates>
		</Point>
	</Placemark>
	<Placemark id="0E72E951353A3EEEECCC">
		<name>1</name>
		<LookAt>
			<longitude>-0.9026679662379156</longitude>
			<latitude>53.06744873340752</latitude>
			<altitude>17.29536673386963</altitude>
			<heading>26.97156079301451</heading>
			<tilt>0</tilt>
			<gx:fovy>35</gx:fovy>
			<range>209.6197846865107</range>
			<altitudeMode>absolute</altitudeMode>
		</LookAt>
		<styleUrl>#__managed_style_3DBCB6DD2C3A3EEEECD4</styleUrl>
		<Point>
			<coordinates>-0.902698732798195,53.06711787954183,17.57728275007372</coordinates>
		</Point>
	</Placemark>
	<Placemark id="0261CAA5A33A3EEF866E">
		<name>2</name>
		<LookAt>
			<longitude>-0.9014855882202211</longitude>
			<latitude>53.06716609994739</latitude>
			<altitude>18.55139183387799</altitude>
			<heading>26.97250591403982</heading>
			<tilt>0</tilt>
			<gx:fovy>35</gx:fovy>
			<range>208.3637673996055</range>
			<altitudeMode>absolute</altitudeMode>
		</LookAt>
		<styleUrl>#__managed_style_3DBCB6DD2C3A3EEEECD4</styleUrl>
		<Point>
			<coordinates>-0.9016314627349087,53.06699668882031,18.3409223903021</coordinates>
		</Point>
	</Placemark>
	<Placemark id="0BC7A598CD3A3EEFCB14">
		<name>3</name>
		<LookAt>
			<longitude>-0.9008308564628709</longitude>
			<latitude>53.06729604512178</latitude>
			<altitude>17.88527532538016</altitude>
			<heading>26.97302926424608</heading>
			<tilt>0</tilt>
			<gx:fovy>35</gx:fovy>
			<range>209.0298684276058</range>
			<altitudeMode>absolute</altitudeMode>
		</LookAt>
		<styleUrl>#__managed_style_3DBCB6DD2C3A3EEEECD4</styleUrl>
		<Point>
			<coordinates>-0.9006077704865489,53.06723935647067,17.58652872366265</coordinates>
		</Point>
	</Placemark>
	<Placemark id="066B681C183A3EEFFCB1">
		<name>4</name>
		<LookAt>
			<longitude>-0.9003137856911214</longitude>
			<latitude>53.06757718251897</latitude>
			<altitude>17.11378726535001</altitude>
			<heading>26.97344257777647</heading>
			<tilt>0</tilt>
			<gx:fovy>35</gx:fovy>
			<range>209.8013579998951</range>
			<altitudeMode>absolute</altitudeMode>
		</LookAt>
		<styleUrl>#__managed_style_3DBCB6DD2C3A3EEEECD4</styleUrl>
		<Point>
			<coordinates>-0.8999686845945321,53.0677827530284,16.7992304413745</coordinates>
		</Point>
	</Placemark>
	<Placemark id="09B9E6A61C3A3EF043A8">
		<name>5</name>
		<LookAt>
			<longitude>-0.9001621174324292</longitude>
			<latitude>53.06862412386154</latitude>
			<altitude>16.92963093413771</altitude>
			<heading>26.97364892901877</heading>
			<tilt>0</tilt>
			<gx:fovy>35</gx:fovy>
			<range>334.3857754993224</range>
			<altitudeMode>absolute</altitudeMode>
		</LookAt>
		<styleUrl>#__managed_style_3DBCB6DD2C3A3EEEECD4</styleUrl>
		<Point>
			<coordinates>-0.8998849071074844,53.06845512002757,16.92964736810815</coordinates>
		</Point>
	</Placemark>
	<Placemark id="022BC1FDB73A3EF07B4B">
		<name>6</name>
		<LookAt>
			<longitude>-0.9001621174324292</longitude>
			<latitude>53.06862412386154</latitude>
			<altitude>16.92963093413771</altitude>
			<heading>26.97364892901877</heading>
			<tilt>0</tilt>
			<gx:fovy>35</gx:fovy>
			<range>334.3857754993224</range>
			<altitudeMode>absolute</altitudeMode>
		</LookAt>
		<styleUrl>#__managed_style_3DBCB6DD2C3A3EEEECD4</styleUrl>
		<Point>
			<coordinates>-0.9004016316149666,53.06905469930313,16.82931700951042</coordinates>
		</Point>
	</Placemark>
	<Placemark id="0239F689793A3EF0B358">
		<name>7</name>
		<LookAt>
			<longitude>-0.9009433072779605</longitude>
			<latitude>53.06902898779948</latitude>
			<altitude>16.37718109342547</altitude>
			<heading>26.97302447714112</heading>
			<tilt>0</tilt>
			<gx:fovy>35</gx:fovy>
			<range>334.9382367576619</range>
			<altitudeMode>absolute</altitudeMode>
		</LookAt>
		<styleUrl>#__managed_style_3DBCB6DD2C3A3EEEECD4</styleUrl>
		<Point>
			<coordinates>-0.9012438983468363,53.06938542634453,16.32720517993583</coordinates>
		</Point>
	</Placemark>
	<Placemark id="0F7DCFFC683A3EF0E888">
		<name>8</name>
		<LookAt>
			<longitude>-0.9015748485956221</longitude>
			<latitude>53.06924981606529</latitude>
			<altitude>16.00856813651209</altitude>
			<heading>26.97251964786259</heading>
			<tilt>0</tilt>
			<gx:fovy>35</gx:fovy>
			<range>335.3068301202802</range>
			<altitudeMode>absolute</altitudeMode>
		</LookAt>
		<styleUrl>#__managed_style_3DBCB6DD2C3A3EEEECD4</styleUrl>
		<Point>
			<coordinates>-0.9020723433147226,53.06966249252149,16.36235520191352</coordinates>
		</Point>
	</Placemark>
	<Placemark id="01D08CF3EE3A3EF119FF">
		<name>9</name>
		<LookAt>
			<longitude>-0.9031706181902066</longitude>
			<latitude>53.06972391542018</latitude>
			<altitude>15.83213689181023</altitude>
			<heading>26.9712440438594</heading>
			<tilt>0</tilt>
			<gx:fovy>35</gx:fovy>
			<range>335.4832580066068</range>
			<altitudeMode>absolute</altitudeMode>
		</LookAt>
		<styleUrl>#__managed_style_3DBCB6DD2C3A3EEEECD4</styleUrl>
		<Point>
			<coordinates>-0.9029352078656028,53.06994287341135,16.01948355648108</coordinates>
		</Point>
	</Placemark>
	<Placemark id="02049640ED3A3EF164F9">
		<name>10</name>
		<LookAt>
			<longitude>-0.9041286113534241</longitude>
			<latitude>53.07001682997421</latitude>
			<altitude>15.70785501366551</altitude>
			<heading>26.97047825295349</heading>
			<tilt>0</tilt>
			<gx:fovy>35</gx:fovy>
			<range>335.6075362943739</range>
			<altitudeMode>absolute</altitudeMode>
		</LookAt>
		<styleUrl>#__managed_style_3DBCB6DD2C3A3EEEECD4</styleUrl>
		<Point>
			<coordinates>-0.9037855190799227,53.07021732762329,15.34976890534299</coordinates>
		</Point>
	</Placemark>
	<Placemark id="000E652C8A3A3EF18B40">
		<name>11</name>
		<LookAt>
			<longitude>-0.9041286113534241</longitude>
			<latitude>53.07001682997421</latitude>
			<altitude>15.70785501366551</altitude>
			<heading>26.97047825295349</heading>
			<tilt>0</tilt>
			<gx:fovy>35</gx:fovy>
			<range>335.6075362943739</range>
			<altitudeMode>absolute</altitudeMode>
		</LookAt>
		<styleUrl>#__managed_style_3DBCB6DD2C3A3EEEECD4</styleUrl>
		<Point>
			<coordinates>-0.9045948730545328,53.07048312630656,15.45596392229337</coordinates>
		</Point>
	</Placemark>
	<Placemark id="0AAC2963323A3EF286E9">
		<name>12</name>
		<LookAt>
			<longitude>-0.9054765270888121</longitude>
			<latitude>53.0704104545604</latitude>
			<altitude>15.91316681752391</altitude>
			<heading>26.96940076430784</heading>
			<tilt>0</tilt>
			<gx:fovy>35</gx:fovy>
			<range>335.4022522968444</range>
			<altitudeMode>absolute</altitudeMode>
		</LookAt>
		<styleUrl>#__managed_style_3DBCB6DD2C3A3EEEECD4</styleUrl>
		<Point>
			<coordinates>-0.9054142832513679,53.07074748230531,15.57402184119732</coordinates>
		</Point>
	</Placemark>
	<Placemark id="0BD8A227573A3EF2AAB8">
		<name>13</name>
		<LookAt>
			<longitude>-0.9054765270888121</longitude>
			<latitude>53.0704104545604</latitude>
			<altitude>15.91316681752391</altitude>
			<heading>26.96940076430784</heading>
			<tilt>0</tilt>
			<gx:fovy>35</gx:fovy>
			<range>335.4022522968444</range>
			<altitudeMode>absolute</altitudeMode>
		</LookAt>
		<styleUrl>#__managed_style_3DBCB6DD2C3A3EEEECD4</styleUrl>
		<Point>
			<coordinates>-0.9062958587479308,53.07103477652657,16.22408823419104</coordinates>
		</Point>
	</Placemark>
	<Placemark id="0B7F883E383A3EF2E03C">
		<name>14</name>
		<LookAt>
			<longitude>-0.9070572249711384</longitude>
			<latitude>53.07100218011943</latitude>
			<altitude>17.47645423718896</altitude>
			<heading>26.96813718794415</heading>
			<tilt>0</tilt>
			<gx:fovy>35</gx:fovy>
			<range>333.8389463976273</range>
			<altitudeMode>absolute</altitudeMode>
		</LookAt>
		<styleUrl>#__managed_style_3DBCB6DD2C3A3EEEECD4</styleUrl>
		<Point>
			<coordinates>-0.9071052594343254,53.0713148050984,18.50555370895315</coordinates>
		</Point>
	</Placemark>
	<Placemark id="00DC7797333A3EF30B21">
		<name>15</name>
		<LookAt>
			<longitude>-0.9070572249711384</longitude>
			<latitude>53.07100218011943</latitude>
			<altitude>17.47645423718896</altitude>
			<heading>26.96813718794415</heading>
			<tilt>0</tilt>
			<gx:fovy>35</gx:fovy>
			<range>333.8389463976273</range>
			<altitudeMode>absolute</altitudeMode>
		</LookAt>
		<styleUrl>#__managed_style_3DBCB6DD2C3A3EEEECD4</styleUrl>
		<Point>
			<coordinates>-0.9079048452232752,53.07158340217074,20.20626183669297</coordinates>
		</Point>
	</Placemark>
	<Placemark id="01E6A6F8143A3EF359E1">
		<name>16</name>
		<LookAt>
			<longitude>-0.9085239850068871</longitude>
			<latitude>53.07148943478163</latitude>
			<altitude>20.77512399665595</altitude>
			<heading>26.96696468248474</heading>
			<tilt>0</tilt>
			<gx:fovy>35</gx:fovy>
			<range>330.5402872791456</range>
			<altitudeMode>absolute</altitudeMode>
		</LookAt>
		<styleUrl>#__managed_style_3DBCB6DD2C3A3EEEECD4</styleUrl>
		<Point>
			<coordinates>-0.908823866247187,53.07187017260525,20.24033832161125</coordinates>
		</Point>
	</Placemark>
	<Placemark id="01A7968C343A3EF3D9E0">
		<name>17</name>
		<LookAt>
			<longitude>-0.9094304866260661</longitude>
			<latitude>53.07205946823317</latitude>
			<altitude>19.90956541416688</altitude>
			<heading>26.96691028321754</heading>
			<tilt>0</tilt>
			<gx:fovy>35</gx:fovy>
			<range>157.521651986408</range>
			<altitudeMode>absolute</altitudeMode>
		</LookAt>
		<styleUrl>#__managed_style_3DBCB6DD2C3A3EEEECD4</styleUrl>
		<Point>
			<coordinates>-0.9099959758963161,53.07197731153663,19.85224666206659</coordinates>
		</Point>
	</Placemark>
	<Placemark id="0E444DA6FC3A3EF41FD9">
		<name>18</name>
		<LookAt>
			<longitude>-0.9102720983518964</longitude>
			<latitude>53.07119760924432</latitude>
			<altitude>18.66171856772225</altitude>
			<heading>26.96474732053376</heading>
			<tilt>0</tilt>
			<gx:fovy>35</gx:fovy>
			<range>204.6651788041709</range>
			<altitudeMode>absolute</altitudeMode>
		</LookAt>
		<styleUrl>#__managed_style_3DBCB6DD2C3A3EEEECD4</styleUrl>
		<Point>
			<coordinates>-0.9110369332762003,53.07166876351199,18.2883184986292</coordinates>
		</Point>
	</Placemark>
	<Placemark id="09B55A09673A3EF45DBC">
		<name>19</name>
		<LookAt>
			<longitude>-0.9107525722482257</longitude>
			<latitude>53.0707691108339</latitude>
			<altitude>18.03485819154533</altitude>
			<heading>26.96436323582549</heading>
			<tilt>0</tilt>
			<gx:fovy>35</gx:fovy>
			<range>205.2920401564552</range>
			<altitudeMode>absolute</altitudeMode>
		</LookAt>
		<styleUrl>#__managed_style_3DBCB6DD2C3A3EEEECD4</styleUrl>
		<Point>
			<coordinates>-0.9116587190920256,53.07105741407533,17.66648085139595</coordinates>
		</Point>
	</Placemark>
	<Placemark id="0AD91107943A3EF49768">
		<name>20</name>
		<LookAt>
			<longitude>-0.9107750181398011</longitude>
			<latitude>53.07037024928597</latitude>
			<altitude>18.03486579810976</altitude>
			<heading>26.9643452921615</heading>
			<tilt>0</tilt>
			<gx:fovy>35</gx:fovy>
			<range>205.2920401564552</range>
			<altitudeMode>absolute</altitudeMode>
		</LookAt>
		<styleUrl>#__managed_style_3DBCB6DD2C3A3EEEECD4</styleUrl>
		<Point>
			<coordinates>-0.9116432549641273,53.07047023965917,18.0348905007001</coordinates>
		</Point>
	</Placemark>
	<Placemark id="0F5F820A803A3EF4DAFC">
		<name>21</name>
		<LookAt>
			<longitude>-0.91008582936694</longitude>
			<latitude>53.07040983251082</latitude>
			<altitude>18.04177847467937</altitude>
			<heading>26.96434141713612</heading>
			<tilt>0</tilt>
			<gx:fovy>35</gx:fovy>
			<range>511.0387163156702</range>
			<altitudeMode>absolute</altitudeMode>
		</LookAt>
		<styleUrl>#__managed_style_3DBCB6DD2C3A3EEEECD4</styleUrl>
		<Point>
			<coordinates>-0.9111857258954759,53.06993456407756,18.54400970482273</coordinates>
		</Point>
	</Placemark>
	<Placemark id="0E1E06F1D33A3EF4F7B1">
		<name>22</name>
		<LookAt>
			<longitude>-0.91008582936694</longitude>
			<latitude>53.07040983251082</latitude>
			<altitude>18.04177847467937</altitude>
			<heading>26.96434141713612</heading>
			<tilt>0</tilt>
			<gx:fovy>35</gx:fovy>
			<range>511.0387163156702</range>
			<altitudeMode>absolute</altitudeMode>
		</LookAt>
		<styleUrl>#__managed_style_3DBCB6DD2C3A3EEEECD4</styleUrl>
		<Point>
			<coordinates>-0.910262562324059,53.06954942052117,19.82541244840431</coordinates>
		</Point>
	</Placemark>
	<Placemark id="0A32DFFFE73A3EF5350C">
		<name>23</name>
		<LookAt>
			<longitude>-0.9098773670353633</longitude>
			<latitude>53.070053834821</latitude>
			<altitude>18.44241543851596</altitude>
			<heading>26.96450805805452</heading>
			<tilt>0</tilt>
			<gx:fovy>35</gx:fovy>
			<range>510.6381146883359</range>
			<altitudeMode>absolute</altitudeMode>
		</LookAt>
		<styleUrl>#__managed_style_3DBCB6DD2C3A3EEEECD4</styleUrl>
		<Point>
			<coordinates>-0.9093827432672996,53.06926909972241,19.06341749679436</coordinates>
		</Point>
	</Placemark>
	<Placemark id="01F648A8773A3EF56337">
		<name>24</name>
		<LookAt>
			<longitude>-0.9083877943392238</longitude>
			<latitude>53.06911116453916</latitude>
			<altitude>16.92961371079346</altitude>
			<heading>26.96539554607168</heading>
			<tilt>0</tilt>
			<gx:fovy>35</gx:fovy>
			<range>216.2869138527458</range>
			<altitudeMode>absolute</altitudeMode>
		</LookAt>
		<styleUrl>#__managed_style_3DBCB6DD2C3A3EEEECD4</styleUrl>
		<Point>
			<coordinates>-0.908545931381215,53.06900039628487,17.27645568578653</coordinates>
		</Point>
	</Placemark>
	<Placemark id="074BFF85CC3A3EF5960E">
		<name>25</name>
		<LookAt>
			<longitude>-0.9076486832889108</longitude>
			<latitude>53.06876306592255</latitude>
			<altitude>16.92962079818194</altitude>
			<heading>26.96598636195083</heading>
			<tilt>0</tilt>
			<gx:fovy>35</gx:fovy>
			<range>216.2868906751464</range>
			<altitudeMode>absolute</altitudeMode>
		</LookAt>
		<styleUrl>#__managed_style_3DBCB6DD2C3A3EEEECD4</styleUrl>
		<Point>
			<coordinates>-0.9077586417635364,53.06873859380418,16.92963110248087</coordinates>
		</Point>
	</Placemark>
	<Placemark id="022C6A88193A3EF5C189">
		<name>26</name>
		<LookAt>
			<longitude>-0.9066603453528388</longitude>
			<latitude>53.06844900719926</latitude>
			<altitude>16.67466478617571</altitude>
			<heading>26.96677639634857</heading>
			<tilt>0</tilt>
			<gx:fovy>35</gx:fovy>
			<range>216.5418674457032</range>
			<altitudeMode>absolute</altitudeMode>
		</LookAt>
		<styleUrl>#__managed_style_3DBCB6DD2C3A3EEEECD4</styleUrl>
		<Point>
			<coordinates>-0.9068983680499709,53.06846366858945,16.86119856841316</coordinates>
		</Point>
	</Placemark>
	<Placemark id="0DE6C4C59C3A3EF5F56C">
		<name>27</name>
		<LookAt>
			<longitude>-0.9058780603575567</longitude>
			<latitude>53.06822924270518</latitude>
			<altitude>16.9295994511376</altitude>
			<heading>26.96740171930131</heading>
			<tilt>0</tilt>
			<gx:fovy>35</gx:fovy>
			<range>216.2869138527458</range>
			<altitudeMode>absolute</altitudeMode>
		</LookAt>
		<styleUrl>#__managed_style_3DBCB6DD2C3A3EEEECD4</styleUrl>
		<Point>
			<coordinates>-0.9060606460374421,53.0681915220214,16.91266192810781</coordinates>
		</Point>
	</Placemark>
	<Placemark id="0B7FB9664F3A3EF63138">
		<name>28</name>
		<LookAt>
			<longitude>-0.9058780603575567</longitude>
			<latitude>53.06822924270518</latitude>
			<altitude>16.9295994511376</altitude>
			<heading>26.96740171930131</heading>
			<tilt>0</tilt>
			<gx:fovy>35</gx:fovy>
			<range>216.2869138527458</range>
			<altitudeMode>absolute</altitudeMode>
		</LookAt>
		<styleUrl>#__managed_style_3DBCB6DD2C3A3EEEECD4</styleUrl>
		<Point>
			<coordinates>-0.9051732145092795,53.06789983620379,16.1131221669789</coordinates>
		</Point>
	</Placemark>
	<Placemark id="095854EDFF3A3EF6609F">
		<name>29</name>
		<LookAt>
			<longitude>-0.9042779273666279</longitude>
			<latitude>53.06773852452643</latitude>
			<altitude>15.04604532016707</altitude>
			<heading>26.9686807794218</heading>
			<tilt>0</tilt>
			<gx:fovy>35</gx:fovy>
			<range>218.1704646423168</range>
			<altitudeMode>absolute</altitudeMode>
		</LookAt>
		<styleUrl>#__managed_style_3DBCB6DD2C3A3EEEECD4</styleUrl>
		<Point>
			<coordinates>-0.9043955226904765,53.06765166933323,15.08747244548191</coordinates>
		</Point>
	</Placemark>
	<Placemark id="0F209A83113A3EF67D21">
		<name>30</name>
		<LookAt>
			<longitude>-0.9042779273666279</longitude>
			<latitude>53.06773852452643</latitude>
			<altitude>15.04604532016707</altitude>
			<heading>26.9686807794218</heading>
			<tilt>0</tilt>
			<gx:fovy>35</gx:fovy>
			<range>218.1704646423168</range>
			<altitudeMode>absolute</altitudeMode>
		</LookAt>
		<styleUrl>#__managed_style_3DBCB6DD2C3A3EEEECD4</styleUrl>
		<Point>
			<coordinates>-0.9035494044291514,53.06738254037543,15.94506287940203</coordinates>
		</Point>
	</Placemark>
</Document>
</kml>
