<?xml version="1.0" encoding="UTF-8"?>
<kml xmlns="http://www.opengis.net/kml/2.2" xmlns:gx="http://www.google.com/kml/ext/2.2" xmlns:kml="http://www.opengis.net/kml/2.2" xmlns:atom="http://www.w3.org/2005/Atom">
<Document id="1mFjzviY0FHTdmtp8J-mnpuPt9ctcZYl6">
	<name>Ffos Las Flat 40</name>
	<gx:CascadingStyle kml:id="__managed_style_2B3703AE77388DFDAFD9">
		<Style>
			<IconStyle>
				<scale>1.2</scale>
				<Icon>
					<href>https://earth.google.com/earth/document/icon?color=1976d2&amp;id=2000&amp;scale=4</href>
				</Icon>
				<hotSpot x="64" y="128" xunits="pixels" yunits="insetPixels"/>
			</IconStyle>
			<LabelStyle>
			</LabelStyle>
			<LineStyle>
				<color>ff2dc0fb</color>
				<width>6</width>
			</LineStyle>
			<PolyStyle>
				<color>40ffffff</color>
			</PolyStyle>
			<BalloonStyle>
			</BalloonStyle>
		</Style>
	</gx:CascadingStyle>
	<gx:CascadingStyle kml:id="__managed_style_14EB7C7D5A388DFDAFD9">
		<Style>
			<IconStyle>
				<Icon>
					<href>https://earth.google.com/earth/document/icon?color=1976d2&amp;id=2000&amp;scale=4</href>
				</Icon>
				<hotSpot x="64" y="128" xunits="pixels" yunits="insetPixels"/>
			</IconStyle>
			<LabelStyle>
			</LabelStyle>
			<LineStyle>
				<color>ff2dc0fb</color>
				<width>4</width>
			</LineStyle>
			<PolyStyle>
				<color>40ffffff</color>
			</PolyStyle>
			<BalloonStyle>
			</BalloonStyle>
		</Style>
	</gx:CascadingStyle>
	<StyleMap id="__managed_style_003388A1EC388DFDAFD9">
		<Pair>
			<key>normal</key>
			<styleUrl>#__managed_style_14EB7C7D5A388DFDAFD9</styleUrl>
		</Pair>
		<Pair>
			<key>highlight</key>
			<styleUrl>#__managed_style_2B3703AE77388DFDAFD9</styleUrl>
		</Pair>
	</StyleMap>
	<gx:CascadingStyle kml:id="__managed_style_0C5A5C563C388DFDAFDE">
		<Style>
			<IconStyle>
				<scale>1.2</scale>
				<Icon>
					<href>https://earth.google.com/earth/document/icon?color=fbc02d&amp;id=2000&amp;scale=4</href>
				</Icon>
				<hotSpot x="64" y="128" xunits="pixels" yunits="insetPixels"/>
			</IconStyle>
			<LabelStyle>
			</LabelStyle>
			<LineStyle>
				<color>ff2dc0fb</color>
				<width>6</width>
			</LineStyle>
			<PolyStyle>
				<color>40ffffff</color>
			</PolyStyle>
			<BalloonStyle>
				<gx:displayMode>card</gx:displayMode>
			</BalloonStyle>
		</Style>
	</gx:CascadingStyle>
	<gx:CascadingStyle kml:id="__managed_style_41CDB5B0C6388DFDAFDC">
		<Style>
			<IconStyle>
				<Icon>
					<href>https://earth.google.com/earth/document/icon?color=fbc02d&amp;id=2000&amp;scale=4</href>
				</Icon>
				<hotSpot x="64" y="128" xunits="pixels" yunits="insetPixels"/>
			</IconStyle>
			<LabelStyle>
			</LabelStyle>
			<LineStyle>
				<color>ff2dc0fb</color>
				<width>4</width>
			</LineStyle>
			<PolyStyle>
				<color>40ffffff</color>
			</PolyStyle>
			<BalloonStyle>
				<gx:displayMode>card</gx:displayMode>
			</BalloonStyle>
		</Style>
	</gx:CascadingStyle>
	<StyleMap id="__managed_style_3397D5C312388DFDAFDC">
		<Pair>
			<key>normal</key>
			<styleUrl>#__managed_style_41CDB5B0C6388DFDAFDC</styleUrl>
		</Pair>
		<Pair>
			<key>highlight</key>
			<styleUrl>#__managed_style_0C5A5C563C388DFDAFDE</styleUrl>
		</Pair>
	</StyleMap>
	<Placemark id="0E8E0DF22C388A36E447">
		<name>Ffos Las Racecourse</name>
		<gx:mid>/m/06w8sv0</gx:mid>
		<gx:fid>0x486eef2a758e6f7d:0x961b462ed3f44709</gx:fid>
		<LookAt>
			<longitude>-4.243731700000001</longitude>
			<latitude>51.72632609999999</latitude>
			<altitude>0</altitude>
			<heading>0</heading>
			<tilt>0</tilt>
			<gx:fovy>35</gx:fovy>
			<range>624.5825827780186</range>
			<altitudeMode>relativeToGround</altitudeMode>
		</LookAt>
		<styleUrl>#__managed_style_3397D5C312388DFDAFDC</styleUrl>
		<Point>
			<altitudeMode>relativeToGround</altitudeMode>
			<coordinates>-4.2437317,51.72632609999999,0</coordinates>
		</Point>
	</Placemark>
	<Folder id="04A02D011B388A521238">
		<name>Flat</name>
		<open>1</open>
		<styleUrl>#__managed_style_003388A1EC388DFDAFD9</styleUrl>
		<Placemark id="00C7F6FB47388A484F1E">
			<name>2</name>
			<LookAt>
				<longitude>-4.237008060023109</longitude>
				<latitude>51.73129096231114</latitude>
				<altitude>46.32830903185418</altitude>
				<heading>353.3402374473997</heading>
				<tilt>0</tilt>
				<gx:fovy>35</gx:fovy>
				<range>420.4133757149975</range>
				<altitudeMode>absolute</altitudeMode>
			</LookAt>
			<styleUrl>#__managed_style_003388A1EC388DFDAFD9</styleUrl>
			<Point>
				<coordinates>-4.238072039920335,51.73167990296832,47.17449075225017</coordinates>
			</Point>
		</Placemark>
		<Placemark id="0079A0C1D2388A486EDB">
			<name>1</name>
			<LookAt>
				<longitude>-4.237008060023109</longitude>
				<latitude>51.73129096231114</latitude>
				<altitude>46.32830903185418</altitude>
				<heading>353.3402374473997</heading>
				<tilt>0</tilt>
				<gx:fovy>35</gx:fovy>
				<range>420.4133757149975</range>
				<altitudeMode>absolute</altitudeMode>
			</LookAt>
			<styleUrl>#__managed_style_003388A1EC388DFDAFD9</styleUrl>
			<Point>
				<coordinates>-4.236803847567153,51.73181306841846,48.34549765924253</coordinates>
			</Point>
		</Placemark>
		<Placemark id="006FC1FD87388A48ADB1">
			<name>3</name>
			<LookAt>
				<longitude>-4.237008060023109</longitude>
				<latitude>51.73129096231114</latitude>
				<altitude>46.32830903185418</altitude>
				<heading>353.3402374473997</heading>
				<tilt>0</tilt>
				<gx:fovy>35</gx:fovy>
				<range>420.4133757149975</range>
				<altitudeMode>absolute</altitudeMode>
			</LookAt>
			<styleUrl>#__managed_style_003388A1EC388DFDAFD9</styleUrl>
			<Point>
				<coordinates>-4.239037669135143,51.73126780942459,46.5367445958175</coordinates>
			</Point>
		</Placemark>
		<Placemark id="0502A02867388A48F75F">
			<name>4</name>
			<LookAt>
				<longitude>-4.238189759914109</longitude>
				<latitude>51.7305292314202</latitude>
				<altitude>44.72862690898878</altitude>
				<heading>353.3393455687195</heading>
				<tilt>0</tilt>
				<gx:fovy>35</gx:fovy>
				<range>584.1635787437554</range>
				<altitudeMode>absolute</altitudeMode>
			</LookAt>
			<styleUrl>#__managed_style_003388A1EC388DFDAFD9</styleUrl>
			<Point>
				<coordinates>-4.239508952110789,51.73067037943784,46.04850577039876</coordinates>
			</Point>
		</Placemark>
		<Placemark id="0886D5BF12388A491A66">
			<name>5</name>
			<LookAt>
				<longitude>-4.238189759914109</longitude>
				<latitude>51.7305292314202</latitude>
				<altitude>44.72862690898878</altitude>
				<heading>353.3393455687195</heading>
				<tilt>0</tilt>
				<gx:fovy>35</gx:fovy>
				<range>584.1635787437554</range>
				<altitudeMode>absolute</altitudeMode>
			</LookAt>
			<styleUrl>#__managed_style_003388A1EC388DFDAFD9</styleUrl>
			<Point>
				<coordinates>-4.239610601294739,51.72996188905687,45.58237418175138</coordinates>
			</Point>
		</Placemark>
		<Placemark id="0C8A8B4705388A4945E1">
			<name>6</name>
			<LookAt>
				<longitude>-4.237679933185824</longitude>
				<latitude>51.73026340699451</latitude>
				<altitude>42.92261512859584</altitude>
				<heading>353.3393451149454</heading>
				<tilt>0</tilt>
				<gx:fovy>35</gx:fovy>
				<range>771.6693377499178</range>
				<altitudeMode>absolute</altitudeMode>
			</LookAt>
			<styleUrl>#__managed_style_003388A1EC388DFDAFD9</styleUrl>
			<Point>
				<coordinates>-4.239228756795289,51.72927215795402,43.95398629368556</coordinates>
			</Point>
		</Placemark>
		<Placemark id="09C765ECC4388A4A1420">
			<name>9</name>
			<LookAt>
				<longitude>-4.236083042138398</longitude>
				<latitude>51.7305894146545</latitude>
				<altitude>43.42296903543559</altitude>
				<heading>353.3398204061805</heading>
				<tilt>0</tilt>
				<gx:fovy>35</gx:fovy>
				<range>1166.071142676228</range>
				<altitudeMode>absolute</altitudeMode>
			</LookAt>
			<styleUrl>#__managed_style_003388A1EC388DFDAFD9</styleUrl>
			<Point>
				<coordinates>-4.239757133271741,51.72891848400025,43.92311859914349</coordinates>
			</Point>
		</Placemark>
		<Placemark id="095C683747388A4A3084">
			<name>8</name>
			<LookAt>
				<longitude>-4.236083042138398</longitude>
				<latitude>51.7305894146545</latitude>
				<altitude>43.42296903543559</altitude>
				<heading>353.3398204061805</heading>
				<tilt>0</tilt>
				<gx:fovy>35</gx:fovy>
				<range>1166.071142676228</range>
				<altitudeMode>absolute</altitudeMode>
			</LookAt>
			<styleUrl>#__managed_style_003388A1EC388DFDAFD9</styleUrl>
			<Point>
				<coordinates>-4.240846454892438,51.72910785388782,43.31831190114956</coordinates>
			</Point>
		</Placemark>
		<Placemark id="0DD8E3ACBE388A4A5688">
			<name>7</name>
			<LookAt>
				<longitude>-4.236083042138398</longitude>
				<latitude>51.7305894146545</latitude>
				<altitude>43.42296903543559</altitude>
				<heading>353.3398204061805</heading>
				<tilt>0</tilt>
				<gx:fovy>35</gx:fovy>
				<range>1166.071142676228</range>
				<altitudeMode>absolute</altitudeMode>
			</LookAt>
			<styleUrl>#__managed_style_003388A1EC388DFDAFD9</styleUrl>
			<Point>
				<coordinates>-4.241943571171553,51.72931198235595,42.12163689073088</coordinates>
			</Point>
		</Placemark>
		<Placemark id="0185496862388A4A9A2B">
			<name>10</name>
			<LookAt>
				<longitude>-4.233413308595242</longitude>
				<latitude>51.728874419322</latitude>
				<altitude>46.23817344020901</altitude>
				<heading>353.3419126817859</heading>
				<tilt>0</tilt>
				<gx:fovy>35</gx:fovy>
				<range>1163.255991457991</range>
				<altitudeMode>absolute</altitudeMode>
			</LookAt>
			<styleUrl>#__managed_style_003388A1EC388DFDAFD9</styleUrl>
			<Point>
				<coordinates>-4.238517679899094,51.72874016564464,44.83752608435333</coordinates>
			</Point>
		</Placemark>
		<Placemark id="04E9D262E8388A4B0E1C">
			<name>11</name>
			<LookAt>
				<longitude>-4.236215008049328</longitude>
				<latitude>51.72888140591922</latitude>
				<altitude>44.61913527321637</altitude>
				<heading>353.3397118079866</heading>
				<tilt>0</tilt>
				<gx:fovy>35</gx:fovy>
				<range>1164.874993128469</range>
				<altitudeMode>absolute</altitudeMode>
			</LookAt>
			<styleUrl>#__managed_style_003388A1EC388DFDAFD9</styleUrl>
			<Point>
				<coordinates>-4.237292651627481,51.72851082200567,44.83726639168824</coordinates>
			</Point>
		</Placemark>
		<Placemark id="03AE221D96388A4B7953">
			<name>12</name>
			<LookAt>
				<longitude>-4.236087852218663</longitude>
				<latitude>51.72866136450167</latitude>
				<altitude>45.22950658405229</altitude>
				<heading>353.3396929333567</heading>
				<tilt>0</tilt>
				<gx:fovy>35</gx:fovy>
				<range>801.7045397874608</range>
				<altitudeMode>absolute</altitudeMode>
			</LookAt>
			<styleUrl>#__managed_style_003388A1EC388DFDAFD9</styleUrl>
			<Point>
				<coordinates>-4.235976813933706,51.72827136253613,45.90936404352192</coordinates>
			</Point>
		</Placemark>
		<Placemark id="06A1DAF84C388A4B9D44">
			<name>13</name>
			<LookAt>
				<longitude>-4.236087852218663</longitude>
				<latitude>51.72866136450167</latitude>
				<altitude>45.22950658405229</altitude>
				<heading>353.3396929333567</heading>
				<tilt>0</tilt>
				<gx:fovy>35</gx:fovy>
				<range>801.7045397874608</range>
				<altitudeMode>absolute</altitudeMode>
			</LookAt>
			<styleUrl>#__managed_style_003388A1EC388DFDAFD9</styleUrl>
			<Point>
				<coordinates>-4.234821436892766,51.72802945739477,46.64351882499348</coordinates>
			</Point>
		</Placemark>
		<Placemark id="054FE71733388A4BC059">
			<name>14</name>
			<LookAt>
				<longitude>-4.236087852218663</longitude>
				<latitude>51.72866136450167</latitude>
				<altitude>45.22950658405229</altitude>
				<heading>353.3396929333567</heading>
				<tilt>0</tilt>
				<gx:fovy>35</gx:fovy>
				<range>801.7045397874608</range>
				<altitudeMode>absolute</altitudeMode>
			</LookAt>
			<styleUrl>#__managed_style_003388A1EC388DFDAFD9</styleUrl>
			<Point>
				<coordinates>-4.233694953703438,51.72783397596703,47.50681754061763</coordinates>
			</Point>
		</Placemark>
		<Placemark id="08E1D19D8F388A4C1EC0">
			<name>15</name>
			<LookAt>
				<longitude>-4.232291738560506</longitude>
				<latitude>51.72798661857755</latitude>
				<altitude>48.36357515404982</altitude>
				<heading>353.3396931939166</heading>
				<tilt>0</tilt>
				<gx:fovy>35</gx:fovy>
				<range>967.835082270467</range>
				<altitudeMode>absolute</altitudeMode>
			</LookAt>
			<styleUrl>#__managed_style_003388A1EC388DFDAFD9</styleUrl>
			<Point>
				<coordinates>-4.232661079429865,51.72765635266239,48.63714521012253</coordinates>
			</Point>
		</Placemark>
		<Placemark id="00F9D6555E388A4C6271">
			<name>17</name>
			<LookAt>
				<longitude>-4.232291738560506</longitude>
				<latitude>51.72798661857755</latitude>
				<altitude>48.36357515404982</altitude>
				<heading>353.3396931939166</heading>
				<tilt>0</tilt>
				<gx:fovy>35</gx:fovy>
				<range>967.835082270467</range>
				<altitudeMode>absolute</altitudeMode>
			</LookAt>
			<styleUrl>#__managed_style_003388A1EC388DFDAFD9</styleUrl>
			<Point>
				<coordinates>-4.230407819733587,51.72726231266002,50.50534743379389</coordinates>
			</Point>
		</Placemark>
		<Placemark id="0598364665388A4C7CBE">
			<name>16</name>
			<LookAt>
				<longitude>-4.232291738560506</longitude>
				<latitude>51.72798661857755</latitude>
				<altitude>48.36357515404982</altitude>
				<heading>353.3396931939166</heading>
				<tilt>0</tilt>
				<gx:fovy>35</gx:fovy>
				<range>967.835082270467</range>
				<altitudeMode>absolute</altitudeMode>
			</LookAt>
			<styleUrl>#__managed_style_003388A1EC388DFDAFD9</styleUrl>
			<Point>
				<coordinates>-4.231515351915633,51.72743942873994,49.78142199752571</coordinates>
			</Point>
		</Placemark>
		<Placemark id="0F14AC7401388A4D69F4">
			<name>18</name>
			<LookAt>
				<longitude>-4.230934747527595</longitude>
				<latitude>51.72740417967018</latitude>
				<altitude>50.10266725790924</altitude>
				<heading>353.3396921279659</heading>
				<tilt>0</tilt>
				<gx:fovy>35</gx:fovy>
				<range>1232.593634150689</range>
				<altitudeMode>absolute</altitudeMode>
			</LookAt>
			<styleUrl>#__managed_style_003388A1EC388DFDAFD9</styleUrl>
			<Point>
				<coordinates>-4.229391924468926,51.72704518791349,50.85403653500586</coordinates>
			</Point>
		</Placemark>
		<Placemark id="0B9342EA1E388A4DC420">
			<name>19</name>
			<LookAt>
				<longitude>-4.230963985645921</longitude>
				<latitude>51.72749380367819</latitude>
				<altitude>50.07582992919119</altitude>
				<heading>353.3396689949645</heading>
				<tilt>0</tilt>
				<gx:fovy>35</gx:fovy>
				<range>1232.620427455549</range>
				<altitudeMode>absolute</altitudeMode>
			</LookAt>
			<styleUrl>#__managed_style_003388A1EC388DFDAFD9</styleUrl>
			<Point>
				<coordinates>-4.228169476446707,51.72682867179807,52.7605166786064</coordinates>
			</Point>
		</Placemark>
		<Placemark id="05EB969AE6388A4DDF56">
			<name>20</name>
			<LookAt>
				<longitude>-4.230963985645921</longitude>
				<latitude>51.72749380367819</latitude>
				<altitude>50.07582992919119</altitude>
				<heading>353.3396689949645</heading>
				<tilt>0</tilt>
				<gx:fovy>35</gx:fovy>
				<range>1232.620427455549</range>
				<altitudeMode>absolute</altitudeMode>
			</LookAt>
			<styleUrl>#__managed_style_003388A1EC388DFDAFD9</styleUrl>
			<Point>
				<coordinates>-4.227124076304695,51.72663732119321,53.17159911762868</coordinates>
			</Point>
		</Placemark>
		<Placemark id="021AD68EC5388A4E4650">
			<name>23</name>
			<LookAt>
				<longitude>-4.225542630083617</longitude>
				<latitude>51.72814748542818</latitude>
				<altitude>50.07867653138189</altitude>
				<heading>353.34093777152</heading>
				<tilt>0</tilt>
				<gx:fovy>35</gx:fovy>
				<range>1106.227600943675</range>
				<altitudeMode>absolute</altitudeMode>
			</LookAt>
			<styleUrl>#__managed_style_003388A1EC388DFDAFD9</styleUrl>
			<Point>
				<coordinates>-4.223848566317651,51.72747052675807,55.29667429666757</coordinates>
			</Point>
		</Placemark>
		<Placemark id="0AE61469FC388A4E6BE0">
			<name>21</name>
			<LookAt>
				<longitude>-4.225542630083617</longitude>
				<latitude>51.72814748542818</latitude>
				<altitude>50.07867653138189</altitude>
				<heading>353.34093777152</heading>
				<tilt>0</tilt>
				<gx:fovy>35</gx:fovy>
				<range>1106.227600943675</range>
				<altitudeMode>absolute</altitudeMode>
			</LookAt>
			<styleUrl>#__managed_style_003388A1EC388DFDAFD9</styleUrl>
			<Point>
				<coordinates>-4.22561214718802,51.72658298255166,54.18874406490649</coordinates>
			</Point>
		</Placemark>
		<Placemark id="05B7CC879C388A4E7E8F">
			<name>22</name>
			<LookAt>
				<longitude>-4.225542630083617</longitude>
				<latitude>51.72814748542818</latitude>
				<altitude>50.07867653138189</altitude>
				<heading>353.34093777152</heading>
				<tilt>0</tilt>
				<gx:fovy>35</gx:fovy>
				<range>1106.227600943675</range>
				<altitudeMode>absolute</altitudeMode>
			</LookAt>
			<styleUrl>#__managed_style_003388A1EC388DFDAFD9</styleUrl>
			<Point>
				<coordinates>-4.224509868977613,51.7269990902828,55.31359621046693</coordinates>
			</Point>
		</Placemark>
		<Placemark id="062068657C388A4EA849">
			<name>25</name>
			<LookAt>
				<longitude>-4.225542630083617</longitude>
				<latitude>51.72814748542818</latitude>
				<altitude>50.07867653138189</altitude>
				<heading>353.34093777152</heading>
				<tilt>0</tilt>
				<gx:fovy>35</gx:fovy>
				<range>1106.227600943675</range>
				<altitudeMode>absolute</altitudeMode>
			</LookAt>
			<styleUrl>#__managed_style_003388A1EC388DFDAFD9</styleUrl>
			<Point>
				<coordinates>-4.224241151296466,51.7287335179877,55.39412967098378</coordinates>
			</Point>
		</Placemark>
		<Placemark id="0AE78BBEEE388A4EBB5C">
			<name>24</name>
			<LookAt>
				<longitude>-4.225542630083617</longitude>
				<latitude>51.72814748542818</latitude>
				<altitude>50.07867653138189</altitude>
				<heading>353.34093777152</heading>
				<tilt>0</tilt>
				<gx:fovy>35</gx:fovy>
				<range>1106.227600943675</range>
				<altitudeMode>absolute</altitudeMode>
			</LookAt>
			<styleUrl>#__managed_style_003388A1EC388DFDAFD9</styleUrl>
			<Point>
				<coordinates>-4.223852987942816,51.72817725699195,54.63851119468773</coordinates>
			</Point>
		</Placemark>
		<Placemark id="07CBFC148B388A4EF6CC">
			<name>29</name>
			<LookAt>
				<longitude>-4.224815564681823</longitude>
				<latitude>51.72807221932037</latitude>
				<altitude>50.32449630973404</altitude>
				<heading>353.34093741685</heading>
				<tilt>0</tilt>
				<gx:fovy>35</gx:fovy>
				<range>1092.861172103294</range>
				<altitudeMode>absolute</altitudeMode>
			</LookAt>
			<styleUrl>#__managed_style_003388A1EC388DFDAFD9</styleUrl>
			<Point>
				<coordinates>-4.223658427319924,51.7290471965335,55.16175736347599</coordinates>
			</Point>
		</Placemark>
		<Placemark id="00FF2FC86A388A4F1884">
			<name>26</name>
			<LookAt>
				<longitude>-4.224815564681823</longitude>
				<latitude>51.72807221932037</latitude>
				<altitude>50.32449630973404</altitude>
				<heading>353.34093741685</heading>
				<tilt>0</tilt>
				<gx:fovy>35</gx:fovy>
				<range>1092.861172103294</range>
				<altitudeMode>absolute</altitudeMode>
			</LookAt>
			<styleUrl>#__managed_style_003388A1EC388DFDAFD9</styleUrl>
			<Point>
				<coordinates>-4.219902651142893,51.7282597200681,62.53533450560736</coordinates>
			</Point>
		</Placemark>
		<Placemark id="070D81D6C0388A4F2D78">
			<name>27</name>
			<LookAt>
				<longitude>-4.224815564681823</longitude>
				<latitude>51.72807221932037</latitude>
				<altitude>50.32449630973404</altitude>
				<heading>353.34093741685</heading>
				<tilt>0</tilt>
				<gx:fovy>35</gx:fovy>
				<range>1092.861172103294</range>
				<altitudeMode>absolute</altitudeMode>
			</LookAt>
			<styleUrl>#__managed_style_003388A1EC388DFDAFD9</styleUrl>
			<Point>
				<coordinates>-4.221037243809841,51.72851334006766,60.63013272034924</coordinates>
			</Point>
		</Placemark>
		<Placemark id="0859FACF30388A4F4028">
			<name>28</name>
			<LookAt>
				<longitude>-4.224815564681823</longitude>
				<latitude>51.72807221932037</latitude>
				<altitude>50.32449630973404</altitude>
				<heading>353.34093741685</heading>
				<tilt>0</tilt>
				<gx:fovy>35</gx:fovy>
				<range>1092.861172103294</range>
				<altitudeMode>absolute</altitudeMode>
			</LookAt>
			<styleUrl>#__managed_style_003388A1EC388DFDAFD9</styleUrl>
			<Point>
				<coordinates>-4.222397707544658,51.72879921408925,58.13589975095676</coordinates>
			</Point>
		</Placemark>
		<Placemark id="0CC4B362BC388A4F9BD1">
			<name>34</name>
			<LookAt>
				<longitude>-4.23118324140491</longitude>
				<latitude>51.73030882195484</latitude>
				<altitude>50.24197887981477</altitude>
				<heading>353.3406013387053</heading>
				<tilt>0</tilt>
				<gx:fovy>35</gx:fovy>
				<range>1094.644549308432</range>
				<altitudeMode>absolute</altitudeMode>
			</LookAt>
			<styleUrl>#__managed_style_003388A1EC388DFDAFD9</styleUrl>
			<Point>
				<coordinates>-4.228699835093507,51.73013599632161,52.95129678689237</coordinates>
			</Point>
		</Placemark>
		<Placemark id="0AD0840C2C388A4FBA6C">
			<name>39</name>
			<LookAt>
				<longitude>-4.23118324140491</longitude>
				<latitude>51.73030882195484</latitude>
				<altitude>50.24197887981477</altitude>
				<heading>353.3406013387053</heading>
				<tilt>0</tilt>
				<gx:fovy>35</gx:fovy>
				<range>1094.644549308432</range>
				<altitudeMode>absolute</altitudeMode>
			</LookAt>
			<styleUrl>#__managed_style_003388A1EC388DFDAFD9</styleUrl>
			<Point>
				<coordinates>-4.234223373327425,51.73131741804262,49.12758801672121</coordinates>
			</Point>
		</Placemark>
		<Placemark id="0716D7298B388A4FD56E">
			<name>40</name>
			<LookAt>
				<longitude>-4.23118324140491</longitude>
				<latitude>51.73030882195484</latitude>
				<altitude>50.24197887981477</altitude>
				<heading>353.3406013387053</heading>
				<tilt>0</tilt>
				<gx:fovy>35</gx:fovy>
				<range>1094.644549308432</range>
				<altitudeMode>absolute</altitudeMode>
			</LookAt>
			<styleUrl>#__managed_style_003388A1EC388DFDAFD9</styleUrl>
			<Point>
				<coordinates>-4.235465309629573,51.73159635833036,48.55957941174773</coordinates>
			</Point>
		</Placemark>
		<Placemark id="0E6AC1612C388A504169">
			<name>37</name>
			<LookAt>
				<longitude>-4.23118324140491</longitude>
				<latitude>51.73030882258381</latitude>
				<altitude>50.24197888122941</altitude>
				<heading>353.3406013387053</heading>
				<tilt>0</tilt>
				<gx:fovy>35</gx:fovy>
				<range>1094.644549308432</range>
				<altitudeMode>absolute</altitudeMode>
			</LookAt>
			<styleUrl>#__managed_style_003388A1EC388DFDAFD9</styleUrl>
			<Point>
				<coordinates>-4.232082177492088,51.73085897409692,50.74690924354119</coordinates>
			</Point>
		</Placemark>
		<Placemark id="01163EDB3B388A5059C4">
			<name>38</name>
			<LookAt>
				<longitude>-4.23118324140491</longitude>
				<latitude>51.73030882258381</latitude>
				<altitude>50.24197888122941</altitude>
				<heading>353.3406013387053</heading>
				<tilt>0</tilt>
				<gx:fovy>35</gx:fovy>
				<range>1094.644549308432</range>
				<altitudeMode>absolute</altitudeMode>
			</LookAt>
			<styleUrl>#__managed_style_003388A1EC388DFDAFD9</styleUrl>
			<Point>
				<coordinates>-4.233131819315626,51.73106278876125,49.8719127776761</coordinates>
			</Point>
		</Placemark>
		<Placemark id="0B44669903388A508148">
			<name>36</name>
			<LookAt>
				<longitude>-4.23118324140491</longitude>
				<latitude>51.73030882258381</latitude>
				<altitude>50.24197888122941</altitude>
				<heading>353.3406013387053</heading>
				<tilt>0</tilt>
				<gx:fovy>35</gx:fovy>
				<range>1094.644549308432</range>
				<altitudeMode>absolute</altitudeMode>
			</LookAt>
			<styleUrl>#__managed_style_003388A1EC388DFDAFD9</styleUrl>
			<Point>
				<coordinates>-4.230961014547704,51.73061379806668,50.42835388050133</coordinates>
			</Point>
		</Placemark>
		<Placemark id="047CCF5972388A509769">
			<name>35</name>
			<LookAt>
				<longitude>-4.23118324140491</longitude>
				<latitude>51.73030882258381</latitude>
				<altitude>50.24197888122941</altitude>
				<heading>353.3406013387053</heading>
				<tilt>0</tilt>
				<gx:fovy>35</gx:fovy>
				<range>1094.644549308432</range>
				<altitudeMode>absolute</altitudeMode>
			</LookAt>
			<styleUrl>#__managed_style_003388A1EC388DFDAFD9</styleUrl>
			<Point>
				<coordinates>-4.229884696166523,51.73036537599661,51.93670563505047</coordinates>
			</Point>
		</Placemark>
		<Placemark id="01B398A123388A514A3B">
			<name>32</name>
			<LookAt>
				<longitude>-4.227240941629442</longitude>
				<latitude>51.72960051447106</latitude>
				<altitude>53.52255104090608</altitude>
				<heading>353.3406011782165</heading>
				<tilt>0</tilt>
				<gx:fovy>35</gx:fovy>
				<range>718.4379942731175</range>
				<altitudeMode>absolute</altitudeMode>
			</LookAt>
			<styleUrl>#__managed_style_003388A1EC388DFDAFD9</styleUrl>
			<Point>
				<coordinates>-4.226588388486191,51.7296878015743,54.02654688082726</coordinates>
			</Point>
		</Placemark>
		<Placemark id="047FEBA890388A515C97">
			<name>33</name>
			<LookAt>
				<longitude>-4.227240941629442</longitude>
				<latitude>51.72960051447106</latitude>
				<altitude>53.52255104090608</altitude>
				<heading>353.3406011782165</heading>
				<tilt>0</tilt>
				<gx:fovy>35</gx:fovy>
				<range>718.4379942731175</range>
				<altitudeMode>absolute</altitudeMode>
			</LookAt>
			<styleUrl>#__managed_style_003388A1EC388DFDAFD9</styleUrl>
			<Point>
				<coordinates>-4.227727797068636,51.7299308047322,53.74376246572802</coordinates>
			</Point>
		</Placemark>
		<Placemark id="02078534C1388A5194B3">
			<name>31</name>
			<LookAt>
				<longitude>-4.227240941629442</longitude>
				<latitude>51.72960051447106</latitude>
				<altitude>53.52255104090608</altitude>
				<heading>353.3406011782165</heading>
				<tilt>0</tilt>
				<gx:fovy>35</gx:fovy>
				<range>718.4379942731175</range>
				<altitudeMode>absolute</altitudeMode>
			</LookAt>
			<styleUrl>#__managed_style_003388A1EC388DFDAFD9</styleUrl>
			<Point>
				<coordinates>-4.225630656050013,51.72946961900426,54.6625253110117</coordinates>
			</Point>
		</Placemark>
		<Placemark id="0400DA98F6388A51A6DE">
			<name>30</name>
			<LookAt>
				<longitude>-4.227240941629442</longitude>
				<latitude>51.72960051447106</latitude>
				<altitude>53.52255104090608</altitude>
				<heading>353.3406011782165</heading>
				<tilt>0</tilt>
				<gx:fovy>35</gx:fovy>
				<range>718.4379942731175</range>
				<altitudeMode>absolute</altitudeMode>
			</LookAt>
			<styleUrl>#__managed_style_003388A1EC388DFDAFD9</styleUrl>
			<Point>
				<coordinates>-4.224721964850238,51.72926781352902,54.43121905707329</coordinates>
			</Point>
		</Placemark>
	</Folder>
</Document>
</kml>
