<?xml version="1.0" encoding="UTF-8"?>
<kml xmlns="http://www.opengis.net/kml/2.2" xmlns:gx="http://www.google.com/kml/ext/2.2" xmlns:kml="http://www.opengis.net/kml/2.2" xmlns:atom="http://www.w3.org/2005/Atom">
<Document id="1FKRk57VNq0pJWrMuBAGA97HBTaww6xd7">
	<name>Sedgefield Racecourse</name>
	<gx:CascadingStyle kml:id="__managed_style_258079BF6B392A16784E">
		<Style>
			<IconStyle>
				<scale>1.2</scale>
				<Icon>
					<href>https://earth.google.com/earth/document/icon?color=388e3c&amp;id=2000&amp;scale=4</href>
				</Icon>
				<hotSpot x="64" y="128" xunits="pixels" yunits="insetPixels"/>
			</IconStyle>
			<LabelStyle>
			</LabelStyle>
			<LineStyle>
				<color>ff2dc0fb</color>
				<width>6</width>
			</LineStyle>
			<PolyStyle>
				<color>40ffffff</color>
			</PolyStyle>
			<BalloonStyle>
			</BalloonStyle>
		</Style>
	</gx:CascadingStyle>
	<gx:CascadingStyle kml:id="__managed_style_1726BB8186392A16784E">
		<Style>
			<IconStyle>
				<Icon>
					<href>https://earth.google.com/earth/document/icon?color=388e3c&amp;id=2000&amp;scale=4</href>
				</Icon>
				<hotSpot x="64" y="128" xunits="pixels" yunits="insetPixels"/>
			</IconStyle>
			<LabelStyle>
			</LabelStyle>
			<LineStyle>
				<color>ff2dc0fb</color>
				<width>4</width>
			</LineStyle>
			<PolyStyle>
				<color>40ffffff</color>
			</PolyStyle>
			<BalloonStyle>
			</BalloonStyle>
		</Style>
	</gx:CascadingStyle>
	<StyleMap id="__managed_style_01A0A01D18392A16784E">
		<Pair>
			<key>normal</key>
			<styleUrl>#__managed_style_1726BB8186392A16784E</styleUrl>
		</Pair>
		<Pair>
			<key>highlight</key>
			<styleUrl>#__managed_style_258079BF6B392A16784E</styleUrl>
		</Pair>
	</StyleMap>
	<gx:CascadingStyle kml:id="__managed_style_28ED47970F392A163C3C">
		<Style>
			<IconStyle>
				<scale>1.2</scale>
				<Icon>
					<href>https://earth.google.com/earth/document/icon?color=1976d2&amp;id=2000&amp;scale=4</href>
				</Icon>
				<hotSpot x="64" y="128" xunits="pixels" yunits="insetPixels"/>
			</IconStyle>
			<LabelStyle>
			</LabelStyle>
			<LineStyle>
				<color>ff2dc0fb</color>
				<width>6</width>
			</LineStyle>
			<PolyStyle>
				<color>40ffffff</color>
			</PolyStyle>
			<BalloonStyle>
			</BalloonStyle>
		</Style>
	</gx:CascadingStyle>
	<StyleMap id="__managed_style_05555E0987392A163C3C">
		<Pair>
			<key>normal</key>
			<styleUrl>#__managed_style_115CE6D3EB392A163C3C</styleUrl>
		</Pair>
		<Pair>
			<key>highlight</key>
			<styleUrl>#__managed_style_28ED47970F392A163C3C</styleUrl>
		</Pair>
	</StyleMap>
	<gx:CascadingStyle kml:id="__managed_style_581C6DAA9D392A15C190">
		<Style>
			<IconStyle>
				<scale>1.2</scale>
				<Icon>
					<href>https://earth.google.com/earth/document/icon?color=fbc02d&amp;id=2000&amp;scale=4</href>
				</Icon>
				<hotSpot x="64" y="128" xunits="pixels" yunits="insetPixels"/>
			</IconStyle>
			<LabelStyle>
			</LabelStyle>
			<LineStyle>
				<color>ff2dc0fb</color>
				<width>6</width>
			</LineStyle>
			<PolyStyle>
				<color>40ffffff</color>
			</PolyStyle>
			<BalloonStyle>
				<gx:displayMode>card</gx:displayMode>
			</BalloonStyle>
		</Style>
	</gx:CascadingStyle>
	<gx:CascadingStyle kml:id="__managed_style_40D9423B68392A15C190">
		<Style>
			<IconStyle>
				<Icon>
					<href>https://earth.google.com/earth/document/icon?color=fbc02d&amp;id=2000&amp;scale=4</href>
				</Icon>
				<hotSpot x="64" y="128" xunits="pixels" yunits="insetPixels"/>
			</IconStyle>
			<LabelStyle>
			</LabelStyle>
			<LineStyle>
				<color>ff2dc0fb</color>
				<width>4</width>
			</LineStyle>
			<PolyStyle>
				<color>40ffffff</color>
			</PolyStyle>
			<BalloonStyle>
				<gx:displayMode>card</gx:displayMode>
			</BalloonStyle>
		</Style>
	</gx:CascadingStyle>
	<gx:CascadingStyle kml:id="__managed_style_115CE6D3EB392A163C3C">
		<Style>
			<IconStyle>
				<Icon>
					<href>https://earth.google.com/earth/document/icon?color=1976d2&amp;id=2000&amp;scale=4</href>
				</Icon>
				<hotSpot x="64" y="128" xunits="pixels" yunits="insetPixels"/>
			</IconStyle>
			<LabelStyle>
			</LabelStyle>
			<LineStyle>
				<color>ff2dc0fb</color>
				<width>4</width>
			</LineStyle>
			<PolyStyle>
				<color>40ffffff</color>
			</PolyStyle>
			<BalloonStyle>
			</BalloonStyle>
		</Style>
	</gx:CascadingStyle>
	<StyleMap id="__managed_style_372EACC746392A15C190">
		<Pair>
			<key>normal</key>
			<styleUrl>#__managed_style_40D9423B68392A15C190</styleUrl>
		</Pair>
		<Pair>
			<key>highlight</key>
			<styleUrl>#__managed_style_581C6DAA9D392A15C190</styleUrl>
		</Pair>
	</StyleMap>
	<Placemark id="039E1ADEEC387F246B64">
		<name>Sedgefield Racecourse</name>
		<gx:mid>/m/027ljn8</gx:mid>
		<gx:fid>0x487e8fa07ebf31dd:0x3c884a3a0b6af035</gx:fid>
		<LookAt>
			<longitude>-1.4631074</longitude>
			<latitude>54.6443774</latitude>
			<altitude>0</altitude>
			<heading>0</heading>
			<tilt>0</tilt>
			<gx:fovy>35</gx:fovy>
			<range>580.4859093212165</range>
			<altitudeMode>relativeToGround</altitudeMode>
		</LookAt>
		<styleUrl>#__managed_style_372EACC746392A15C190</styleUrl>
		<Point>
			<altitudeMode>relativeToGround</altitudeMode>
			<coordinates>-1.4629645,54.64438209999999,0</coordinates>
		</Point>
	</Placemark>
	<Placemark id="0AF61BD392392A163C36">
		<name>2</name>
		<LookAt>
			<longitude>-1.462851372763864</longitude>
			<latitude>54.64578667727648</latitude>
			<altitude>100.3542788592093</altitude>
			<heading>8.286883759977618e-05</heading>
			<tilt>0</tilt>
			<gx:fovy>35</gx:fovy>
			<range>443.3444117727777</range>
			<altitudeMode>absolute</altitudeMode>
		</LookAt>
		<styleUrl>#__managed_style_05555E0987392A163C3C</styleUrl>
		<Point>
			<coordinates>-1.462512218481176,54.64505891880873,101.5145565945968</coordinates>
		</Point>
	</Placemark>
	<Placemark id="0FD9C6CE59392A1661B4">
		<name>1</name>
		<LookAt>
			<longitude>-1.462851372763864</longitude>
			<latitude>54.64578667727648</latitude>
			<altitude>100.3542788592093</altitude>
			<heading>8.286883759977618e-05</heading>
			<tilt>0</tilt>
			<gx:fovy>35</gx:fovy>
			<range>443.3444117727777</range>
			<altitudeMode>absolute</altitudeMode>
		</LookAt>
		<styleUrl>#__managed_style_01A0A01D18392A16784E</styleUrl>
		<Point>
			<coordinates>-1.462813660514061,54.64524656986588,101.1686675960827</coordinates>
		</Point>
	</Placemark>
	<Placemark id="01C216E660392A170988">
		<name>3</name>
		<LookAt>
			<longitude>-1.462615598740159</longitude>
			<latitude>54.64628599140356</latitude>
			<altitude>99.45465011103633</altitude>
			<heading>8.238805093145106e-05</heading>
			<tilt>0</tilt>
			<gx:fovy>35</gx:fovy>
			<range>444.2440271143278</range>
			<altitudeMode>absolute</altitudeMode>
		</LookAt>
		<styleUrl>#__managed_style_01A0A01D18392A16784E</styleUrl>
		<Point>
			<coordinates>-1.462313257909648,54.64615751791244,100.2514464233064</coordinates>
		</Point>
	</Placemark>
	<Placemark id="0E0C46B2E4392A17375E">
		<name>4</name>
		<LookAt>
			<longitude>-1.462615598740159</longitude>
			<latitude>54.64628599140356</latitude>
			<altitude>99.45465011103633</altitude>
			<heading>8.238805093145106e-05</heading>
			<tilt>0</tilt>
			<gx:fovy>35</gx:fovy>
			<range>444.2440271143278</range>
			<altitudeMode>absolute</altitudeMode>
		</LookAt>
		<styleUrl>#__managed_style_05555E0987392A163C3C</styleUrl>
		<Point>
			<coordinates>-1.461931704658653,54.64615772159418,100.9618727936739</coordinates>
		</Point>
	</Placemark>
	<Placemark id="0240CF506C392A1786AC">
		<name>5</name>
		<LookAt>
			<longitude>-1.462303171779097</longitude>
			<latitude>54.64726493562475</latitude>
			<altitude>99.00075743364287</altitude>
			<heading>8.195782318178707e-05</heading>
			<tilt>0</tilt>
			<gx:fovy>35</gx:fovy>
			<range>357.9031352881066</range>
			<altitudeMode>absolute</altitudeMode>
		</LookAt>
		<styleUrl>#__managed_style_01A0A01D18392A16784E</styleUrl>
		<Point>
			<coordinates>-1.462047946122758,54.64708860481549,99.3307200064356</coordinates>
		</Point>
	</Placemark>
	<Placemark id="09D5527EDA392A17B664">
		<name>6</name>
		<LookAt>
			<longitude>-1.462107445296505</longitude>
			<latitude>54.64720011177462</latitude>
			<altitude>99.16930779660618</altitude>
			<heading>8.191779059365414e-05</heading>
			<tilt>0</tilt>
			<gx:fovy>35</gx:fovy>
			<range>283.0455618870838</range>
			<altitudeMode>absolute</altitudeMode>
		</LookAt>
		<styleUrl>#__managed_style_05555E0987392A163C3C</styleUrl>
		<Point>
			<coordinates>-1.461628225861871,54.64707978050237,99.30232197253059</coordinates>
		</Point>
	</Placemark>
	<Placemark id="082BE3E4E1392A186990">
		<name>7</name>
		<LookAt>
			<longitude>-1.462812979412526</longitude>
			<latitude>54.64804012079222</latitude>
			<altitude>100.0844595071187</altitude>
			<heading>8.170395218514303e-05</heading>
			<tilt>0</tilt>
			<gx:fovy>35</gx:fovy>
			<range>509.9932675189484</range>
			<altitudeMode>absolute</altitudeMode>
		</LookAt>
		<styleUrl>#__managed_style_01A0A01D18392A16784E</styleUrl>
		<Point>
			<coordinates>-1.462421774687541,54.64793323193408,100.0691216119119</coordinates>
		</Point>
	</Placemark>
	<Placemark id="0000B256B1392A18A0B4">
		<name>8</name>
		<LookAt>
			<longitude>-1.462787021430322</longitude>
			<latitude>54.64804272002244</latitude>
			<altitude>100.0844249713074</altitude>
			<heading>8.167274877089252e-05</heading>
			<tilt>0</tilt>
			<gx:fovy>35</gx:fovy>
			<range>486.5649792445038</range>
			<altitudeMode>absolute</altitudeMode>
		</LookAt>
		<styleUrl>#__managed_style_05555E0987392A163C3C</styleUrl>
		<Point>
			<coordinates>-1.462243207739343,54.64807867830697,100.5054607887527</coordinates>
		</Point>
	</Placemark>
	<Placemark id="0312F927A2392A18D1B8">
		<name>9</name>
		<LookAt>
			<longitude>-1.464264773405699</longitude>
			<latitude>54.64803824548266</latitude>
			<altitude>100.0409579272459</altitude>
			<heading>8.127458751986918e-05</heading>
			<tilt>0</tilt>
			<gx:fovy>35</gx:fovy>
			<range>315.0233017045685</range>
			<altitudeMode>absolute</altitudeMode>
		</LookAt>
		<styleUrl>#__managed_style_01A0A01D18392A16784E</styleUrl>
		<Point>
			<coordinates>-1.464177475673146,54.64797607869205,99.90093913675251</coordinates>
		</Point>
	</Placemark>
	<Placemark id="0D3B409E23392A18F2BC">
		<name>10</name>
		<LookAt>
			<longitude>-1.464264773405699</longitude>
			<latitude>54.64803824548266</latitude>
			<altitude>100.0409579272459</altitude>
			<heading>8.127458751986918e-05</heading>
			<tilt>0</tilt>
			<gx:fovy>35</gx:fovy>
			<range>315.0233017045685</range>
			<altitudeMode>absolute</altitudeMode>
		</LookAt>
		<styleUrl>#__managed_style_05555E0987392A163C3C</styleUrl>
		<Point>
			<coordinates>-1.464207756972384,54.64819736993066,100.2522724506528</coordinates>
		</Point>
	</Placemark>
	<Placemark id="014730BE89392A192F36">
		<name>11</name>
		<LookAt>
			<longitude>-1.466075588784633</longitude>
			<latitude>54.64801687996651</latitude>
			<altitude>100.0777248272692</altitude>
			<heading>8.103656777193907e-05</heading>
			<tilt>0</tilt>
			<gx:fovy>35</gx:fovy>
			<range>314.9865652095832</range>
			<altitudeMode>absolute</altitudeMode>
		</LookAt>
		<styleUrl>#__managed_style_01A0A01D18392A16784E</styleUrl>
		<Point>
			<coordinates>-1.465880733882929,54.64786331560039,99.71593585130013</coordinates>
		</Point>
	</Placemark>
	<Placemark id="07D7584442392A19534B">
		<name>12</name>
		<LookAt>
			<longitude>-1.466075588784633</longitude>
			<latitude>54.64801687996651</latitude>
			<altitude>100.0777248272692</altitude>
			<heading>8.103656777193907e-05</heading>
			<tilt>0</tilt>
			<gx:fovy>35</gx:fovy>
			<range>314.9865652095832</range>
			<altitudeMode>absolute</altitudeMode>
		</LookAt>
		<styleUrl>#__managed_style_05555E0987392A163C3C</styleUrl>
		<Point>
			<coordinates>-1.465954780427365,54.64809260388785,100.0735292800249</coordinates>
		</Point>
	</Placemark>
	<Placemark id="036857CB31392A198817">
		<name>13</name>
		<LookAt>
			<longitude>-1.467640782114787</longitude>
			<latitude>54.64766696455855</latitude>
			<altitude>101.0450457108311</altitude>
			<heading>8.063981352670084e-05</heading>
			<tilt>0</tilt>
			<gx:fovy>35</gx:fovy>
			<range>314.0192249227039</range>
			<altitudeMode>absolute</altitudeMode>
		</LookAt>
		<styleUrl>#__managed_style_01A0A01D18392A16784E</styleUrl>
		<Point>
			<coordinates>-1.467547057793214,54.64763403961844,100.8662340132202</coordinates>
		</Point>
	</Placemark>
	<Placemark id="024D538CC0392A19A231">
		<name>14</name>
		<LookAt>
			<longitude>-1.467640782114787</longitude>
			<latitude>54.64766696455855</latitude>
			<altitude>101.0450457108311</altitude>
			<heading>8.063981352670084e-05</heading>
			<tilt>0</tilt>
			<gx:fovy>35</gx:fovy>
			<range>314.0192249227039</range>
			<altitudeMode>absolute</altitudeMode>
		</LookAt>
		<styleUrl>#__managed_style_05555E0987392A163C3C</styleUrl>
		<Point>
			<coordinates>-1.467637444080239,54.64785621428865,101.7808402437982</coordinates>
		</Point>
	</Placemark>
	<Placemark id="0D127560EB392A19D049">
		<name>15</name>
		<LookAt>
			<longitude>-1.468652465738632</longitude>
			<latitude>54.64744915591294</latitude>
			<altitude>100.4310593027939</altitude>
			<heading>8.037724564923279e-05</heading>
			<tilt>0</tilt>
			<gx:fovy>35</gx:fovy>
			<range>314.6331995297442</range>
			<altitudeMode>absolute</altitudeMode>
		</LookAt>
		<styleUrl>#__managed_style_01A0A01D18392A16784E</styleUrl>
		<Point>
			<coordinates>-1.469226285372291,54.647371490544,100.0786571329057</coordinates>
		</Point>
	</Placemark>
	<Placemark id="0481B523CC392A19EE3C">
		<name>16</name>
		<LookAt>
			<longitude>-1.468652465738632</longitude>
			<latitude>54.64744915591294</latitude>
			<altitude>100.4310593027939</altitude>
			<heading>8.037724564923279e-05</heading>
			<tilt>0</tilt>
			<gx:fovy>35</gx:fovy>
			<range>314.6331995297442</range>
			<altitudeMode>absolute</altitudeMode>
		</LookAt>
		<styleUrl>#__managed_style_05555E0987392A163C3C</styleUrl>
		<Point>
			<coordinates>-1.469322361603302,54.64758675423886,100.661237465172</coordinates>
		</Point>
	</Placemark>
	<Placemark id="06A4AF7A04392A1A4AFC">
		<name>17</name>
		<LookAt>
			<longitude>-1.471095704610381</longitude>
			<latitude>54.64729414246844</latitude>
			<altitude>101.3069820903328</altitude>
			<heading>8.003644113920586e-05</heading>
			<tilt>0</tilt>
			<gx:fovy>35</gx:fovy>
			<range>613.9532836488797</range>
			<altitudeMode>absolute</altitudeMode>
		</LookAt>
		<styleUrl>#__managed_style_01A0A01D18392A16784E</styleUrl>
		<Point>
			<coordinates>-1.470889440683762,54.64706858156723,100.952712668023</coordinates>
		</Point>
	</Placemark>
	<Placemark id="0BF8C84E59392A1A8390">
		<name>18</name>
		<LookAt>
			<longitude>-1.471095704610381</longitude>
			<latitude>54.64729414246844</latitude>
			<altitude>101.3069820903328</altitude>
			<heading>8.003644113920586e-05</heading>
			<tilt>0</tilt>
			<gx:fovy>35</gx:fovy>
			<range>613.9532836488797</range>
			<altitudeMode>absolute</altitudeMode>
		</LookAt>
		<styleUrl>#__managed_style_05555E0987392A163C3C</styleUrl>
		<Point>
			<coordinates>-1.470961490946369,54.64728845673508,101.1208974533032</coordinates>
		</Point>
	</Placemark>
	<Placemark id="0246BB023A392A1AEED8">
		<name>19</name>
		<LookAt>
			<longitude>-1.472452007431385</longitude>
			<latitude>54.64698317854345</latitude>
			<altitude>102.9449701276045</altitude>
			<heading>7.973075716318194e-05</heading>
			<tilt>0</tilt>
			<gx:fovy>35</gx:fovy>
			<range>628.9615672727086</range>
			<altitudeMode>absolute</altitudeMode>
		</LookAt>
		<styleUrl>#__managed_style_01A0A01D18392A16784E</styleUrl>
		<Point>
			<coordinates>-1.472612819387107,54.64679708265651,102.9449856576146</coordinates>
		</Point>
	</Placemark>
	<Placemark id="071AA17905392A1B185F">
		<name>20</name>
		<LookAt>
			<longitude>-1.472452007431385</longitude>
			<latitude>54.64698317854345</latitude>
			<altitude>102.9449701276045</altitude>
			<heading>7.973075716318194e-05</heading>
			<tilt>0</tilt>
			<gx:fovy>35</gx:fovy>
			<range>628.9615672727086</range>
			<altitudeMode>absolute</altitudeMode>
		</LookAt>
		<styleUrl>#__managed_style_05555E0987392A163C3C</styleUrl>
		<Point>
			<coordinates>-1.472713327464438,54.6470180715424,102.9449658624396</coordinates>
		</Point>
	</Placemark>
	<Placemark id="0EEAFBD843392A1B9CC9">
		<name>21</name>
		<LookAt>
			<longitude>-1.473181478598486</longitude>
			<latitude>54.64627942949873</latitude>
			<altitude>103.7957159210551</altitude>
			<heading>1.020168802714508</heading>
			<tilt>0</tilt>
			<gx:fovy>35</gx:fovy>
			<range>548.7989195094269</range>
			<altitudeMode>absolute</altitudeMode>
		</LookAt>
		<styleUrl>#__managed_style_01A0A01D18392A16784E</styleUrl>
		<Point>
			<coordinates>-1.474112948876676,54.64638084701907,103.7732135687421</coordinates>
		</Point>
	</Placemark>
	<Placemark id="05FB367AC8392A1BC1A0">
		<name>22</name>
		<LookAt>
			<longitude>-1.473188990066554</longitude>
			<latitude>54.6462813340779</latitude>
			<altitude>103.7934911671781</altitude>
			<heading>1.020168802714151</heading>
			<tilt>0</tilt>
			<gx:fovy>35</gx:fovy>
			<range>545.2308671535866</range>
			<altitudeMode>absolute</altitudeMode>
		</LookAt>
		<styleUrl>#__managed_style_05555E0987392A163C3C</styleUrl>
		<Point>
			<coordinates>-1.47443251666153,54.64649218058229,103.3652573979964</coordinates>
		</Point>
	</Placemark>
	<Placemark id="08B2D76BF1392A1C4CEF">
		<name>26</name>
		<LookAt>
			<longitude>-1.472793478008869</longitude>
			<latitude>54.64523380000667</latitude>
			<altitude>101.97765331823</altitude>
			<heading>1.020168802695215</heading>
			<tilt>0</tilt>
			<gx:fovy>35</gx:fovy>
			<range>563.3241819625982</range>
			<altitudeMode>absolute</altitudeMode>
		</LookAt>
		<styleUrl>#__managed_style_05555E0987392A163C3C</styleUrl>
		<Point>
			<coordinates>-1.47340878478425,54.64465000454184,100.1015870542093</coordinates>
		</Point>
	</Placemark>
	<Placemark id="0DDDA091C3392A1C7C00">
		<name>24</name>
		<LookAt>
			<longitude>-1.472786545966799</longitude>
			<latitude>54.64538555632218</latitude>
			<altitude>102.2331057671401</altitude>
			<heading>1.020168802692</heading>
			<tilt>0</tilt>
			<gx:fovy>35</gx:fovy>
			<range>775.3698269084998</range>
			<altitudeMode>absolute</altitudeMode>
		</LookAt>
		<styleUrl>#__managed_style_05555E0987392A163C3C</styleUrl>
		<Point>
			<coordinates>-1.474558932174478,54.64546590297736,102.8052688337244</coordinates>
		</Point>
	</Placemark>
	<Placemark id="09A408EC18392A1C97BC">
		<name>23</name>
		<LookAt>
			<longitude>-1.472786545966799</longitude>
			<latitude>54.64538555632218</latitude>
			<altitude>102.2331057671401</altitude>
			<heading>1.020168802692</heading>
			<tilt>0</tilt>
			<gx:fovy>35</gx:fovy>
			<range>775.3698269084998</range>
			<altitudeMode>absolute</altitudeMode>
		</LookAt>
		<styleUrl>#__managed_style_01A0A01D18392A16784E</styleUrl>
		<Point>
			<coordinates>-1.474249965919587,54.64556297505542,103.0905030463825</coordinates>
		</Point>
	</Placemark>
	<Placemark id="0A6CFE61D2392A1CCFA8">
		<name>25</name>
		<LookAt>
			<longitude>-1.473057791243428</longitude>
			<latitude>54.64490622260381</latitude>
			<altitude>100.8965901624135</altitude>
			<heading>1.020168802686998</heading>
			<tilt>0</tilt>
			<gx:fovy>35</gx:fovy>
			<range>143.9284535138904</range>
			<altitudeMode>absolute</altitudeMode>
		</LookAt>
		<styleUrl>#__managed_style_01A0A01D18392A16784E</styleUrl>
		<Point>
			<coordinates>-1.473267511045653,54.64484080267963,100.4794326940899</coordinates>
		</Point>
	</Placemark>
	<Placemark id="0994190DC6392A1D3F6B">
		<name>27</name>
		<LookAt>
			<longitude>-1.472082021705688</longitude>
			<latitude>54.64517047389039</latitude>
			<altitude>101.8613814990277</altitude>
			<heading>1.020168802661274</heading>
			<tilt>0</tilt>
			<gx:fovy>35</gx:fovy>
			<range>302.7419321782145</range>
			<altitudeMode>absolute</altitudeMode>
		</LookAt>
		<styleUrl>#__managed_style_01A0A01D18392A16784E</styleUrl>
		<Point>
			<coordinates>-1.471282772763829,54.64475655746117,102.0401681078493</coordinates>
		</Point>
	</Placemark>
	<Placemark id="0B1F4F132E392A1D6318">
		<name>28</name>
		<LookAt>
			<longitude>-1.472087870001696</longitude>
			<latitude>54.64517449049041</latitude>
			<altitude>101.8613827594794</altitude>
			<heading>1.020168802661274</heading>
			<tilt>0</tilt>
			<gx:fovy>35</gx:fovy>
			<range>304.7225507539042</range>
			<altitudeMode>absolute</altitudeMode>
		</LookAt>
		<styleUrl>#__managed_style_05555E0987392A163C3C</styleUrl>
		<Point>
			<coordinates>-1.471263708786672,54.64455721933755,101.9207476830722</coordinates>
		</Point>
	</Placemark>
	<Placemark id="0F35D5A62C392A1D877B">
		<name>29</name>
		<LookAt>
			<longitude>-1.46917990026087</longitude>
			<latitude>54.64544647348661</latitude>
			<altitude>99.34508861002347</altitude>
			<heading>1.02016880262376</heading>
			<tilt>0</tilt>
			<gx:fovy>35</gx:fovy>
			<range>442.1387130540825</range>
			<altitudeMode>absolute</altitudeMode>
		</LookAt>
		<styleUrl>#__managed_style_01A0A01D18392A16784E</styleUrl>
		<Point>
			<coordinates>-1.469537341981192,54.64481195992116,100.9845868976324</coordinates>
		</Point>
	</Placemark>
	<Placemark id="06860063B3392A1DA968">
		<name>30</name>
		<LookAt>
			<longitude>-1.46917990026087</longitude>
			<latitude>54.64544647348661</latitude>
			<altitude>99.34508861002347</altitude>
			<heading>1.02016880262376</heading>
			<tilt>0</tilt>
			<gx:fovy>35</gx:fovy>
			<range>442.1387130540825</range>
			<altitudeMode>absolute</altitudeMode>
		</LookAt>
		<styleUrl>#__managed_style_05555E0987392A163C3C</styleUrl>
		<Point>
			<coordinates>-1.469516075914205,54.64458395840948,101.1571908917273</coordinates>
		</Point>
	</Placemark>
	<Placemark id="0066AA5A69392A1DDFAC">
		<name>31</name>
		<LookAt>
			<longitude>-1.46917990026087</longitude>
			<latitude>54.64544647348661</latitude>
			<altitude>99.34508861002347</altitude>
			<heading>1.02016880262376</heading>
			<tilt>0</tilt>
			<gx:fovy>35</gx:fovy>
			<range>442.1387130540825</range>
			<altitudeMode>absolute</altitudeMode>
		</LookAt>
		<styleUrl>#__managed_style_01A0A01D18392A16784E</styleUrl>
		<Point>
			<coordinates>-1.467844948260677,54.64485985262945,99.01156868880635</coordinates>
		</Point>
	</Placemark>
	<Placemark id="0D76FABA1B392A1E08E1">
		<name>32</name>
		<LookAt>
			<longitude>-1.46917990026087</longitude>
			<latitude>54.64544647348661</latitude>
			<altitude>99.34508861002347</altitude>
			<heading>1.020168802623402</heading>
			<tilt>0</tilt>
			<gx:fovy>35</gx:fovy>
			<range>442.1387130540825</range>
			<altitudeMode>absolute</altitudeMode>
		</LookAt>
		<styleUrl>#__managed_style_05555E0987392A163C3C</styleUrl>
		<Point>
			<coordinates>-1.46781659636026,54.6446118109734,99.02267335760878</coordinates>
		</Point>
	</Placemark>
	<Placemark id="0E7DD303AA392A1E61F1">
		<name>34</name>
		<LookAt>
			<longitude>-1.46626543461493</longitude>
			<latitude>54.64537268722454</latitude>
			<altitude>97.93881682433292</altitude>
			<heading>1.020168802591605</heading>
			<tilt>0</tilt>
			<gx:fovy>35</gx:fovy>
			<range>443.5449907176371</range>
			<altitudeMode>absolute</altitudeMode>
		</LookAt>
		<styleUrl>#__managed_style_05555E0987392A163C3C</styleUrl>
		<Point>
			<coordinates>-1.465969093200882,54.64471792288595,99.79383175080545</coordinates>
		</Point>
	</Placemark>
	<Placemark id="04AC0108F7392A1E81E8">
		<name>36</name>
		<LookAt>
			<longitude>-1.46626543461493</longitude>
			<latitude>54.64537268722454</latitude>
			<altitude>97.93881682433292</altitude>
			<heading>1.020168802591605</heading>
			<tilt>0</tilt>
			<gx:fovy>35</gx:fovy>
			<range>443.5449907176371</range>
			<altitudeMode>absolute</altitudeMode>
		</LookAt>
		<styleUrl>#__managed_style_05555E0987392A163C3C</styleUrl>
		<Point>
			<coordinates>-1.464298503774487,54.64482047734874,101.2804147019928</coordinates>
		</Point>
	</Placemark>
	<Placemark id="096159F9D8392A1E976F">
		<name>33</name>
		<LookAt>
			<longitude>-1.466240589449934</longitude>
			<latitude>54.64528474813975</latitude>
			<altitude>98.15839255628559</altitude>
			<heading>1.020168802590176</heading>
			<tilt>0</tilt>
			<gx:fovy>35</gx:fovy>
			<range>325.7845220217132</range>
			<altitudeMode>absolute</altitudeMode>
		</LookAt>
		<styleUrl>#__managed_style_01A0A01D18392A16784E</styleUrl>
		<Point>
			<coordinates>-1.46600400229187,54.64493877547955,99.04625562987476</coordinates>
		</Point>
	</Placemark>
	<Placemark id="0BDDB7426F392A1EACEF">
		<name>35</name>
		<LookAt>
			<longitude>-1.466240589449934</longitude>
			<latitude>54.64528474813975</latitude>
			<altitude>98.15839255628559</altitude>
			<heading>1.020168802590176</heading>
			<tilt>0</tilt>
			<gx:fovy>35</gx:fovy>
			<range>325.7845220217132</range>
			<altitudeMode>absolute</altitudeMode>
		</LookAt>
		<styleUrl>#__managed_style_01A0A01D18392A16784E</styleUrl>
		<Point>
			<coordinates>-1.464326939148632,54.64504988649075,100.8469235250153</coordinates>
		</Point>
	</Placemark>
</Document>
</kml>
