<?xml version="1.0" encoding="UTF-8"?>
<kml xmlns="http://www.opengis.net/kml/2.2" xmlns:gx="http://www.google.com/kml/ext/2.2" xmlns:kml="http://www.opengis.net/kml/2.2" xmlns:atom="http://www.w3.org/2005/Atom">
<Document>
	<name>Chepstow Racecourse</name>
	<gx:CascadingStyle kml:id="__managed_style_0563ECD19D38BDADD668">
		<Style>
			<IconStyle>
				<scale>1.2</scale>
				<Icon>
					<href>https://earth.google.com/earth/document/icon?color=1976d2&amp;id=2000&amp;scale=4</href>
				</Icon>
				<hotSpot x="64" y="128" xunits="pixels" yunits="insetPixels"/>
			</IconStyle>
			<LabelStyle>
			</LabelStyle>
			<LineStyle>
				<color>ff2dc0fb</color>
				<width>6</width>
			</LineStyle>
			<PolyStyle>
				<color>40ffffff</color>
			</PolyStyle>
			<BalloonStyle>
				<displayMode>hide</displayMode>
			</BalloonStyle>
		</Style>
	</gx:CascadingStyle>
	<gx:CascadingStyle kml:id="__managed_style_149A9A7F5638BDADD666">
		<Style>
			<IconStyle>
				<Icon>
					<href>https://earth.google.com/earth/document/icon?color=1976d2&amp;id=2000&amp;scale=4</href>
				</Icon>
				<hotSpot x="64" y="128" xunits="pixels" yunits="insetPixels"/>
			</IconStyle>
			<LabelStyle>
			</LabelStyle>
			<LineStyle>
				<color>ff2dc0fb</color>
				<width>4</width>
			</LineStyle>
			<PolyStyle>
				<color>40ffffff</color>
			</PolyStyle>
			<BalloonStyle>
				<displayMode>hide</displayMode>
			</BalloonStyle>
		</Style>
	</gx:CascadingStyle>
	<StyleMap id="__managed_style_066F02FDD038BDADD666">
		<Pair>
			<key>normal</key>
			<styleUrl>#__managed_style_149A9A7F5638BDADD666</styleUrl>
		</Pair>
		<Pair>
			<key>highlight</key>
			<styleUrl>#__managed_style_0563ECD19D38BDADD668</styleUrl>
		</Pair>
	</StyleMap>
	<gx:CascadingStyle kml:id="__managed_style_233285752B38BD994CD7">
		<Style>
			<IconStyle>
				<scale>1.2</scale>
				<Icon>
					<href>https://earth.google.com/earth/document/icon?color=fbc02d&amp;id=2000&amp;scale=4</href>
				</Icon>
				<hotSpot x="64" y="128" xunits="pixels" yunits="insetPixels"/>
			</IconStyle>
			<LabelStyle>
			</LabelStyle>
			<LineStyle>
				<color>ff2dc0fb</color>
				<width>6</width>
			</LineStyle>
			<PolyStyle>
				<color>40ffffff</color>
			</PolyStyle>
			<BalloonStyle>
				<gx:displayMode>card</gx:displayMode>
			</BalloonStyle>
		</Style>
	</gx:CascadingStyle>
	<gx:CascadingStyle kml:id="__managed_style_130FF339C838BD994CD7">
		<Style>
			<IconStyle>
				<Icon>
					<href>https://earth.google.com/earth/document/icon?color=fbc02d&amp;id=2000&amp;scale=4</href>
				</Icon>
				<hotSpot x="64" y="128" xunits="pixels" yunits="insetPixels"/>
			</IconStyle>
			<LabelStyle>
			</LabelStyle>
			<LineStyle>
				<color>ff2dc0fb</color>
				<width>4</width>
			</LineStyle>
			<PolyStyle>
				<color>40ffffff</color>
			</PolyStyle>
			<BalloonStyle>
				<gx:displayMode>card</gx:displayMode>
			</BalloonStyle>
		</Style>
	</gx:CascadingStyle>
	<StyleMap id="__managed_style_0493F41F9B38BD994CD7">
		<Pair>
			<key>normal</key>
			<styleUrl>#__managed_style_130FF339C838BD994CD7</styleUrl>
		</Pair>
		<Pair>
			<key>highlight</key>
			<styleUrl>#__managed_style_233285752B38BD994CD7</styleUrl>
		</Pair>
	</StyleMap>
	<Placemark id="0A8769AB5E38BD994CB6">
		<name>Chepstow Racecourse</name>
		<gx:mid>/m/027k_fl</gx:mid>
		<gx:fid>0x4871955d0dd8a68b:0x2b85a8865defe097</gx:fid>
		<LookAt>
			<longitude>-2.691832</longitude>
			<latitude>51.65134589999999</latitude>
			<altitude>0</altitude>
			<heading>0</heading>
			<tilt>0</tilt>
			<gx:fovy>35</gx:fovy>
			<range>625.6986802831054</range>
			<altitudeMode>relativeToGround</altitudeMode>
		</LookAt>
		<styleUrl>#__managed_style_0493F41F9B38BD994CD7</styleUrl>
		<Point>
			<altitudeMode>relativeToGround</altitudeMode>
			<coordinates>-2.691832,51.6513459,0</coordinates>
		</Point>
	</Placemark>
	<Placemark id="0AFC5C083F38BDADD651">
		<name>36</name>
		<LookAt>
			<longitude>-2.689850464250364</longitude>
			<latitude>51.65175865374804</latitude>
			<altitude>88.36749875542243</altitude>
			<heading>78.21967922555434</heading>
			<tilt>0.09958802399719258</tilt>
			<gx:fovy>35</gx:fovy>
			<range>699.7415983287647</range>
			<altitudeMode>absolute</altitudeMode>
		</LookAt>
		<styleUrl>#__managed_style_066F02FDD038BDADD666</styleUrl>
		<Point>
			<coordinates>-2.689960405269432,51.6504475006006,79.25105552316617</coordinates>
		</Point>
	</Placemark>
	<Placemark id="0DAFE0CBD738BDAE2220">
		<name>35</name>
		<LookAt>
			<longitude>-2.6897457030987</longitude>
			<latitude>51.65187480761718</latitude>
			<altitude>89.3828144576371</altitude>
			<heading>78.21976136125141</heading>
			<tilt>0.09958800761625665</tilt>
			<gx:fovy>35</gx:fovy>
			<range>698.7262340560119</range>
			<altitudeMode>absolute</altitudeMode>
		</LookAt>
		<styleUrl>#__managed_style_066F02FDD038BDADD666</styleUrl>
		<Point>
			<coordinates>-2.690229155437112,51.65136075715296,85.06788634075122</coordinates>
		</Point>
	</Placemark>
	<Placemark id="06D0F1D1D038BDAE429C">
		<name>34</name>
		<LookAt>
			<longitude>-2.6897457030987</longitude>
			<latitude>51.65187480761718</latitude>
			<altitude>89.3828144576371</altitude>
			<heading>78.21976136125141</heading>
			<tilt>0.09958800761625665</tilt>
			<gx:fovy>35</gx:fovy>
			<range>698.7262340560119</range>
			<altitudeMode>absolute</altitudeMode>
		</LookAt>
		<styleUrl>#__managed_style_066F02FDD038BDADD666</styleUrl>
		<Point>
			<coordinates>-2.69044421248827,51.652282682204,87.78536877222984</coordinates>
		</Point>
	</Placemark>
	<Placemark id="0C111C6AE838BDAEA497">
		<name>33</name>
		<LookAt>
			<longitude>-2.6897457030987</longitude>
			<latitude>51.65187480761718</latitude>
			<altitude>89.3828144576371</altitude>
			<heading>78.21976136124428</heading>
			<tilt>0.09958800759063856</tilt>
			<gx:fovy>35</gx:fovy>
			<range>698.7262340560119</range>
			<altitudeMode>absolute</altitudeMode>
		</LookAt>
		<styleUrl>#__managed_style_066F02FDD038BDADD666</styleUrl>
		<Point>
			<coordinates>-2.690660087164295,51.65313645231765,87.88185029127141</coordinates>
		</Point>
	</Placemark>
	<Placemark id="055914291838BDAEDF2E">
		<name>31</name>
		<LookAt>
			<longitude>-2.690433193283291</longitude>
			<latitude>51.65351927822397</latitude>
			<altitude>88.18005732769932</altitude>
			<heading>78.21922209860735</heading>
			<tilt>0.09958802518660359</tilt>
			<gx:fovy>35</gx:fovy>
			<range>699.9290123971878</range>
			<altitudeMode>absolute</altitudeMode>
		</LookAt>
		<styleUrl>#__managed_style_066F02FDD038BDADD666</styleUrl>
		<Point>
			<coordinates>-2.691210220377409,51.65498911318045,91.44754616117585</coordinates>
		</Point>
	</Placemark>
	<Placemark id="0DBA16C01D38BDAF00CE">
		<name>32</name>
		<LookAt>
			<longitude>-2.690433193283291</longitude>
			<latitude>51.65351927822397</latitude>
			<altitude>88.18005732769932</altitude>
			<heading>78.21922209860735</heading>
			<tilt>0.09958802518660359</tilt>
			<gx:fovy>35</gx:fovy>
			<range>699.9290123971878</range>
			<altitudeMode>absolute</altitudeMode>
		</LookAt>
		<styleUrl>#__managed_style_066F02FDD038BDADD666</styleUrl>
		<Point>
			<coordinates>-2.690898530696714,51.65404732511028,88.78690257364552</coordinates>
		</Point>
	</Placemark>
	<Placemark id="092A57955138BDAFA8D1">
		<name>29</name>
		<LookAt>
			<longitude>-2.691061600440881</longitude>
			<latitude>51.65729909220564</latitude>
			<altitude>92.80496373638483</altitude>
			<heading>78.21905295045498</heading>
			<tilt>0.09958657687969334</tilt>
			<gx:fovy>35</gx:fovy>
			<range>607.4463580494194</range>
			<altitudeMode>absolute</altitudeMode>
		</LookAt>
		<styleUrl>#__managed_style_066F02FDD038BDADD666</styleUrl>
		<Point>
			<coordinates>-2.691818285800203,51.656967234836,96.14356818691142</coordinates>
		</Point>
	</Placemark>
	<Placemark id="08433F48C538BDAFC8E9">
		<name>30</name>
		<LookAt>
			<longitude>-2.691061600440881</longitude>
			<latitude>51.65729909220564</latitude>
			<altitude>92.80496373638483</altitude>
			<heading>78.21905295045498</heading>
			<tilt>0.09958657687969334</tilt>
			<gx:fovy>35</gx:fovy>
			<range>607.4463580494194</range>
			<altitudeMode>absolute</altitudeMode>
		</LookAt>
		<styleUrl>#__managed_style_066F02FDD038BDADD666</styleUrl>
		<Point>
			<coordinates>-2.691498773857279,51.65597505129658,95.36052215663393</coordinates>
		</Point>
	</Placemark>
	<Placemark id="0FDAD0399A38BDB012D3">
		<name>28</name>
		<LookAt>
			<longitude>-2.690719831699134</longitude>
			<latitude>51.65740165879043</latitude>
			<altitude>90.44738314557036</altitude>
			<heading>78.21905785523681</heading>
			<tilt>0.09959052819193243</tilt>
			<gx:fovy>35</gx:fovy>
			<range>860.2710885056877</range>
			<altitudeMode>absolute</altitudeMode>
		</LookAt>
		<styleUrl>#__managed_style_066F02FDD038BDADD666</styleUrl>
		<Point>
			<coordinates>-2.692095128528544,51.65791089062973,95.06410231908946</coordinates>
		</Point>
	</Placemark>
	<Placemark id="00729464F738BDB06989">
		<name>27</name>
		<LookAt>
			<longitude>-2.690843445875859</longitude>
			<latitude>51.65839195836521</latitude>
			<altitude>90.65850624299988</altitude>
			<heading>78.21865696137853</heading>
			<tilt>0.09959378273928028</tilt>
			<gx:fovy>35</gx:fovy>
			<range>1068.564094694448</range>
			<altitudeMode>absolute</altitudeMode>
		</LookAt>
		<styleUrl>#__managed_style_066F02FDD038BDADD666</styleUrl>
		<Point>
			<coordinates>-2.692379542354545,51.6587601354309,94.1171081293362</coordinates>
		</Point>
	</Placemark>
	<Placemark id="033F4AFFB638BDB0AB29">
		<name>26</name>
		<LookAt>
			<longitude>-2.690843445791327</longitude>
			<latitude>51.65839195867969</latitude>
			<altitude>90.65850624441453</altitude>
			<heading>78.21865679050143</heading>
			<tilt>0.09959378284906573</tilt>
			<gx:fovy>35</gx:fovy>
			<range>1068.564187404845</range>
			<altitudeMode>absolute</altitudeMode>
		</LookAt>
		<styleUrl>#__managed_style_066F02FDD038BDADD666</styleUrl>
		<Point>
			<coordinates>-2.692648403898223,51.65972378154382,94.91791322979832</coordinates>
		</Point>
	</Placemark>
	<Placemark id="0034E6B6B138BDB0E738">
		<name>25</name>
		<LookAt>
			<longitude>-2.690843445706794</longitude>
			<latitude>51.65839195894178</latitude>
			<altitude>90.65850624299988</altitude>
			<heading>78.21865664912929</heading>
			<tilt>0.0995937829442131</tilt>
			<gx:fovy>35</gx:fovy>
			<range>1068.564280115243</range>
			<altitudeMode>absolute</altitudeMode>
		</LookAt>
		<styleUrl>#__managed_style_066F02FDD038BDADD666</styleUrl>
		<Point>
			<coordinates>-2.69288597566761,51.6605623513592,95.73346529429431</coordinates>
		</Point>
	</Placemark>
	<Placemark id="00877528BE38BDB157E8">
		<name>22</name>
		<LookAt>
			<longitude>-2.693118628054456</longitude>
			<latitude>51.66291054903873</latitude>
			<altitude>105.3890084774503</altitude>
			<heading>78.21581932610181</heading>
			<tilt>0.09959500458150207</tilt>
			<gx:fovy>35</gx:fovy>
			<range>1146.883706111839</range>
			<altitudeMode>absolute</altitudeMode>
		</LookAt>
		<styleUrl>#__managed_style_066F02FDD038BDADD666</styleUrl>
		<Point>
			<coordinates>-2.693887297477389,51.66334211261843,105.9379912752333</coordinates>
		</Point>
	</Placemark>
	<Placemark id="025F1576CA38BDB17C3C">
		<name>23</name>
		<LookAt>
			<longitude>-2.693118628054456</longitude>
			<latitude>51.66291054903873</latitude>
			<altitude>105.3890084774503</altitude>
			<heading>78.21581932610181</heading>
			<tilt>0.09959500458150207</tilt>
			<gx:fovy>35</gx:fovy>
			<range>1146.883706111839</range>
			<altitudeMode>absolute</altitudeMode>
		</LookAt>
		<styleUrl>#__managed_style_066F02FDD038BDADD666</styleUrl>
		<Point>
			<coordinates>-2.693603874004917,51.6623410341591,102.5948350336296</coordinates>
		</Point>
	</Placemark>
	<Placemark id="02450D058838BDB19669">
		<name>24</name>
		<LookAt>
			<longitude>-2.693118628054456</longitude>
			<latitude>51.66291054903873</latitude>
			<altitude>105.3890084774503</altitude>
			<heading>78.21581932610181</heading>
			<tilt>0.09959500458150207</tilt>
			<gx:fovy>35</gx:fovy>
			<range>1146.883706111839</range>
			<altitudeMode>absolute</altitudeMode>
		</LookAt>
		<styleUrl>#__managed_style_066F02FDD038BDADD666</styleUrl>
		<Point>
			<coordinates>-2.69336202455654,51.66142292737531,99.2868948582786</coordinates>
		</Point>
	</Placemark>
	<Placemark id="0BC9D4DB1438BDB1C723">
		<name>20</name>
		<LookAt>
			<longitude>-2.693118628054456</longitude>
			<latitude>51.66291054882907</latitude>
			<altitude>105.3890084760357</altitude>
			<heading>78.2158194441875</heading>
			<tilt>0.09959500454124789</tilt>
			<gx:fovy>35</gx:fovy>
			<range>1146.883706111839</range>
			<altitudeMode>absolute</altitudeMode>
		</LookAt>
		<styleUrl>#__managed_style_066F02FDD038BDADD666</styleUrl>
		<Point>
			<coordinates>-2.694447050099762,51.66516059752956,115.7404932734352</coordinates>
		</Point>
	</Placemark>
	<Placemark id="0959236EC938BDB1E3E9">
		<name>21</name>
		<LookAt>
			<longitude>-2.693118628054456</longitude>
			<latitude>51.66291054861942</latitude>
			<altitude>105.3890084760357</altitude>
			<heading>78.21581956226829</heading>
			<tilt>0.09959500447537745</tilt>
			<gx:fovy>35</gx:fovy>
			<range>1146.883706111839</range>
			<altitudeMode>absolute</altitudeMode>
		</LookAt>
		<styleUrl>#__managed_style_066F02FDD038BDADD666</styleUrl>
		<Point>
			<coordinates>-2.694214895212758,51.6642583793034,112.0867527923661</coordinates>
		</Point>
	</Placemark>
	<Placemark id="0790B8618D38BDB1F633">
		<name>19</name>
		<LookAt>
			<longitude>-2.693118628054456</longitude>
			<latitude>51.66291054861942</latitude>
			<altitude>105.3890084760357</altitude>
			<heading>78.21581956226829</heading>
			<tilt>0.09959500447537745</tilt>
			<gx:fovy>35</gx:fovy>
			<range>1146.883706111839</range>
			<altitudeMode>absolute</altitudeMode>
		</LookAt>
		<styleUrl>#__managed_style_066F02FDD038BDADD666</styleUrl>
		<Point>
			<coordinates>-2.694755661563856,51.66608308479519,119.5494531259431</coordinates>
		</Point>
	</Placemark>
	<Placemark id="08D0AB0DAC38BDB2ACA4">
		<name>18</name>
		<LookAt>
			<longitude>-2.691251439818899</longitude>
			<latitude>51.66025190614427</latitude>
			<altitude>93.81380731041949</altitude>
			<heading>78.21690476241335</heading>
			<tilt>0.09958546273047661</tilt>
			<gx:fovy>35</gx:fovy>
			<range>536.5086729625183</range>
			<altitudeMode>absolute</altitudeMode>
		</LookAt>
		<styleUrl>#__managed_style_066F02FDD038BDADD666</styleUrl>
		<Point>
			<coordinates>-2.692126829462462,51.66139411712967,98.57470827203127</coordinates>
		</Point>
	</Placemark>
	<Placemark id="0468B9520938BDB2E490">
		<name>17</name>
		<LookAt>
			<longitude>-2.691251439818899</longitude>
			<latitude>51.66025190614427</latitude>
			<altitude>93.81380731041949</altitude>
			<heading>78.21690476241335</heading>
			<tilt>0.09958546273047661</tilt>
			<gx:fovy>35</gx:fovy>
			<range>536.5086729625183</range>
			<altitudeMode>absolute</altitudeMode>
		</LookAt>
		<styleUrl>#__managed_style_066F02FDD038BDADD666</styleUrl>
		<Point>
			<coordinates>-2.691202343566026,51.66177646636972,98.14593970068113</coordinates>
		</Point>
	</Placemark>
	<Placemark id="04DC0B4E0438BDB31390">
		<name>16</name>
		<LookAt>
			<longitude>-2.689616036829329</longitude>
			<latitude>51.66019360211904</latitude>
			<altitude>92.3627824294671</altitude>
			<heading>78.21818744574911</heading>
			<tilt>0.09958548390253508</tilt>
			<gx:fovy>35</gx:fovy>
			<range>537.9596833928372</range>
			<altitudeMode>absolute</altitudeMode>
		</LookAt>
		<styleUrl>#__managed_style_066F02FDD038BDADD666</styleUrl>
		<Point>
			<coordinates>-2.690009810005645,51.66170399295925,94.79245910891684</coordinates>
		</Point>
	</Placemark>
	<Placemark id="0D4347536238BDB34133">
		<name>15</name>
		<LookAt>
			<longitude>-2.689616036829329</longitude>
			<latitude>51.66019360211904</latitude>
			<altitude>92.3627824294671</altitude>
			<heading>78.21818744574911</heading>
			<tilt>0.09958548390253508</tilt>
			<gx:fovy>35</gx:fovy>
			<range>537.9596833928372</range>
			<altitudeMode>absolute</altitudeMode>
		</LookAt>
		<styleUrl>#__managed_style_066F02FDD038BDADD666</styleUrl>
		<Point>
			<coordinates>-2.689230444276292,51.6611580836386,92.45412695416988</coordinates>
		</Point>
	</Placemark>
	<Placemark id="033BA18FD038BDB373D8">
		<name>14</name>
		<LookAt>
			<longitude>-2.688783498468508</longitude>
			<latitude>51.65986365189602</latitude>
			<altitude>95.91221896727185</altitude>
			<heading>78.21884053637537</heading>
			<tilt>0.09958542776088702</tilt>
			<gx:fovy>35</gx:fovy>
			<range>534.4102658268821</range>
			<altitudeMode>absolute</altitudeMode>
		</LookAt>
		<styleUrl>#__managed_style_066F02FDD038BDADD666</styleUrl>
		<Point>
			<coordinates>-2.688813774284842,51.66018038549876,94.30076167187333</coordinates>
		</Point>
	</Placemark>
	<Placemark id="0BE5D7D3F638BDB3A9C8">
		<name>12</name>
		<LookAt>
			<longitude>-2.688783498468508</longitude>
			<latitude>51.65986365189602</latitude>
			<altitude>95.91221896727185</altitude>
			<heading>78.21884053637537</heading>
			<tilt>0.09958542776088702</tilt>
			<gx:fovy>35</gx:fovy>
			<range>534.4102658268821</range>
			<altitudeMode>absolute</altitudeMode>
		</LookAt>
		<styleUrl>#__managed_style_066F02FDD038BDADD666</styleUrl>
		<Point>
			<coordinates>-2.68794832110553,51.6583177166095,99.62505197148208</coordinates>
		</Point>
	</Placemark>
	<Placemark id="0B68CE448838BDB3D6A1">
		<name>13</name>
		<LookAt>
			<longitude>-2.688735101010437</longitude>
			<latitude>51.65987991805137</latitude>
			<altitude>96.01136401461092</altitude>
			<heading>78.2188784526935</heading>
			<tilt>0.09958542598953334</tilt>
			<gx:fovy>35</gx:fovy>
			<range>534.3110657016223</range>
			<altitudeMode>absolute</altitudeMode>
		</LookAt>
		<styleUrl>#__managed_style_066F02FDD038BDADD666</styleUrl>
		<Point>
			<coordinates>-2.688367241368539,51.65922816087529,97.94842086523657</coordinates>
		</Point>
	</Placemark>
	<Placemark id="0D7DBCC31338BDB42557">
		<name>9</name>
		<LookAt>
			<longitude>-2.686948125697893</longitude>
			<latitude>51.65640684903308</latitude>
			<altitude>97.33676472970041</altitude>
			<heading>78.21934202851914</heading>
			<tilt>0.09958533520395486</tilt>
			<gx:fovy>35</gx:fovy>
			<range>528.6893853321089</range>
			<altitudeMode>absolute</altitudeMode>
		</LookAt>
		<styleUrl>#__managed_style_066F02FDD038BDADD666</styleUrl>
		<Point>
			<coordinates>-2.686744519674622,51.65580136615777,95.11995454904921</coordinates>
		</Point>
	</Placemark>
	<Placemark id="07BF67843038BDB45871">
		<name>10</name>
		<LookAt>
			<longitude>-2.687231278971491</longitude>
			<latitude>51.65710490005348</latitude>
			<altitude>98.68156170454179</altitude>
			<heading>78.21912003141394</heading>
			<tilt>0.09958531313154763</tilt>
			<gx:fovy>35</gx:fovy>
			<range>527.3446210172551</range>
			<altitudeMode>absolute</altitudeMode>
		</LookAt>
		<styleUrl>#__managed_style_066F02FDD038BDADD666</styleUrl>
		<Point>
			<coordinates>-2.687154223891015,51.65665999790254,97.29523360933784</coordinates>
		</Point>
	</Placemark>
	<Placemark id="0D6E30FC1638BDB46BB8">
		<name>11</name>
		<LookAt>
			<longitude>-2.687231278971491</longitude>
			<latitude>51.65710490005348</latitude>
			<altitude>98.68156170454179</altitude>
			<heading>78.21912003141394</heading>
			<tilt>0.09958531313154763</tilt>
			<gx:fovy>35</gx:fovy>
			<range>527.3446210172551</range>
			<altitudeMode>absolute</altitudeMode>
		</LookAt>
		<styleUrl>#__managed_style_066F02FDD038BDADD666</styleUrl>
		<Point>
			<coordinates>-2.687523243511456,51.65744024317932,99.42762362260768</coordinates>
		</Point>
	</Placemark>
	<Placemark id="01D402B04438BDB4CB4F">
		<name>8</name>
		<LookAt>
			<longitude>-2.686464976431149</longitude>
			<latitude>51.6538059522012</latitude>
			<altitude>88.88575485242529</altitude>
			<heading>78.21965938995612</heading>
			<tilt>0.09958807146383039</tilt>
			<gx:fovy>35</gx:fovy>
			<range>703.9380417584471</range>
			<altitudeMode>absolute</altitudeMode>
		</LookAt>
		<styleUrl>#__managed_style_066F02FDD038BDADD666</styleUrl>
		<Point>
			<coordinates>-2.686540470774795,51.6549619908537,91.5600298009453</coordinates>
		</Point>
	</Placemark>
	<Placemark id="0B5783110538BDB4EB57">
		<name>7</name>
		<LookAt>
			<longitude>-2.686464976431149</longitude>
			<latitude>51.6538059522012</latitude>
			<altitude>88.88575485242529</altitude>
			<heading>78.21965938995612</heading>
			<tilt>0.09958807146383039</tilt>
			<gx:fovy>35</gx:fovy>
			<range>703.9380417584471</range>
			<altitudeMode>absolute</altitudeMode>
		</LookAt>
		<styleUrl>#__managed_style_066F02FDD038BDADD666</styleUrl>
		<Point>
			<coordinates>-2.686420009842286,51.65403328174693,89.26642171994828</coordinates>
		</Point>
	</Placemark>
	<Placemark id="01AD9301C538BDB50C17">
		<name>6</name>
		<LookAt>
			<longitude>-2.686464976431149</longitude>
			<latitude>51.6538059522012</latitude>
			<altitude>88.88575485242529</altitude>
			<heading>78.21965938995612</heading>
			<tilt>0.09958807146383039</tilt>
			<gx:fovy>35</gx:fovy>
			<range>703.9380417584471</range>
			<altitudeMode>absolute</altitudeMode>
		</LookAt>
		<styleUrl>#__managed_style_066F02FDD038BDADD666</styleUrl>
		<Point>
			<coordinates>-2.686264700264068,51.65318891227472,88.62698949501687</coordinates>
		</Point>
	</Placemark>
	<Placemark id="0D728DD2F238BDB52E97">
		<name>5</name>
		<LookAt>
			<longitude>-2.686464976431149</longitude>
			<latitude>51.6538059522012</latitude>
			<altitude>88.88575485242529</altitude>
			<heading>78.21965938995612</heading>
			<tilt>0.09958807146383039</tilt>
			<gx:fovy>35</gx:fovy>
			<range>703.9380417584471</range>
			<altitudeMode>absolute</altitudeMode>
		</LookAt>
		<styleUrl>#__managed_style_066F02FDD038BDADD666</styleUrl>
		<Point>
			<coordinates>-2.686064396145596,51.65226209721551,86.19600996400234</coordinates>
		</Point>
	</Placemark>
	<Placemark id="09F24FDCAC38BDB57724">
		<name>4</name>
		<LookAt>
			<longitude>-2.68678096916285</longitude>
			<latitude>51.6511507857122</latitude>
			<altitude>83.50546490376185</altitude>
			<heading>78.21974539455191</heading>
			<tilt>0.0995877907625672</tilt>
			<gx:fovy>35</gx:fovy>
			<range>686.0605103994749</range>
			<altitudeMode>absolute</altitudeMode>
		</LookAt>
		<styleUrl>#__managed_style_066F02FDD038BDADD666</styleUrl>
		<Point>
			<coordinates>-2.686192968867806,51.65138358053682,87.13963648846172</coordinates>
		</Point>
	</Placemark>
	<Placemark id="0EF2B34D1638BDB59568">
		<name>3</name>
		<LookAt>
			<longitude>-2.68678096916285</longitude>
			<latitude>51.6511507857122</latitude>
			<altitude>83.50546490376185</altitude>
			<heading>78.21974539455191</heading>
			<tilt>0.0995877907625672</tilt>
			<gx:fovy>35</gx:fovy>
			<range>686.0605103994749</range>
			<altitudeMode>absolute</altitudeMode>
		</LookAt>
		<styleUrl>#__managed_style_066F02FDD038BDADD666</styleUrl>
		<Point>
			<coordinates>-2.686795831821134,51.65064246404056,86.43627897326172</coordinates>
		</Point>
	</Placemark>
	<Placemark id="0EDDAD806A38BDB5BDE8">
		<name>2</name>
		<LookAt>
			<longitude>-2.687887193654219</longitude>
			<latitude>51.65022905189957</latitude>
			<altitude>78.03392249712803</altitude>
			<heading>78.21925639729426</heading>
			<tilt>0.09958689048569672</tilt>
			<gx:fovy>35</gx:fovy>
			<range>628.5944804540486</range>
			<altitudeMode>absolute</altitudeMode>
		</LookAt>
		<styleUrl>#__managed_style_066F02FDD038BDADD666</styleUrl>
		<Point>
			<coordinates>-2.687705557951661,51.64995303323244,80.74975940110173</coordinates>
		</Point>
	</Placemark>
	<Placemark id="04AD1C56D638BDB5D8DC">
		<name>1</name>
		<LookAt>
			<longitude>-2.687887193654219</longitude>
			<latitude>51.65022905189957</latitude>
			<altitude>78.03392249712803</altitude>
			<heading>78.21925639729426</heading>
			<tilt>0.09958689048569672</tilt>
			<gx:fovy>35</gx:fovy>
			<range>628.5944804540486</range>
			<altitudeMode>absolute</altitudeMode>
		</LookAt>
		<styleUrl>#__managed_style_066F02FDD038BDADD666</styleUrl>
		<Point>
			<coordinates>-2.689123121633699,51.64978811675014,77.94637052595095</coordinates>
		</Point>
	</Placemark>
</Document>
</kml>
