<?xml version="1.0" encoding="UTF-8"?>
<kml xmlns="http://www.opengis.net/kml/2.2" xmlns:gx="http://www.google.com/kml/ext/2.2" xmlns:kml="http://www.opengis.net/kml/2.2" xmlns:atom="http://www.w3.org/2005/Atom">
<Document id="1tLw1MHsGxxv0g5B4IVTN9ZNNBaKtywiA">
	<name>Chepstow Jump</name>
	<gx:CascadingStyle kml:id="__managed_style_12CA0AEE41397701AFE7">
		<Style>
			<IconStyle>
				<scale>1.2</scale>
				<Icon>
					<href>https://earth.google.com/earth/document/icon?color=1976d2&amp;id=2000&amp;scale=4</href>
				</Icon>
				<hotSpot x="64" y="128" xunits="pixels" yunits="insetPixels"/>
			</IconStyle>
			<LabelStyle>
			</LabelStyle>
			<LineStyle>
				<color>ff2dc0fb</color>
				<width>6</width>
			</LineStyle>
			<PolyStyle>
				<color>40ffffff</color>
			</PolyStyle>
			<BalloonStyle>
			</BalloonStyle>
		</Style>
	</gx:CascadingStyle>
	<gx:CascadingStyle kml:id="__managed_style_0CFB247C79397701AFE7">
		<Style>
			<IconStyle>
				<Icon>
					<href>https://earth.google.com/earth/document/icon?color=1976d2&amp;id=2000&amp;scale=4</href>
				</Icon>
				<hotSpot x="64" y="128" xunits="pixels" yunits="insetPixels"/>
			</IconStyle>
			<LabelStyle>
			</LabelStyle>
			<LineStyle>
				<color>ff2dc0fb</color>
				<width>4</width>
			</LineStyle>
			<PolyStyle>
				<color>40ffffff</color>
			</PolyStyle>
			<BalloonStyle>
			</BalloonStyle>
		</Style>
	</gx:CascadingStyle>
	<StyleMap id="__managed_style_073D49B46D397701AFE6">
		<Pair>
			<key>normal</key>
			<styleUrl>#__managed_style_0CFB247C79397701AFE7</styleUrl>
		</Pair>
		<Pair>
			<key>highlight</key>
			<styleUrl>#__managed_style_12CA0AEE41397701AFE7</styleUrl>
		</Pair>
	</StyleMap>
	<Placemark id="026F304AA039769D59BB">
		<name>37</name>
		<LookAt>
			<longitude>-2.689916398896687</longitude>
			<latitude>51.65069530990094</latitude>
			<altitude>81.14169229788207</altitude>
			<heading>78.92996077489195</heading>
			<tilt>0.4439338895984755</tilt>
			<gx:fovy>35</gx:fovy>
			<range>460.4585193640378</range>
			<altitudeMode>absolute</altitudeMode>
		</LookAt>
		<styleUrl>#__managed_style_073D49B46D397701AFE6</styleUrl>
		<Point>
			<coordinates>-2.689758925588164,51.65069422223111,81.73297368824745</coordinates>
		</Point>
	</Placemark>
	<Placemark id="033FB8AEFF39769DAB6B">
		<name>1</name>
		<LookAt>
			<longitude>-2.688740638336105</longitude>
			<latitude>51.65026710278287</latitude>
			<altitude>79.95639200274255</altitude>
			<heading>78.93088283763592</heading>
			<tilt>0.4439339719132634</tilt>
			<gx:fovy>35</gx:fovy>
			<range>461.6438681504951</range>
			<altitudeMode>absolute</altitudeMode>
		</LookAt>
		<styleUrl>#__managed_style_073D49B46D397701AFE6</styleUrl>
		<Point>
			<coordinates>-2.688877813363462,51.64988264825387,76.71795444111802</coordinates>
		</Point>
	</Placemark>
	<Placemark id="0B0342702439769EC4E0">
		<name>2</name>
		<LookAt>
			<longitude>-2.687122466950408</longitude>
			<latitude>51.65010286144042</latitude>
			<altitude>84.00641305629573</altitude>
			<heading>78.93215185576832</heading>
			<tilt>0.443933689656119</tilt>
			<gx:fovy>35</gx:fovy>
			<range>457.5937217279716</range>
			<altitudeMode>absolute</altitudeMode>
		</LookAt>
		<styleUrl>#__managed_style_073D49B46D397701AFE6</styleUrl>
		<Point>
			<coordinates>-2.687064209066701,51.65054944437412,84.35044520288322</coordinates>
		</Point>
	</Placemark>
	<Placemark id="01FD9AC8A439769EFBBE">
		<name>3</name>
		<LookAt>
			<longitude>-2.686578946938161</longitude>
			<latitude>51.65056131399568</latitude>
			<altitude>86.62767101176146</altitude>
			<heading>78.93235443793394</heading>
			<tilt>0.443954305477405</tilt>
			<gx:fovy>35</gx:fovy>
			<range>753.4869282489672</range>
			<altitudeMode>absolute</altitudeMode>
		</LookAt>
		<styleUrl>#__managed_style_073D49B46D397701AFE6</styleUrl>
		<Point>
			<coordinates>-2.686266701219409,51.65150888879815,86.10633552510069</coordinates>
		</Point>
	</Placemark>
	<Placemark id="00DBC5972139769F3158">
		<name>4</name>
		<LookAt>
			<longitude>-2.686218394607559</longitude>
			<latitude>51.65287359824413</latitude>
			<altitude>89.24587753243628</altitude>
			<heading>78.93263724962617</heading>
			<tilt>0.443954122791782</tilt>
			<gx:fovy>35</gx:fovy>
			<range>750.8687402700889</range>
			<altitudeMode>absolute</altitudeMode>
		</LookAt>
		<styleUrl>#__managed_style_073D49B46D397701AFE6</styleUrl>
		<Point>
			<coordinates>-2.686643275640735,51.65296814503353,89.51303779398137</coordinates>
		</Point>
	</Placemark>
	<Placemark id="0C795D790039769F43B8">
		<name>5</name>
		<LookAt>
			<longitude>-2.686218394607559</longitude>
			<latitude>51.65287359824413</latitude>
			<altitude>89.24587753243628</altitude>
			<heading>78.93263724962617</heading>
			<tilt>0.443954122791782</tilt>
			<gx:fovy>35</gx:fovy>
			<range>750.8687402700889</range>
			<altitudeMode>absolute</altitudeMode>
		</LookAt>
		<styleUrl>#__managed_style_073D49B46D397701AFE6</styleUrl>
		<Point>
			<coordinates>-2.685970657108914,51.65305490696786,87.77779248975514</coordinates>
		</Point>
	</Placemark>
	<Placemark id="0BA8C3330939769F7C19">
		<name>6</name>
		<LookAt>
			<longitude>-2.686239109249021</longitude>
			<latitude>51.65346926195642</latitude>
			<altitude>88.22711894665774</altitude>
			<heading>78.93262100520955</heading>
			<tilt>0.4439541936348368</tilt>
			<gx:fovy>35</gx:fovy>
			<range>751.8875348275469</range>
			<altitudeMode>absolute</altitudeMode>
		</LookAt>
		<styleUrl>#__managed_style_073D49B46D397701AFE6</styleUrl>
		<Point>
			<coordinates>-2.686845886110987,51.65417565653802,89.87252440421832</coordinates>
		</Point>
	</Placemark>
	<Placemark id="0F8D8D511039769F8F80">
		<name>7</name>
		<LookAt>
			<longitude>-2.686239109249021</longitude>
			<latitude>51.65346926195642</latitude>
			<altitude>88.22711894665774</altitude>
			<heading>78.93262100520825</heading>
			<tilt>0.443954193631553</tilt>
			<gx:fovy>35</gx:fovy>
			<range>751.8875348275469</range>
			<altitudeMode>absolute</altitudeMode>
		</LookAt>
		<styleUrl>#__managed_style_073D49B46D397701AFE6</styleUrl>
		<Point>
			<coordinates>-2.686131252593724,51.65424910528407,89.16933860752883</coordinates>
		</Point>
	</Placemark>
	<Placemark id="07308A115E39769FEE8E">
		<name>8</name>
		<LookAt>
			<longitude>-2.686239109249021</longitude>
			<latitude>51.65346926200884</latitude>
			<altitude>88.22711894665774</altitude>
			<heading>78.93262099857181</heading>
			<tilt>0.4439541936356577</tilt>
			<gx:fovy>35</gx:fovy>
			<range>751.8875348275469</range>
			<altitudeMode>absolute</altitudeMode>
		</LookAt>
		<styleUrl>#__managed_style_073D49B46D397701AFE6</styleUrl>
		<Point>
			<coordinates>-2.687036585504653,51.65534898976117,92.54756539333397</coordinates>
		</Point>
	</Placemark>
	<Placemark id="02E472D7513976A00E86">
		<name>9</name>
		<LookAt>
			<longitude>-2.686239109249021</longitude>
			<latitude>51.65346926200884</latitude>
			<altitude>88.22711894665774</altitude>
			<heading>78.93262099857181</heading>
			<tilt>0.4439541936356577</tilt>
			<gx:fovy>35</gx:fovy>
			<range>751.8875348275469</range>
			<altitudeMode>absolute</altitudeMode>
		</LookAt>
		<styleUrl>#__managed_style_073D49B46D397701AFE6</styleUrl>
		<Point>
			<coordinates>-2.686253850268316,51.65545417138343,94.43610016462904</coordinates>
		</Point>
	</Placemark>
	<Placemark id="0F1317A1443976A070DB">
		<name>10</name>
		<LookAt>
			<longitude>-2.687750472448482</longitude>
			<latitude>51.65652766168803</latitude>
			<altitude>94.7833373768235</altitude>
			<heading>78.93143568484022</heading>
			<tilt>0.4439537364505235</tilt>
			<gx:fovy>35</gx:fovy>
			<range>745.3311018758542</range>
			<altitudeMode>absolute</altitudeMode>
		</LookAt>
		<styleUrl>#__managed_style_073D49B46D397701AFE6</styleUrl>
		<Point>
			<coordinates>-2.687592571592612,51.65673141154466,96.89488195320489</coordinates>
		</Point>
	</Placemark>
	<Placemark id="01F846BD163976A0A1F9">
		<name>11</name>
		<LookAt>
			<longitude>-2.687750472448482</longitude>
			<latitude>51.65652766168803</latitude>
			<altitude>94.7833373768235</altitude>
			<heading>78.93143568484022</heading>
			<tilt>0.4439537364505235</tilt>
			<gx:fovy>35</gx:fovy>
			<range>745.3311018758542</range>
			<altitudeMode>absolute</altitudeMode>
		</LookAt>
		<styleUrl>#__managed_style_073D49B46D397701AFE6</styleUrl>
		<Point>
			<coordinates>-2.686868929405549,51.65685382204125,98.16201069498095</coordinates>
		</Point>
	</Placemark>
	<Placemark id="0F3A99AD203976A10B43">
		<name>13</name>
		<LookAt>
			<longitude>-2.688338354719496</longitude>
			<latitude>51.6579572631069</latitude>
			<altitude>98.56275210230881</altitude>
			<heading>78.93255437907138</heading>
			<tilt>0.4439403090059754</tilt>
			<gx:fovy>35</gx:fovy>
			<range>552.6177071351414</range>
			<altitudeMode>absolute</altitudeMode>
		</LookAt>
		<styleUrl>#__managed_style_073D49B46D397701AFE6</styleUrl>
		<Point>
			<coordinates>-2.687426140401203,51.65803679431441,100.5212847571492</coordinates>
		</Point>
	</Placemark>
	<Placemark id="06A6E5F9453976A11FD4">
		<name>12</name>
		<LookAt>
			<longitude>-2.688338354719496</longitude>
			<latitude>51.6579572631069</latitude>
			<altitude>98.56275210230881</altitude>
			<heading>78.93255437907138</heading>
			<tilt>0.4439403090059754</tilt>
			<gx:fovy>35</gx:fovy>
			<range>552.6177071351414</range>
			<altitudeMode>absolute</altitudeMode>
		</LookAt>
		<styleUrl>#__managed_style_073D49B46D397701AFE6</styleUrl>
		<Point>
			<coordinates>-2.688097914679538,51.65790324842814,99.42911823400682</coordinates>
		</Point>
	</Placemark>
	<Placemark id="0A241D94353976A14861">
		<name>14</name>
		<LookAt>
			<longitude>-2.688605383330069</longitude>
			<latitude>51.65866244339686</latitude>
			<altitude>96.8495616490091</altitude>
			<heading>78.93234493452232</heading>
			<tilt>0.4439404281169365</tilt>
			<gx:fovy>35</gx:fovy>
			<range>554.330902569418</range>
			<altitudeMode>absolute</altitudeMode>
		</LookAt>
		<styleUrl>#__managed_style_073D49B46D397701AFE6</styleUrl>
		<Point>
			<coordinates>-2.688674682901551,51.65911335999574,97.20424835157162</coordinates>
		</Point>
	</Placemark>
	<Placemark id="037DEF12093976A15C4E">
		<name>15</name>
		<LookAt>
			<longitude>-2.688605383330069</longitude>
			<latitude>51.65866244339686</latitude>
			<altitude>96.8495616490091</altitude>
			<heading>78.93234493452232</heading>
			<tilt>0.4439404281169365</tilt>
			<gx:fovy>35</gx:fovy>
			<range>554.330902569418</range>
			<altitudeMode>absolute</altitudeMode>
		</LookAt>
		<styleUrl>#__managed_style_073D49B46D397701AFE6</styleUrl>
		<Point>
			<coordinates>-2.687993124407878,51.65922280536446,98.82262131552112</coordinates>
		</Point>
	</Placemark>
	<Placemark id="0631F20E033976A18D33">
		<name>16</name>
		<LookAt>
			<longitude>-2.688536080022716</longitude>
			<latitude>51.65979911677312</latitude>
			<altitude>97.02191065838878</altitude>
			<heading>78.93223006582433</heading>
			<tilt>0.4439391870430751</tilt>
			<gx:fovy>35</gx:fovy>
			<range>536.5209107349801</range>
			<altitudeMode>absolute</altitudeMode>
		</LookAt>
		<styleUrl>#__managed_style_073D49B46D397701AFE6</styleUrl>
		<Point>
			<coordinates>-2.689133741566821,51.66025834423555,94.06652055583064</coordinates>
		</Point>
	</Placemark>
	<Placemark id="014259EFD73976A1A5AF">
		<name>17</name>
		<LookAt>
			<longitude>-2.688536080022716</longitude>
			<latitude>51.65979911677312</latitude>
			<altitude>97.02191065838878</altitude>
			<heading>78.93223006582433</heading>
			<tilt>0.4439391870430751</tilt>
			<gx:fovy>35</gx:fovy>
			<range>536.5209107349801</range>
			<altitudeMode>absolute</altitudeMode>
		</LookAt>
		<styleUrl>#__managed_style_073D49B46D397701AFE6</styleUrl>
		<Point>
			<coordinates>-2.688533080789525,51.66036101314782,95.06925888791812</coordinates>
		</Point>
	</Placemark>
	<Placemark id="0415FAFDD03976A21E00">
		<name>18</name>
		<LookAt>
			<longitude>-2.689686989138746</longitude>
			<latitude>51.66087069128626</latitude>
			<altitude>93.49807201501034</altitude>
			<heading>78.93167372464099</heading>
			<tilt>0.4439313135677769</tilt>
			<gx:fovy>35</gx:fovy>
			<range>423.5187568324183</range>
			<altitudeMode>absolute</altitudeMode>
		</LookAt>
		<styleUrl>#__managed_style_073D49B46D397701AFE6</styleUrl>
		<Point>
			<coordinates>-2.689576128225507,51.66152500961143,93.81033873684069</coordinates>
		</Point>
	</Placemark>
	<Placemark id="00BDD0412D3976A26B14">
		<name>19</name>
		<LookAt>
			<longitude>-2.691060806018913</longitude>
			<latitude>51.660456489424</latitude>
			<altitude>94.25888258195631</altitude>
			<heading>78.93059616751894</heading>
			<tilt>0.4439312604185862</tilt>
			<gx:fovy>35</gx:fovy>
			<range>422.7579753110331</range>
			<altitudeMode>absolute</altitudeMode>
		</LookAt>
		<styleUrl>#__managed_style_073D49B46D397701AFE6</styleUrl>
		<Point>
			<coordinates>-2.691263310406852,51.66174344512122,97.82905941432195</coordinates>
		</Point>
	</Placemark>
	<Placemark id="079FFAEABC3976A29853">
		<name>20</name>
		<LookAt>
			<longitude>-2.691060806018913</longitude>
			<latitude>51.660456489424</latitude>
			<altitude>94.25888258195631</altitude>
			<heading>78.93059616751894</heading>
			<tilt>0.4439312604185862</tilt>
			<gx:fovy>35</gx:fovy>
			<range>422.7579753110331</range>
			<altitudeMode>absolute</altitudeMode>
		</LookAt>
		<styleUrl>#__managed_style_073D49B46D397701AFE6</styleUrl>
		<Point>
			<coordinates>-2.69257758122173,51.66091292426484,96.64024982919342</coordinates>
		</Point>
	</Placemark>
	<Placemark id="03DCBB4DB73976A2E420">
		<name>21</name>
		<LookAt>
			<longitude>-2.691842093993709</longitude>
			<latitude>51.65915044186046</latitude>
			<altitude>92.22551333633444</altitude>
			<heading>78.93050402637692</heading>
			<tilt>0.443935052534196</tilt>
			<gx:fovy>35</gx:fovy>
			<range>477.1946003097402</range>
			<altitudeMode>absolute</altitudeMode>
		</LookAt>
		<styleUrl>#__managed_style_073D49B46D397701AFE6</styleUrl>
		<Point>
			<coordinates>-2.692259886561511,51.65983380964273,94.22543444283181</coordinates>
		</Point>
	</Placemark>
	<Placemark id="0D82EF06D83976A2F657">
		<name>22</name>
		<LookAt>
			<longitude>-2.691842093993709</longitude>
			<latitude>51.65915044186046</latitude>
			<altitude>92.22551333633444</altitude>
			<heading>78.93050402637692</heading>
			<tilt>0.443935052534196</tilt>
			<gx:fovy>35</gx:fovy>
			<range>477.1946003097402</range>
			<altitudeMode>absolute</altitudeMode>
		</LookAt>
		<styleUrl>#__managed_style_073D49B46D397701AFE6</styleUrl>
		<Point>
			<coordinates>-2.692973770697017,51.65973957964874,94.892463164715</coordinates>
		</Point>
	</Placemark>
	<Placemark id="0A1C05B53E3976A336DC">
		<name>23</name>
		<LookAt>
			<longitude>-2.691702974365102</longitude>
			<latitude>51.65842226196476</latitude>
			<altitude>93.26107766922983</altitude>
			<heading>78.93061314144904</heading>
			<tilt>0.443934980010794</tilt>
			<gx:fovy>35</gx:fovy>
			<range>476.1590251703456</range>
			<altitudeMode>absolute</altitudeMode>
		</LookAt>
		<styleUrl>#__managed_style_073D49B46D397701AFE6</styleUrl>
		<Point>
			<coordinates>-2.691976470762651,51.65870886507779,93.48481179268657</coordinates>
		</Point>
	</Placemark>
	<Placemark id="0BC086AB273976A35FDC">
		<name>24</name>
		<LookAt>
			<longitude>-2.692042729937638</longitude>
			<latitude>51.65852365430234</latitude>
			<altitude>94.58096148049455</altitude>
			<heading>78.9305972266353</heading>
			<tilt>0.4439221584398302</tilt>
			<gx:fovy>35</gx:fovy>
			<range>292.1385281351104</range>
			<altitudeMode>absolute</altitudeMode>
		</LookAt>
		<styleUrl>#__managed_style_073D49B46D397701AFE6</styleUrl>
		<Point>
			<coordinates>-2.69265249651311,51.65864512909282,95.55668001261101</coordinates>
		</Point>
	</Placemark>
	<Placemark id="02BC3FF8783976A3E548">
		<name>25</name>
		<LookAt>
			<longitude>-2.691893479603247</longitude>
			<latitude>51.65799431961543</latitude>
			<altitude>95.03792563966137</altitude>
			<heading>78.93071429548461</heading>
			<tilt>0.4439221263002334</tilt>
			<gx:fovy>35</gx:fovy>
			<range>291.6815585861332</range>
			<altitudeMode>absolute</altitudeMode>
		</LookAt>
		<styleUrl>#__managed_style_073D49B46D397701AFE6</styleUrl>
		<Point>
			<coordinates>-2.691622297288213,51.65754780090824,94.33459802305528</coordinates>
		</Point>
	</Placemark>
	<Placemark id="0FAC0099C03976A3F6FC">
		<name>26</name>
		<LookAt>
			<longitude>-2.691893479603247</longitude>
			<latitude>51.65799431961543</latitude>
			<altitude>95.03792563966137</altitude>
			<heading>78.93071429548461</heading>
			<tilt>0.4439221263002334</tilt>
			<gx:fovy>35</gx:fovy>
			<range>291.6815585861332</range>
			<altitudeMode>absolute</altitudeMode>
		</LookAt>
		<styleUrl>#__managed_style_073D49B46D397701AFE6</styleUrl>
		<Point>
			<coordinates>-2.692292777313193,51.65746462047334,95.09903703865416</coordinates>
		</Point>
	</Placemark>
	<Placemark id="03018FBF503976A43AC1">
		<name>27</name>
		<LookAt>
			<longitude>-2.691336071007686</longitude>
			<latitude>51.65621712799678</latitude>
			<altitude>95.77945614041629</altitude>
			<heading>78.93115145472363</heading>
			<tilt>0.4439220742689914</tilt>
			<gx:fovy>35</gx:fovy>
			<range>290.9400144722167</range>
			<altitudeMode>absolute</altitudeMode>
		</LookAt>
		<styleUrl>#__managed_style_073D49B46D397701AFE6</styleUrl>
		<Point>
			<coordinates>-2.691225010139024,51.65623976647696,95.11180592529617</coordinates>
		</Point>
	</Placemark>
	<Placemark id="0E6E48AE4F3976A44DF8">
		<name>28</name>
		<LookAt>
			<longitude>-2.691336071007686</longitude>
			<latitude>51.65621712799678</latitude>
			<altitude>95.77945614041629</altitude>
			<heading>78.93115145472363</heading>
			<tilt>0.4439220742689914</tilt>
			<gx:fovy>35</gx:fovy>
			<range>290.9400144722167</range>
			<altitudeMode>absolute</altitudeMode>
		</LookAt>
		<styleUrl>#__managed_style_073D49B46D397701AFE6</styleUrl>
		<Point>
			<coordinates>-2.691901626299744,51.65614483911257,95.86447650208829</coordinates>
		</Point>
	</Placemark>
	<Placemark id="0E79E15D043976A47F33">
		<name>29</name>
		<LookAt>
			<longitude>-2.69094129055179</longitude>
			<latitude>51.65521082967948</latitude>
			<altitude>92.3503563347664</altitude>
			<heading>78.93146108110817</heading>
			<tilt>0.4439223128742302</tilt>
			<gx:fovy>35</gx:fovy>
			<range>294.369233007892</range>
			<altitudeMode>absolute</altitudeMode>
		</LookAt>
		<styleUrl>#__managed_style_073D49B46D397701AFE6</styleUrl>
		<Point>
			<coordinates>-2.690895922866562,51.6551238059033,92.09446669867131</coordinates>
		</Point>
	</Placemark>
	<Placemark id="09680614F93976A49B2B">
		<name>30</name>
		<LookAt>
			<longitude>-2.69094129055179</longitude>
			<latitude>51.65521082967948</latitude>
			<altitude>92.3503563347664</altitude>
			<heading>78.93146108110817</heading>
			<tilt>0.4439223128742302</tilt>
			<gx:fovy>35</gx:fovy>
			<range>294.369233007892</range>
			<altitudeMode>absolute</altitudeMode>
		</LookAt>
		<styleUrl>#__managed_style_073D49B46D397701AFE6</styleUrl>
		<Point>
			<coordinates>-2.691567037892564,51.6550405977305,92.0173046282176</coordinates>
		</Point>
	</Placemark>
	<Placemark id="05384FFB623976A4D82B">
		<name>31</name>
		<LookAt>
			<longitude>-2.690446358363747</longitude>
			<latitude>51.65415460173788</latitude>
			<altitude>90.16236101417081</altitude>
			<heading>78.93184924259046</heading>
			<tilt>0.4439224651148162</tilt>
			<gx:fovy>35</gx:fovy>
			<range>296.5572910978517</range>
			<altitudeMode>absolute</altitudeMode>
		</LookAt>
		<styleUrl>#__managed_style_073D49B46D397701AFE6</styleUrl>
		<Point>
			<coordinates>-2.690555072194685,51.65400318920786,89.25973326232054</coordinates>
		</Point>
	</Placemark>
	<Placemark id="00B7F6267C3976A5023B">
		<name>32</name>
		<LookAt>
			<longitude>-2.690446358363747</longitude>
			<latitude>51.65415460173788</latitude>
			<altitude>90.16236101417081</altitude>
			<heading>78.93184924259046</heading>
			<tilt>0.4439224651148162</tilt>
			<gx:fovy>35</gx:fovy>
			<range>296.5572910978517</range>
			<altitudeMode>absolute</altitudeMode>
		</LookAt>
		<styleUrl>#__managed_style_073D49B46D397701AFE6</styleUrl>
		<Point>
			<coordinates>-2.691234878914321,51.65392635726414,89.04677579738603</coordinates>
		</Point>
	</Placemark>
	<Placemark id="02B43F1A323976A59DEB">
		<name>34</name>
		<LookAt>
			<longitude>-2.690924061621838</longitude>
			<latitude>51.65285382388102</latitude>
			<altitude>88.75055525550793</altitude>
			<heading>78.93147460536431</heading>
			<tilt>0.4439225624629182</tilt>
			<gx:fovy>35</gx:fovy>
			<range>297.9691545628521</range>
			<altitudeMode>absolute</altitudeMode>
		</LookAt>
		<styleUrl>#__managed_style_073D49B46D397701AFE6</styleUrl>
		<Point>
			<coordinates>-2.690919754280404,51.65288804463705,88.66774780569121</coordinates>
		</Point>
	</Placemark>
	<Placemark id="0076ED06053976A5BA3B">
		<name>33</name>
		<LookAt>
			<longitude>-2.690924061621838</longitude>
			<latitude>51.65285382388102</latitude>
			<altitude>88.75055525550793</altitude>
			<heading>78.93147460536431</heading>
			<tilt>0.4439225624629182</tilt>
			<gx:fovy>35</gx:fovy>
			<range>297.9691545628521</range>
			<altitudeMode>absolute</altitudeMode>
		</LookAt>
		<styleUrl>#__managed_style_073D49B46D397701AFE6</styleUrl>
		<Point>
			<coordinates>-2.690260102970409,51.65297190628731,88.56159236070047</coordinates>
		</Point>
	</Placemark>
	<Placemark id="06AF6B82B13976A5F9A3">
		<name>35</name>
		<LookAt>
			<longitude>-2.689971567580318</longitude>
			<latitude>51.65196946188455</latitude>
			<altitude>89.24205527836746</altitude>
			<heading>78.93222159555094</heading>
			<tilt>0.4439225279062738</tilt>
			<gx:fovy>35</gx:fovy>
			<range>297.4776272132295</range>
			<altitudeMode>absolute</altitudeMode>
		</LookAt>
		<styleUrl>#__managed_style_073D49B46D397701AFE6</styleUrl>
		<Point>
			<coordinates>-2.689929259360511,51.65186416347213,88.72127223878459</coordinates>
		</Point>
	</Placemark>
	<Placemark id="022C5078563976A60BAB">
		<name>36</name>
		<LookAt>
			<longitude>-2.689971567580318</longitude>
			<latitude>51.65196946188455</latitude>
			<altitude>89.24205527836746</altitude>
			<heading>78.93222159555094</heading>
			<tilt>0.4439225279062738</tilt>
			<gx:fovy>35</gx:fovy>
			<range>297.4776272132295</range>
			<altitudeMode>absolute</altitudeMode>
		</LookAt>
		<styleUrl>#__managed_style_073D49B46D397701AFE6</styleUrl>
		<Point>
			<coordinates>-2.690592084634967,51.65178365150282,88.17742461610251</coordinates>
		</Point>
	</Placemark>
</Document>
</kml>
