<?xml version="1.0" encoding="UTF-8"?>
<kml xmlns="http://www.opengis.net/kml/2.2" xmlns:gx="http://www.google.com/kml/ext/2.2" xmlns:kml="http://www.opengis.net/kml/2.2" xmlns:atom="http://www.w3.org/2005/Atom">
<Document id="document">
	<name>Chester Racecourse</name>
	<gx:CascadingStyle kml:id="__managed_style_20EC7EC3073EC7150FE4">
		<Style>
			<IconStyle>
				<scale>1.2</scale>
				<Icon>
					<href>https://earth.google.com/earth/document/icon?color=d32f2f&amp;id=2000&amp;scale=4</href>
				</Icon>
				<hotSpot x="64" y="128" xunits="pixels" yunits="insetPixels"/>
			</IconStyle>
			<LabelStyle>
			</LabelStyle>
			<LineStyle>
				<color>ff2dc0fb</color>
				<width>6</width>
			</LineStyle>
			<PolyStyle>
				<color>40ffffff</color>
			</PolyStyle>
			<BalloonStyle>
				<displayMode>hide</displayMode>
			</BalloonStyle>
		</Style>
	</gx:CascadingStyle>
	<gx:CascadingStyle kml:id="__managed_style_13096F89523EC7150FE4">
		<Style>
			<IconStyle>
				<Icon>
					<href>https://earth.google.com/earth/document/icon?color=d32f2f&amp;id=2000&amp;scale=4</href>
				</Icon>
				<hotSpot x="64" y="128" xunits="pixels" yunits="insetPixels"/>
			</IconStyle>
			<LabelStyle>
			</LabelStyle>
			<LineStyle>
				<color>ff2dc0fb</color>
				<width>4</width>
			</LineStyle>
			<PolyStyle>
				<color>40ffffff</color>
			</PolyStyle>
			<BalloonStyle>
				<displayMode>hide</displayMode>
			</BalloonStyle>
		</Style>
	</gx:CascadingStyle>
	<StyleMap id="__managed_style_0C1B5FEF1B3EC7150FE4">
		<Pair>
			<key>normal</key>
			<styleUrl>#__managed_style_13096F89523EC7150FE4</styleUrl>
		</Pair>
		<Pair>
			<key>highlight</key>
			<styleUrl>#__managed_style_20EC7EC3073EC7150FE4</styleUrl>
		</Pair>
	</StyleMap>
	<gx:CascadingStyle kml:id="__managed_style_0B67D916EC3EC70A0D61">
		<Style>
			<IconStyle>
				<scale>1.2</scale>
				<Icon>
					<href>https://earth.google.com/earth/document/icon?color=fbc02d&amp;id=2000&amp;scale=4</href>
				</Icon>
				<hotSpot x="64" y="128" xunits="pixels" yunits="insetPixels"/>
			</IconStyle>
			<LabelStyle>
			</LabelStyle>
			<LineStyle>
				<color>ff2dc0fb</color>
				<width>6</width>
			</LineStyle>
			<PolyStyle>
				<color>40ffffff</color>
			</PolyStyle>
			<BalloonStyle>
				<gx:displayMode>card</gx:displayMode>
			</BalloonStyle>
		</Style>
	</gx:CascadingStyle>
	<gx:CascadingStyle kml:id="__managed_style_163F3A74473EC70A0D60">
		<Style>
			<IconStyle>
				<Icon>
					<href>https://earth.google.com/earth/document/icon?color=fbc02d&amp;id=2000&amp;scale=4</href>
				</Icon>
				<hotSpot x="64" y="128" xunits="pixels" yunits="insetPixels"/>
			</IconStyle>
			<LabelStyle>
			</LabelStyle>
			<LineStyle>
				<color>ff2dc0fb</color>
				<width>4</width>
			</LineStyle>
			<PolyStyle>
				<color>40ffffff</color>
			</PolyStyle>
			<BalloonStyle>
				<gx:displayMode>card</gx:displayMode>
			</BalloonStyle>
		</Style>
	</gx:CascadingStyle>
	<StyleMap id="__managed_style_09ECA53BA43EC70A0D60">
		<Pair>
			<key>normal</key>
			<styleUrl>#__managed_style_163F3A74473EC70A0D60</styleUrl>
		</Pair>
		<Pair>
			<key>highlight</key>
			<styleUrl>#__managed_style_0B67D916EC3EC70A0D61</styleUrl>
		</Pair>
	</StyleMap>
	<Placemark id="046E4D5D383EC70A0D53">
		<gx:mid>/m/09rk__</gx:mid>
		<gx:fid>0x487add344084f709:0x4e21d1f1404486d6</gx:fid>
		<LookAt>
			<longitude>-2.899533799999999</longitude>
			<latitude>53.18861649999999</latitude>
			<altitude>0</altitude>
			<heading>0</heading>
			<tilt>0</tilt>
			<gx:fovy>35</gx:fovy>
			<range>602.6424106868845</range>
			<altitudeMode>relativeToGround</altitudeMode>
		</LookAt>
		<styleUrl>#__managed_style_09ECA53BA43EC70A0D60</styleUrl>
		<Point>
			<altitudeMode>relativeToGround</altitudeMode>
			<coordinates>-2.8993845,53.1887053,0</coordinates>
		</Point>
	</Placemark>
	<Placemark id="0F773C57B63EC71504AB">
		<name>1</name>
		<LookAt>
			<longitude>-2.898460852458016</longitude>
			<latitude>53.18859129934692</latitude>
			<altitude>5.308831678307644</altitude>
			<heading>0</heading>
			<tilt>0</tilt>
			<gx:fovy>35</gx:fovy>
			<range>250.5673945218223</range>
			<altitudeMode>absolute</altitudeMode>
		</LookAt>
		<styleUrl>#__managed_style_0C1B5FEF1B3EC7150FE4</styleUrl>
		<Point>
			<coordinates>-2.898457184372051,53.1887594034861,4.791780017195146</coordinates>
		</Point>
	</Placemark>
	<Placemark id="03473120A03EC715AB9C">
		<name>2</name>
		<LookAt>
			<longitude>-2.899080064016034</longitude>
			<latitude>53.18904040407622</latitude>
			<altitude>4.64286360462231</altitude>
			<heading>0</heading>
			<tilt>0</tilt>
			<gx:fovy>35</gx:fovy>
			<range>176.3331363003817</range>
			<altitudeMode>absolute</altitudeMode>
		</LookAt>
		<styleUrl>#__managed_style_0C1B5FEF1B3EC7150FE4</styleUrl>
		<Point>
			<coordinates>-2.899041492423444,53.18896161647515,5.665590414964681</coordinates>
		</Point>
	</Placemark>
	<Placemark id="04EDFAD5F93EC715778F">
		<name>3</name>
		<LookAt>
			<longitude>-2.899189990612819</longitude>
			<latitude>53.18908073031221</latitude>
			<altitude>5.663845920072439</altitude>
			<heading>0</heading>
			<tilt>0</tilt>
			<gx:fovy>35</gx:fovy>
			<range>250.2123832324287</range>
			<altitudeMode>absolute</altitudeMode>
		</LookAt>
		<styleUrl>#__managed_style_0C1B5FEF1B3EC7150FE4</styleUrl>
		<Point>
			<coordinates>-2.899715454274961,53.18911085790917,4.054975271074919</coordinates>
		</Point>
	</Placemark>
	<Placemark id="0E9993DDBE3EC7162313">
		<name>4</name>
		<LookAt>
			<longitude>-2.899777240960859</longitude>
			<latitude>53.18899700274891</latitude>
			<altitude>3.974312640427462</altitude>
			<heading>0</heading>
			<tilt>0</tilt>
			<gx:fovy>35</gx:fovy>
			<range>177.001705742714</range>
			<altitudeMode>absolute</altitudeMode>
		</LookAt>
		<styleUrl>#__managed_style_0C1B5FEF1B3EC7150FE4</styleUrl>
		<Point>
			<coordinates>-2.900425889345943,53.18908809843278,4.050713703604549</coordinates>
		</Point>
	</Placemark>
	<Placemark id="074A88BF7F3ECA88D8C8">
		<name>5</name>
		<LookAt>
			<longitude>-2.9005102010394</longitude>
			<latitude>53.18907125195522</latitude>
			<altitude>4.074861211369949</altitude>
			<heading>0</heading>
			<tilt>0</tilt>
			<gx:fovy>35</gx:fovy>
			<range>176.9011497278916</range>
			<altitudeMode>absolute</altitudeMode>
		</LookAt>
		<styleUrl>#__managed_style_0C1B5FEF1B3EC7150FE4</styleUrl>
		<Point>
			<coordinates>-2.900642545052489,53.18926050750424,4.23490413916044</coordinates>
		</Point>
	</Placemark>
	<Placemark id="01A582DB093ECA890944">
		<name>6</name>
		<LookAt>
			<longitude>-2.900930827060384</longitude>
			<latitude>53.18893570604452</latitude>
			<altitude>4.050691748261405</altitude>
			<heading>0</heading>
			<tilt>0</tilt>
			<gx:fovy>35</gx:fovy>
			<range>176.9253239640238</range>
			<altitudeMode>absolute</altitudeMode>
		</LookAt>
		<styleUrl>#__managed_style_0C1B5FEF1B3EC7150FE4</styleUrl>
		<Point>
			<coordinates>-2.901098590203292,53.18888280055904,4.098982217112253</coordinates>
		</Point>
	</Placemark>
	<Placemark id="082E7AAD4B3ECA895FEC">
		<name>7</name>
		<LookAt>
			<longitude>-2.901068750725942</longitude>
			<latitude>53.18857759634265</latitude>
			<altitude>3.989206261060785</altitude>
			<heading>0</heading>
			<tilt>0</tilt>
			<gx:fovy>35</gx:fovy>
			<range>176.9868141351253</range>
			<altitudeMode>absolute</altitudeMode>
		</LookAt>
		<styleUrl>#__managed_style_0C1B5FEF1B3EC7150FE4</styleUrl>
		<Point>
			<coordinates>-2.901593097121236,53.18850777737581,4.142775661583999</coordinates>
		</Point>
	</Placemark>
	<Placemark id="0226AB06613ECA8EB957">
		<name>8</name>
		<LookAt>
			<longitude>-2.902195304084382</longitude>
			<latitude>53.18817640580486</latitude>
			<altitude>14.57769736933697</altitude>
			<heading>0</heading>
			<tilt>0</tilt>
			<gx:fovy>35</gx:fovy>
			<range>94.32658882563373</range>
			<altitudeMode>absolute</altitudeMode>
		</LookAt>
		<styleUrl>#__managed_style_0C1B5FEF1B3EC7150FE4</styleUrl>
		<Point>
			<coordinates>-2.902047771357517,53.18815446245127,4.100946752074979</coordinates>
		</Point>
	</Placemark>
	<Placemark id="0785E938933ECA8F02E0">
		<name>9</name>
		<LookAt>
			<longitude>-2.90267715643733</longitude>
			<latitude>53.1879638231673</latitude>
			<altitude>11.85544459350612</altitude>
			<heading>0</heading>
			<tilt>0</tilt>
			<gx:fovy>35</gx:fovy>
			<range>157.6495343908755</range>
			<altitudeMode>absolute</altitudeMode>
		</LookAt>
		<styleUrl>#__managed_style_0C1B5FEF1B3EC7150FE4</styleUrl>
		<Point>
			<coordinates>-2.902506921930769,53.18780834198547,3.958598649626761</coordinates>
		</Point>
	</Placemark>
	<Placemark id="04BD676BC43ECA8F3E49">
		<name>10</name>
		<LookAt>
			<longitude>-2.902807653323517</longitude>
			<latitude>53.18750769639995</latitude>
			<altitude>4.101347147084427</altitude>
			<heading>0</heading>
			<tilt>0</tilt>
			<gx:fovy>35</gx:fovy>
			<range>165.403611845486</range>
			<altitudeMode>absolute</altitudeMode>
		</LookAt>
		<styleUrl>#__managed_style_0C1B5FEF1B3EC7150FE4</styleUrl>
		<Point>
			<coordinates>-2.903019322660425,53.18742049915542,3.866468323104864</coordinates>
		</Point>
	</Placemark>
	<Placemark id="03378057FB3ECA8F76A8">
		<name>11</name>
		<LookAt>
			<longitude>-2.903085578540777</longitude>
			<latitude>53.18712705040126</latitude>
			<altitude>3.952433652931235</altitude>
			<heading>0</heading>
			<tilt>0</tilt>
			<gx:fovy>35</gx:fovy>
			<range>165.5525279213726</range>
			<altitudeMode>absolute</altitudeMode>
		</LookAt>
		<styleUrl>#__managed_style_0C1B5FEF1B3EC7150FE4</styleUrl>
		<Point>
			<coordinates>-2.903450641750259,53.1869983746588,4.044867083433628</coordinates>
		</Point>
	</Placemark>
	<Placemark id="0598EAFDDD3ECA8FB046">
		<name>12</name>
		<LookAt>
			<longitude>-2.903270395212024</longitude>
			<latitude>53.18662171736364</latitude>
			<altitude>4.894133078268452</altitude>
			<heading>0</heading>
			<tilt>0</tilt>
			<gx:fovy>35</gx:fovy>
			<range>164.6108452369845</range>
			<altitudeMode>absolute</altitudeMode>
		</LookAt>
		<styleUrl>#__managed_style_0C1B5FEF1B3EC7150FE4</styleUrl>
		<Point>
			<coordinates>-2.903639631028906,53.18654836808643,4.142787025454584</coordinates>
		</Point>
	</Placemark>
	<Placemark id="0D6ED9640C3ECA967233">
		<name>13</name>
		<LookAt>
			<longitude>-2.902941994513649</longitude>
			<latitude>53.18641146085143</latitude>
			<altitude>3.870655013235504</altitude>
			<heading>0</heading>
			<tilt>0</tilt>
			<gx:fovy>35</gx:fovy>
			<range>230.7427362182352</range>
			<altitudeMode>absolute</altitudeMode>
		</LookAt>
		<styleUrl>#__managed_style_0C1B5FEF1B3EC7150FE4</styleUrl>
		<Point>
			<coordinates>-2.903630213342855,53.18615629961957,4.054900381003355</coordinates>
		</Point>
	</Placemark>
	<Placemark id="064461E6133ECA96E6FE">
		<name>14</name>
		<LookAt>
			<longitude>-2.903164519854733</longitude>
			<latitude>53.18573825580373</latitude>
			<altitude>4.159225224283132</altitude>
			<heading>0</heading>
			<tilt>0</tilt>
			<gx:fovy>35</gx:fovy>
			<range>243.3370960463435</range>
			<altitudeMode>absolute</altitudeMode>
		</LookAt>
		<styleUrl>#__managed_style_0C1B5FEF1B3EC7150FE4</styleUrl>
		<Point>
			<coordinates>-2.903472116495141,53.1856967068648,4.054872484136938</coordinates>
		</Point>
	</Placemark>
	<Placemark id="016C6A24AD3ECA96C76C">
		<name>15</name>
		<LookAt>
			<longitude>-2.90305126284832</longitude>
			<latitude>53.18540715545037</latitude>
			<altitude>5.160181076754222</altitude>
			<heading>0</heading>
			<tilt>0</tilt>
			<gx:fovy>35</gx:fovy>
			<range>238.6471783486923</range>
			<altitudeMode>absolute</altitudeMode>
		</LookAt>
		<styleUrl>#__managed_style_0C1B5FEF1B3EC7150FE4</styleUrl>
		<Point>
			<coordinates>-2.903184035191799,53.18523455429106,4.054882440432365</coordinates>
		</Point>
	</Placemark>
	<Placemark id="0AC7DF51523ECA977AD0">
		<name>16</name>
		<LookAt>
			<longitude>-2.902037310959139</longitude>
			<latitude>53.18509192012083</latitude>
			<altitude>3.71055750123656</altitude>
			<heading>0</heading>
			<tilt>0</tilt>
			<gx:fovy>35</gx:fovy>
			<range>436.3201158004085</range>
			<altitudeMode>absolute</altitudeMode>
		</LookAt>
		<styleUrl>#__managed_style_0C1B5FEF1B3EC7150FE4</styleUrl>
		<Point>
			<coordinates>-2.902770226652454,53.1848476564861,4.054865832460168</coordinates>
		</Point>
	</Placemark>
	<Placemark id="03F16B83FA3ECA97C387">
		<name>17</name>
		<LookAt>
			<longitude>-2.902037310959139</longitude>
			<latitude>53.18509191999361</latitude>
			<altitude>3.71055750123656</altitude>
			<heading>0</heading>
			<tilt>0</tilt>
			<gx:fovy>35</gx:fovy>
			<range>436.3201158004086</range>
			<altitudeMode>absolute</altitudeMode>
		</LookAt>
		<styleUrl>#__managed_style_0C1B5FEF1B3EC7150FE4</styleUrl>
		<Point>
			<coordinates>-2.902226209375588,53.18447935227187,4.054834724341887</coordinates>
		</Point>
	</Placemark>
	<Placemark id="0557CF283F3ECA9857F4">
		<name>18</name>
		<LookAt>
			<longitude>-2.901113636798731</longitude>
			<latitude>53.18449789805432</latitude>
			<altitude>3.870698372208916</altitude>
			<heading>0</heading>
			<tilt>0</tilt>
			<gx:fovy>35</gx:fovy>
			<range>441.9758672409807</range>
			<altitudeMode>absolute</altitudeMode>
		</LookAt>
		<styleUrl>#__managed_style_0C1B5FEF1B3EC7150FE4</styleUrl>
		<Point>
			<coordinates>-2.901548282487472,53.18422142578589,4.054723400000821</coordinates>
		</Point>
	</Placemark>
	<Placemark id="0B1F9F23333ECA9898A4">
		<name>19</name>
		<LookAt>
			<longitude>-2.901113636840997</longitude>
			<latitude>53.18449789802252</latitude>
			<altitude>3.870698372208916</altitude>
			<heading>0</heading>
			<tilt>0</tilt>
			<gx:fovy>35</gx:fovy>
			<range>441.975820885782</range>
			<altitudeMode>absolute</altitudeMode>
		</LookAt>
		<styleUrl>#__managed_style_0C1B5FEF1B3EC7150FE4</styleUrl>
		<Point>
			<coordinates>-2.900750212678624,53.18405941313325,4.085667407750748</coordinates>
		</Point>
	</Placemark>
	<Placemark id="0CDEC8E6FA3ECA99372B">
		<name>20</name>
		<LookAt>
			<longitude>-2.899822863292032</longitude>
			<latitude>53.1845211292514</latitude>
			<altitude>3.841713157363866</altitude>
			<heading>0</heading>
			<tilt>0</tilt>
			<gx:fovy>35</gx:fovy>
			<range>442.0047928849817</range>
			<altitudeMode>absolute</altitudeMode>
		</LookAt>
		<styleUrl>#__managed_style_0C1B5FEF1B3EC7150FE4</styleUrl>
		<Point>
			<coordinates>-2.900038878775263,53.18401390964218,4.239060841574331</coordinates>
		</Point>
	</Placemark>
	<Placemark id="00110AA8193ECA992389">
		<name>21</name>
		<LookAt>
			<longitude>-2.899822863292032</longitude>
			<latitude>53.1845211292514</latitude>
			<altitude>3.841713157363866</altitude>
			<heading>0</heading>
			<tilt>0</tilt>
			<gx:fovy>35</gx:fovy>
			<range>442.0047928849817</range>
			<altitudeMode>absolute</altitudeMode>
		</LookAt>
		<styleUrl>#__managed_style_0C1B5FEF1B3EC7150FE4</styleUrl>
		<Point>
			<coordinates>-2.89932916869328,53.18399811631978,4.28826053607311</coordinates>
		</Point>
	</Placemark>
	<Placemark id="0E6075384C3ECB003496">
		<name>22</name>
		<LookAt>
			<longitude>-2.89784416544587</longitude>
			<latitude>53.18465829018032</latitude>
			<altitude>3.911176387278885</altitude>
			<heading>0</heading>
			<tilt>0</tilt>
			<gx:fovy>35</gx:fovy>
			<range>710.9526031390852</range>
			<altitudeMode>absolute</altitudeMode>
		</LookAt>
		<styleUrl>#__managed_style_0C1B5FEF1B3EC7150FE4</styleUrl>
		<Point>
			<coordinates>-2.898565150031684,53.18401823681469,4.427007728828802</coordinates>
		</Point>
	</Placemark>
	<Placemark id="0808110BEC3ECB0018D8">
		<name>23</name>
		<LookAt>
			<longitude>-2.89784416544587</longitude>
			<latitude>53.18465829018032</latitude>
			<altitude>3.911176387278885</altitude>
			<heading>0</heading>
			<tilt>0</tilt>
			<gx:fovy>35</gx:fovy>
			<range>710.9526031390852</range>
			<altitudeMode>absolute</altitudeMode>
		</LookAt>
		<styleUrl>#__managed_style_0C1B5FEF1B3EC7150FE4</styleUrl>
		<Point>
			<coordinates>-2.897814465550207,53.18407410134367,4.413159708778316</coordinates>
		</Point>
	</Placemark>
	<Placemark id="012391734F3ECB00C189">
		<name>24</name>
		<LookAt>
			<longitude>-2.89709161211242</longitude>
			<latitude>53.18447740910137</latitude>
			<altitude>3.954561401538281</altitude>
			<heading>0</heading>
			<tilt>0</tilt>
			<gx:fovy>35</gx:fovy>
			<range>273.8879301368434</range>
			<altitudeMode>absolute</altitudeMode>
		</LookAt>
		<styleUrl>#__managed_style_0C1B5FEF1B3EC7150FE4</styleUrl>
		<Point>
			<coordinates>-2.897069776121854,53.18419280808775,4.423302381303616</coordinates>
		</Point>
	</Placemark>
	<Placemark id="0EA3F0F46A3ECB010028">
		<name>25</name>
		<LookAt>
			<longitude>-2.896488532770914</longitude>
			<latitude>53.18462858734024</latitude>
			<altitude>4.099002347558962</altitude>
			<heading>0</heading>
			<tilt>0</tilt>
			<gx:fovy>35</gx:fovy>
			<range>273.7435105152326</range>
			<altitudeMode>absolute</altitudeMode>
		</LookAt>
		<styleUrl>#__managed_style_0C1B5FEF1B3EC7150FE4</styleUrl>
		<Point>
			<coordinates>-2.896398519463387,53.18442917396517,4.607493282278829</coordinates>
		</Point>
	</Placemark>
	<Placemark id="0155A3C0443ECB014494">
		<name>26</name>
		<LookAt>
			<longitude>-2.895992469775304</longitude>
			<latitude>53.18472762493232</latitude>
			<altitude>4.792473535840638</altitude>
			<heading>0</heading>
			<tilt>0</tilt>
			<gx:fovy>35</gx:fovy>
			<range>139.4799536911705</range>
			<altitudeMode>absolute</altitudeMode>
		</LookAt>
		<styleUrl>#__managed_style_0C1B5FEF1B3EC7150FE4</styleUrl>
		<Point>
			<coordinates>-2.895961827328914,53.18476518371458,4.750967091190093</coordinates>
		</Point>
	</Placemark>
	<Placemark id="0AF6B454E23ECB0195D4">
		<name>27</name>
		<LookAt>
			<longitude>-2.895735132050844</longitude>
			<latitude>53.18520692676432</latitude>
			<altitude>4.624194699076279</altitude>
			<heading>0</heading>
			<tilt>0</tilt>
			<gx:fovy>35</gx:fovy>
			<range>218.1331487073476</range>
			<altitudeMode>absolute</altitudeMode>
		</LookAt>
		<styleUrl>#__managed_style_0C1B5FEF1B3EC7150FE4</styleUrl>
		<Point>
			<coordinates>-2.895554807602541,53.18513662505021,5.130219768660744</coordinates>
		</Point>
	</Placemark>
	<Placemark id="0FDE5CC9473ECB03B75E">
		<name>28</name>
		<LookAt>
			<longitude>-2.895627149039162</longitude>
			<latitude>53.18542692818338</latitude>
			<altitude>5.121200276036451</altitude>
			<heading>0</heading>
			<tilt>0</tilt>
			<gx:fovy>35</gx:fovy>
			<range>217.636151444276</range>
			<altitudeMode>absolute</altitudeMode>
		</LookAt>
		<styleUrl>#__managed_style_0C1B5FEF1B3EC7150FE4</styleUrl>
		<Point>
			<coordinates>-2.895391596651796,53.18557455158695,6.289669085946182</coordinates>
		</Point>
	</Placemark>
	<Placemark id="0A4EDEE1513ECB03F524">
		<name>29</name>
		<LookAt>
			<longitude>-2.89579725474863</longitude>
			<latitude>53.18611472128838</latitude>
			<altitude>5.712762476938218</altitude>
			<heading>0</heading>
			<tilt>0</tilt>
			<gx:fovy>35</gx:fovy>
			<range>317.8747258658041</range>
			<altitudeMode>absolute</altitudeMode>
		</LookAt>
		<styleUrl>#__managed_style_0C1B5FEF1B3EC7150FE4</styleUrl>
		<Point>
			<coordinates>-2.895603996422178,53.18602549504487,6.239376637804151</coordinates>
		</Point>
	</Placemark>
	<Placemark id="067077FD5E3ECB042C9E">
		<name>30</name>
		<LookAt>
			<longitude>-2.895968457310797</longitude>
			<latitude>53.18639398649088</latitude>
			<altitude>5.582871336818755</altitude>
			<heading>0</heading>
			<tilt>0</tilt>
			<gx:fovy>35</gx:fovy>
			<range>318.0046363102156</range>
			<altitudeMode>absolute</altitudeMode>
		</LookAt>
		<styleUrl>#__managed_style_0C1B5FEF1B3EC7150FE4</styleUrl>
		<Point>
			<coordinates>-2.895914508525608,53.1864396242858,5.712781496885935</coordinates>
		</Point>
	</Placemark>
	<Placemark id="074279F7A13ECB04659B">
		<name>31</name>
		<LookAt>
			<longitude>-2.89628860116925</longitude>
			<latitude>53.18687733150293</latitude>
			<altitude>5.344471188436266</altitude>
			<heading>0</heading>
			<tilt>0</tilt>
			<gx:fovy>35</gx:fovy>
			<range>318.2430410972302</range>
			<altitudeMode>absolute</altitudeMode>
		</LookAt>
		<styleUrl>#__managed_style_0C1B5FEF1B3EC7150FE4</styleUrl>
		<Point>
			<coordinates>-2.896314018541188,53.1868621013585,5.344414278545846</coordinates>
		</Point>
	</Placemark>
	<Placemark id="07751912A13ECB049F9C">
		<name>32</name>
		<LookAt>
			<longitude>-2.896642018840758</longitude>
			<latitude>53.1871844907099</latitude>
			<altitude>4.975958177846884</altitude>
			<heading>0</heading>
			<tilt>0</tilt>
			<gx:fovy>35</gx:fovy>
			<range>318.6115417494511</range>
			<altitudeMode>absolute</altitudeMode>
		</LookAt>
		<styleUrl>#__managed_style_0C1B5FEF1B3EC7150FE4</styleUrl>
		<Point>
			<coordinates>-2.896727905021206,53.187260732334,4.966477270769126</coordinates>
		</Point>
	</Placemark>
	<Placemark id="0036EAD9093ECB04D721">
		<name>33</name>
		<LookAt>
			<longitude>-2.896845832304704</longitude>
			<latitude>53.18783327496865</latitude>
			<altitude>5.289487191857813</altitude>
			<heading>0</heading>
			<tilt>0</tilt>
			<gx:fovy>35</gx:fovy>
			<range>318.2980183629115</range>
			<altitudeMode>absolute</altitudeMode>
		</LookAt>
		<styleUrl>#__managed_style_0C1B5FEF1B3EC7150FE4</styleUrl>
		<Point>
			<coordinates>-2.897148204753973,53.18764446547234,4.779206835841867</coordinates>
		</Point>
	</Placemark>
	<Placemark id="0C9AE892DE3ECB04FBDC">
		<name>34</name>
		<LookAt>
			<longitude>-2.896845832304704</longitude>
			<latitude>53.18783327496865</latitude>
			<altitude>5.289487191857813</altitude>
			<heading>0</heading>
			<tilt>0</tilt>
			<gx:fovy>35</gx:fovy>
			<range>318.2980183629115</range>
			<altitudeMode>absolute</altitudeMode>
		</LookAt>
		<styleUrl>#__managed_style_0C1B5FEF1B3EC7150FE4</styleUrl>
		<Point>
			<coordinates>-2.897582608988297,53.18802809089318,4.718665623617897</coordinates>
		</Point>
	</Placemark>
	<Placemark id="0E284E9CE03ECB053524">
		<name>35</name>
		<LookAt>
			<longitude>-2.897517339306088</longitude>
			<latitude>53.18846718122467</latitude>
			<altitude>7.162422877168339</altitude>
			<heading>0</heading>
			<tilt>0</tilt>
			<gx:fovy>35</gx:fovy>
			<range>316.4250829138473</range>
			<altitudeMode>absolute</altitudeMode>
		</LookAt>
		<styleUrl>#__managed_style_0C1B5FEF1B3EC7150FE4</styleUrl>
		<Point>
			<coordinates>-2.897993279513573,53.18841833784008,4.607514875471983</coordinates>
		</Point>
	</Placemark>
</Document>
</kml>
