<?xml version="1.0" encoding="UTF-8"?>
<kml xmlns="http://www.opengis.net/kml/2.2" xmlns:gx="http://www.google.com/kml/ext/2.2" xmlns:kml="http://www.opengis.net/kml/2.2" xmlns:atom="http://www.w3.org/2005/Atom">
<Document id="1T7XQREtwgOECz64oXO2T6tg9abnBzYQO">
	<name>Lingfield</name>
	<gx:CascadingStyle kml:id="__managed_style_28F3431E293986095849">
		<Style>
			<IconStyle>
				<scale>1.2</scale>
				<Icon>
					<href>https://earth.google.com/earth/document/icon?color=1976d2&amp;id=2000&amp;scale=4</href>
				</Icon>
				<hotSpot x="64" y="128" xunits="pixels" yunits="insetPixels"/>
			</IconStyle>
			<LabelStyle>
			</LabelStyle>
			<LineStyle>
				<color>ff2dc0fb</color>
				<width>6</width>
			</LineStyle>
			<PolyStyle>
				<color>40ffffff</color>
			</PolyStyle>
			<BalloonStyle>
			</BalloonStyle>
		</Style>
	</gx:CascadingStyle>
	<gx:CascadingStyle kml:id="__managed_style_1F0996B1DD3986095849">
		<Style>
			<IconStyle>
				<Icon>
					<href>https://earth.google.com/earth/document/icon?color=1976d2&amp;id=2000&amp;scale=4</href>
				</Icon>
				<hotSpot x="64" y="128" xunits="pixels" yunits="insetPixels"/>
			</IconStyle>
			<LabelStyle>
			</LabelStyle>
			<LineStyle>
				<color>ff2dc0fb</color>
				<width>4</width>
			</LineStyle>
			<PolyStyle>
				<color>40ffffff</color>
			</PolyStyle>
			<BalloonStyle>
			</BalloonStyle>
		</Style>
	</gx:CascadingStyle>
	<StyleMap id="__managed_style_0BB8FD03B53986095849">
		<Pair>
			<key>normal</key>
			<styleUrl>#__managed_style_1F0996B1DD3986095849</styleUrl>
		</Pair>
		<Pair>
			<key>highlight</key>
			<styleUrl>#__managed_style_28F3431E293986095849</styleUrl>
		</Pair>
	</StyleMap>
	<gx:CascadingStyle kml:id="__managed_style_29FC5150FB398609584E">
		<Style>
			<IconStyle>
				<scale>1.2</scale>
				<Icon>
					<href>https://earth.google.com/earth/document/icon?color=fbc02d&amp;id=2000&amp;scale=4</href>
				</Icon>
				<hotSpot x="64" y="128" xunits="pixels" yunits="insetPixels"/>
			</IconStyle>
			<LabelStyle>
			</LabelStyle>
			<LineStyle>
				<color>ff2dc0fb</color>
				<width>6</width>
			</LineStyle>
			<PolyStyle>
				<color>40ffffff</color>
			</PolyStyle>
			<BalloonStyle>
				<gx:displayMode>card</gx:displayMode>
			</BalloonStyle>
		</Style>
	</gx:CascadingStyle>
	<gx:CascadingStyle kml:id="__managed_style_19D241BFD5398609584E">
		<Style>
			<IconStyle>
				<Icon>
					<href>https://earth.google.com/earth/document/icon?color=fbc02d&amp;id=2000&amp;scale=4</href>
				</Icon>
				<hotSpot x="64" y="128" xunits="pixels" yunits="insetPixels"/>
			</IconStyle>
			<LabelStyle>
			</LabelStyle>
			<LineStyle>
				<color>ff2dc0fb</color>
				<width>4</width>
			</LineStyle>
			<PolyStyle>
				<color>40ffffff</color>
			</PolyStyle>
			<BalloonStyle>
				<gx:displayMode>card</gx:displayMode>
			</BalloonStyle>
		</Style>
	</gx:CascadingStyle>
	<StyleMap id="__managed_style_0A4211A60C398609584E">
		<Pair>
			<key>normal</key>
			<styleUrl>#__managed_style_19D241BFD5398609584E</styleUrl>
		</Pair>
		<Pair>
			<key>highlight</key>
			<styleUrl>#__managed_style_29FC5150FB398609584E</styleUrl>
		</Pair>
	</StyleMap>
	<Placemark id="0A9A0F2185395201DA28">
		<name>Lingfield Park Racecourse</name>
		<visibility>0</visibility>
		<gx:mid>/m/03377m</gx:mid>
		<gx:fid>0x4875f7fd405d9e03:0xae95726e52b5d837</gx:fid>
		<LookAt>
			<longitude>-0.006313699999999998</longitude>
			<latitude>51.1698417</latitude>
			<altitude>0</altitude>
			<heading>0</heading>
			<tilt>0</tilt>
			<gx:fovy>35</gx:fovy>
			<range>632.8446963213856</range>
			<altitudeMode>relativeToGround</altitudeMode>
		</LookAt>
		<styleUrl>#__managed_style_0A4211A60C398609584E</styleUrl>
		<Point>
			<altitudeMode>relativeToGround</altitudeMode>
			<coordinates>-0.0063137,51.16984169999999,0</coordinates>
		</Point>
	</Placemark>
	<Placemark id="02284A56C739724CF080">
		<name>7f 140yds</name>
		<visibility>0</visibility>
		<LookAt>
			<longitude>-0.007849471560759103</longitude>
			<latitude>51.15736523598905</latitude>
			<altitude>68.31919127518566</altitude>
			<heading>271.6442142586658</heading>
			<tilt>0</tilt>
			<gx:fovy>34.67337353575523</gx:fovy>
			<range>378.1380602779609</range>
			<altitudeMode>absolute</altitudeMode>
		</LookAt>
		<styleUrl>#__managed_style_0BB8FD03B53986095849</styleUrl>
		<LineString>
			<coordinates>
				-0.006873106256083394,51.16998447820956,0 -0.007690543503025005,51.1561951386227,0 
			</coordinates>
		</LineString>
	</Placemark>
	<Placemark id="0E6EA8565939775C1C3C">
		<name>1</name>
		<LookAt>
			<longitude>-0.008088773032707275</longitude>
			<latitude>51.15675560363997</latitude>
			<altitude>70.01815520793869</altitude>
			<heading>271.0036423456827</heading>
			<tilt>0</tilt>
			<gx:fovy>35</gx:fovy>
			<range>261.818612467032</range>
			<altitudeMode>absolute</altitudeMode>
		</LookAt>
		<styleUrl>#__managed_style_0BB8FD03B53986095849</styleUrl>
		<Point>
			<coordinates>-0.007828612212500419,51.15639437275298,69.9942156605611</coordinates>
		</Point>
	</Placemark>
	<Placemark id="008D8B8E5B39775C4270">
		<name>2</name>
		<LookAt>
			<longitude>-0.008088773032707275</longitude>
			<latitude>51.15675560363997</latitude>
			<altitude>70.01815520793869</altitude>
			<heading>271.0036423456827</heading>
			<tilt>0</tilt>
			<gx:fovy>35</gx:fovy>
			<range>261.818612467032</range>
			<altitudeMode>absolute</altitudeMode>
		</LookAt>
		<styleUrl>#__managed_style_0BB8FD03B53986095849</styleUrl>
		<Point>
			<coordinates>-0.007803252370603975,51.15708764752932,69.19209635739544</coordinates>
		</Point>
	</Placemark>
	<Placemark id="019C71D09F39775C74D6">
		<name>3</name>
		<LookAt>
			<longitude>-0.007854670804734454</longitude>
			<latitude>51.15786235405652</latitude>
			<altitude>66.88495749125128</altitude>
			<heading>271.0038233789918</heading>
			<tilt>0</tilt>
			<gx:fovy>35</gx:fovy>
			<range>264.9518298812836</range>
			<altitudeMode>absolute</altitudeMode>
		</LookAt>
		<styleUrl>#__managed_style_0BB8FD03B53986095849</styleUrl>
		<Point>
			<coordinates>-0.007784053944125402,51.15787138487959,66.71882062031038</coordinates>
		</Point>
	</Placemark>
	<Placemark id="0CE76557D5397765D6C1">
		<name>4</name>
		<LookAt>
			<longitude>-0.007831810307499243</longitude>
			<latitude>51.15858682209149</latitude>
			<altitude>63.98176138599262</altitude>
			<heading>271.0038406844667</heading>
			<tilt>0</tilt>
			<gx:fovy>35</gx:fovy>
			<range>267.8550096218896</range>
			<altitudeMode>absolute</altitudeMode>
		</LookAt>
		<styleUrl>#__managed_style_0BB8FD03B53986095849</styleUrl>
		<Point>
			<coordinates>-0.007747915571790776,51.15866685065791,63.86897752954006</coordinates>
		</Point>
	</Placemark>
	<Placemark id="0684365E323977660A50">
		<name>5</name>
		<LookAt>
			<longitude>-0.008543320585584491</longitude>
			<latitude>51.15942343108834</latitude>
			<altitude>58.91364581515603</altitude>
			<heading>271.0032842623781</heading>
			<tilt>0</tilt>
			<gx:fovy>35</gx:fovy>
			<range>272.9231393858936</range>
			<altitudeMode>absolute</altitudeMode>
		</LookAt>
		<styleUrl>#__managed_style_0BB8FD03B53986095849</styleUrl>
		<Point>
			<coordinates>-0.007717850974209295,51.15951485072982,62.28889486652253</coordinates>
		</Point>
	</Placemark>
	<Placemark id="01D8E6B8633977667801">
		<name>6</name>
		<LookAt>
			<longitude>-0.007931405022914007</longitude>
			<latitude>51.16035454809587</latitude>
			<altitude>60.26211828985605</altitude>
			<heading>271.0037585396945</heading>
			<tilt>0</tilt>
			<gx:fovy>35</gx:fovy>
			<range>271.5746666551422</range>
			<altitudeMode>absolute</altitudeMode>
		</LookAt>
		<styleUrl>#__managed_style_0BB8FD03B53986095849</styleUrl>
		<Point>
			<coordinates>-0.007680914746682754,51.16040053019034,59.25324648792726</coordinates>
		</Point>
	</Placemark>
	<Placemark id="07F0B8048B397766ACFF">
		<name>7</name>
		<LookAt>
			<longitude>-0.007559819578469851</longitude>
			<latitude>51.16113013632615</latitude>
			<altitude>58.10674784384697</altitude>
			<heading>271.004046046948</heading>
			<tilt>0</tilt>
			<gx:fovy>35</gx:fovy>
			<range>273.7300443300046</range>
			<altitudeMode>absolute</altitudeMode>
		</LookAt>
		<styleUrl>#__managed_style_0BB8FD03B53986095849</styleUrl>
		<Point>
			<coordinates>-0.007616412154315411,51.16131976711103,58.10675259848024</coordinates>
		</Point>
	</Placemark>
	<Placemark id="06683EE3403977678081">
		<name>8</name>
		<LookAt>
			<longitude>-0.007924531010814473</longitude>
			<latitude>51.16239174439524</latitude>
			<altitude>56.94264481148188</altitude>
			<heading>271.0037607439129</heading>
			<tilt>0</tilt>
			<gx:fovy>35</gx:fovy>
			<range>274.8941624354484</range>
			<altitudeMode>absolute</altitudeMode>
		</LookAt>
		<styleUrl>#__managed_style_0BB8FD03B53986095849</styleUrl>
		<Point>
			<coordinates>-0.007559899550758642,51.16219114573953,56.9426807025264</coordinates>
		</Point>
	</Placemark>
	<Placemark id="07AB0C98A439776823BB">
		<name>9</name>
		<LookAt>
			<longitude>-0.007924531010814473</longitude>
			<latitude>51.16239174439524</latitude>
			<altitude>56.94264481148188</altitude>
			<heading>271.0037607439129</heading>
			<tilt>0</tilt>
			<gx:fovy>35</gx:fovy>
			<range>274.8941624354484</range>
			<altitudeMode>absolute</altitudeMode>
		</LookAt>
		<styleUrl>#__managed_style_0BB8FD03B53986095849</styleUrl>
		<Point>
			<coordinates>-0.007501508872925777,51.16305446512826,55.6914523569412</coordinates>
		</Point>
	</Placemark>
	<Placemark id="03ED918348397768A7F8">
		<name>10</name>
		<LookAt>
			<longitude>-0.007821306969839625</longitude>
			<latitude>51.16424061927006</latitude>
			<altitude>54.42050865360879</altitude>
			<heading>271.0038395446236</heading>
			<tilt>0</tilt>
			<gx:fovy>35</gx:fovy>
			<range>277.4162792649804</range>
			<altitudeMode>absolute</altitudeMode>
		</LookAt>
		<styleUrl>#__managed_style_0BB8FD03B53986095849</styleUrl>
		<Point>
			<coordinates>-0.007465063141223194,51.16396069594499,55.48306609347456</coordinates>
		</Point>
	</Placemark>
	<Placemark id="09C2461F093977698A30">
		<name>11</name>
		<LookAt>
			<longitude>-0.007519951289729487</longitude>
			<latitude>51.16526817425461</latitude>
			<altitude>54.03252962836962</altitude>
			<heading>271.0021866353925</heading>
			<tilt>0</tilt>
			<gx:fovy>35</gx:fovy>
			<range>224.778073733396</range>
			<altitudeMode>absolute</altitudeMode>
		</LookAt>
		<styleUrl>#__managed_style_0BB8FD03B53986095849</styleUrl>
		<Point>
			<coordinates>-0.007378663691768317,51.16502985966068,54.22650902766781</coordinates>
		</Point>
	</Placemark>
	<Placemark id="05F378F0B6397769B0AB">
		<name>12</name>
		<LookAt>
			<longitude>-0.007505149590413263</longitude>
			<latitude>51.16579875411621</latitude>
			<altitude>53.37398030049869</altitude>
			<heading>271.0021973970408</heading>
			<tilt>0</tilt>
			<gx:fovy>35</gx:fovy>
			<range>225.4366188640052</range>
			<altitudeMode>absolute</altitudeMode>
		</LookAt>
		<styleUrl>#__managed_style_0BB8FD03B53986095849</styleUrl>
		<Point>
			<coordinates>-0.007332509205905113,51.16595108059193,53.45041691237539</coordinates>
		</Point>
	</Placemark>
	<Placemark id="070C64CF0439776A33FC">
		<name>13</name>
		<LookAt>
			<longitude>-0.007736022059156022</longitude>
			<latitude>51.16706396057805</latitude>
			<altitude>52.61125452596499</altitude>
			<heading>271.002122824642</heading>
			<tilt>0</tilt>
			<gx:fovy>35</gx:fovy>
			<range>294.2533450110932</range>
			<altitudeMode>absolute</altitudeMode>
		</LookAt>
		<styleUrl>#__managed_style_0BB8FD03B53986095849</styleUrl>
		<Point>
			<coordinates>-0.007279430196857062,51.1668614916148,53.0246514585001</coordinates>
		</Point>
	</Placemark>
	<Placemark id="0727BDA1A339776A6A56">
		<name>14</name>
		<LookAt>
			<longitude>-0.007093204390041796</longitude>
			<latitude>51.16778574218495</latitude>
			<altitude>52.09238940019223</altitude>
			<heading>271.002621595658</heading>
			<tilt>0</tilt>
			<gx:fovy>35</gx:fovy>
			<range>294.772198750361</range>
			<altitudeMode>absolute</altitudeMode>
		</LookAt>
		<styleUrl>#__managed_style_0BB8FD03B53986095849</styleUrl>
		<Point>
			<coordinates>-0.007217999045101564,51.1677798419654,52.07722508375857</coordinates>
		</Point>
	</Placemark>
	<Placemark id="0EB4C2DFC639776AD509">
		<name>15</name>
		<LookAt>
			<longitude>-0.007183493497242566</longitude>
			<latitude>51.16869139763043</latitude>
			<altitude>51.51033174797226</altitude>
			<heading>271.0025154356075</heading>
			<tilt>0</tilt>
			<gx:fovy>35</gx:fovy>
			<range>411.5109988665063</range>
			<altitudeMode>absolute</altitudeMode>
		</LookAt>
		<styleUrl>#__managed_style_0BB8FD03B53986095849</styleUrl>
		<Point>
			<coordinates>-0.007145175122069691,51.16869209077403,51.51033062615608</coordinates>
		</Point>
	</Placemark>
	<Placemark id="0B653DB89039776B59E8">
		<name>16</name>
		<LookAt>
			<longitude>-0.00723873045290202</longitude>
			<latitude>51.17004677119897</latitude>
			<altitude>51.51039612862087</altitude>
			<heading>271.0024707509797</heading>
			<tilt>0</tilt>
			<gx:fovy>35</gx:fovy>
			<range>411.5109525113076</range>
			<altitudeMode>absolute</altitudeMode>
		</LookAt>
		<styleUrl>#__managed_style_0BB8FD03B53986095849</styleUrl>
		<Point>
			<coordinates>-0.007110464457427135,51.16956840455672,51.51031255968138</coordinates>
		</Point>
	</Placemark>
	<Placemark id="0084894B0E39776B8A04">
		<name>17</name>
		<LookAt>
			<longitude>-0.007181438416776764</longitude>
			<latitude>51.17079786055498</latitude>
			<altitude>51.87001913218316</altitude>
			<heading>271.0025142407827</heading>
			<tilt>0</tilt>
			<gx:fovy>35</gx:fovy>
			<range>411.1513288796414</range>
			<altitudeMode>absolute</altitudeMode>
		</LookAt>
		<styleUrl>#__managed_style_0BB8FD03B53986095849</styleUrl>
		<Point>
			<coordinates>-0.007083930848307274,51.17053103200151,52.48049921109049</coordinates>
		</Point>
	</Placemark>
	<Placemark id="055BE671A839776BD684">
		<name>18</name>
		<LookAt>
			<longitude>-0.007753457721150214</longitude>
			<latitude>51.17093601152532</latitude>
			<altitude>50.4476647251976</altitude>
			<heading>271.002067945666</heading>
			<tilt>0</tilt>
			<gx:fovy>35</gx:fovy>
			<range>412.5736917971517</range>
			<altitudeMode>absolute</altitudeMode>
		</LookAt>
		<styleUrl>#__managed_style_0BB8FD03B53986095849</styleUrl>
		<Point>
			<coordinates>-0.007432289074082998,51.17131685037152,52.86029307079384</coordinates>
		</Point>
	</Placemark>
	<Placemark id="01180FDFF139776C0724">
		<name>19</name>
		<LookAt>
			<longitude>-0.008756188106974205</longitude>
			<latitude>51.17138655215611</latitude>
			<altitude>49.77761085834934</altitude>
			<heading>271.0012862960636</heading>
			<tilt>0</tilt>
			<gx:fovy>35</gx:fovy>
			<range>413.2437098394439</range>
			<altitudeMode>absolute</altitudeMode>
		</LookAt>
		<styleUrl>#__managed_style_0BB8FD03B53986095849</styleUrl>
		<Point>
			<coordinates>-0.00854184977915784,51.17184663039949,53.1471825027131</coordinates>
		</Point>
	</Placemark>
	<Placemark id="001C8EAE8E39776C3E9C">
		<name>20</name>
		<LookAt>
			<longitude>-0.009759368914498134</longitude>
			<latitude>51.1716271033239</latitude>
			<altitude>52.58112025588508</altitude>
			<heading>271.0005035824894</heading>
			<tilt>0</tilt>
			<gx:fovy>35</gx:fovy>
			<range>410.4402401312836</range>
			<altitudeMode>absolute</altitudeMode>
		</LookAt>
		<styleUrl>#__managed_style_0BB8FD03B53986095849</styleUrl>
		<Point>
			<coordinates>-0.00990337391077567,51.17193320108186,54.80484256988088</coordinates>
		</Point>
	</Placemark>
	<Placemark id="050C1C2BBF39776C7218">
		<name>21</name>
		<LookAt>
			<longitude>-0.0104532776719124</longitude>
			<latitude>51.17170280722929</latitude>
			<altitude>54.62161536134624</altitude>
			<heading>270.9999624701895</heading>
			<tilt>0</tilt>
			<gx:fovy>35</gx:fovy>
			<range>408.3997306388484</range>
			<altitudeMode>absolute</altitudeMode>
		</LookAt>
		<styleUrl>#__managed_style_0BB8FD03B53986095849</styleUrl>
		<Point>
			<coordinates>-0.01117240982120182,51.17146720635539,55.89411643412469</coordinates>
		</Point>
	</Placemark>
	<Placemark id="002A9046FB39776CD4DC">
		<name>22</name>
		<LookAt>
			<longitude>-0.01170897482330124</longitude>
			<latitude>51.17094743314226</latitude>
			<altitude>56.07195877221355</altitude>
			<heading>270.9989837285271</heading>
			<tilt>0</tilt>
			<gx:fovy>35</gx:fovy>
			<range>406.9493691813113</range>
			<altitudeMode>absolute</altitudeMode>
		</LookAt>
		<styleUrl>#__managed_style_0BB8FD03B53986095849</styleUrl>
		<Point>
			<coordinates>-0.01210279770373801,51.1706200610324,55.45293071855426</coordinates>
		</Point>
	</Placemark>
	<Placemark id="0D32D8E74539776D1786">
		<name>23</name>
		<LookAt>
			<longitude>-0.01301828684207584</longitude>
			<latitude>51.1700639165057</latitude>
			<altitude>53.91779794961051</altitude>
			<heading>270.9979625849028</heading>
			<tilt>0</tilt>
			<gx:fovy>35</gx:fovy>
			<range>409.1035879762057</range>
			<altitudeMode>absolute</altitudeMode>
		</LookAt>
		<styleUrl>#__managed_style_0BB8FD03B53986095849</styleUrl>
		<Point>
			<coordinates>-0.01285334129044857,51.16992089563258,53.98271709120886</coordinates>
		</Point>
	</Placemark>
	<Placemark id="061D286BBF39776D5D90">
		<name>24</name>
		<LookAt>
			<longitude>-0.01355336619944802</longitude>
			<latitude>51.16947387086746</latitude>
			<altitude>52.86841681371085</altitude>
			<heading>270.9975450428649</heading>
			<tilt>0</tilt>
			<gx:fovy>35</gx:fovy>
			<range>410.1529306096199</range>
			<altitudeMode>absolute</altitudeMode>
		</LookAt>
		<styleUrl>#__managed_style_0BB8FD03B53986095849</styleUrl>
		<Point>
			<coordinates>-0.01362548886362891,51.16919916536041,53.06021614080168</coordinates>
		</Point>
	</Placemark>
	<Placemark id="013091FD3E39776DB8D8">
		<name>25</name>
		<LookAt>
			<longitude>-0.01451163021711444</longitude>
			<latitude>51.1682761837756</latitude>
			<altitude>52.45967397962512</altitude>
			<heading>270.9967978478186</heading>
			<tilt>0</tilt>
			<gx:fovy>35</gx:fovy>
			<range>410.5616443967302</range>
			<altitudeMode>absolute</altitudeMode>
		</LookAt>
		<styleUrl>#__managed_style_0BB8FD03B53986095849</styleUrl>
		<Point>
			<coordinates>-0.01442590961032164,51.16845739657322,52.67447437068743</coordinates>
		</Point>
	</Placemark>
	<Placemark id="088B3B191439776DF100">
		<name>26</name>
		<LookAt>
			<longitude>-0.01531333363611553</longitude>
			<latitude>51.16788517364594</latitude>
			<altitude>52.67441851329541</altitude>
			<heading>270.9961719158323</heading>
			<tilt>0</tilt>
			<gx:fovy>35</gx:fovy>
			<range>410.3469271162612</range>
			<altitudeMode>absolute</altitudeMode>
		</LookAt>
		<styleUrl>#__managed_style_0BB8FD03B53986095849</styleUrl>
		<Point>
			<coordinates>-0.0151917143405611,51.16775986266011,52.59842056691129</coordinates>
		</Point>
	</Placemark>
	<Placemark id="07EA2D80FD39776E23A7">
		<name>27</name>
		<LookAt>
			<longitude>-0.01540215292189173</longitude>
			<latitude>51.16773450323944</latitude>
			<altitude>52.61297881260486</altitude>
			<heading>270.9961023259303</heading>
			<tilt>0</tilt>
			<gx:fovy>35</gx:fovy>
			<range>410.4083941097633</range>
			<altitudeMode>absolute</altitudeMode>
		</LookAt>
		<styleUrl>#__managed_style_0BB8FD03B53986095849</styleUrl>
		<Point>
			<coordinates>-0.01594779258091705,51.16694468196319,53.25644747786052</coordinates>
		</Point>
	</Placemark>
	<Placemark id="04D724BD7239776E5A46">
		<name>28</name>
		<LookAt>
			<longitude>-0.01540123067316435</longitude>
			<latitude>51.16631102608414</latitude>
			<altitude>52.97170917302774</altitude>
			<heading>270.9961020895162</heading>
			<tilt>0</tilt>
			<gx:fovy>35</gx:fovy>
			<range>410.0496512268728</range>
			<altitudeMode>absolute</altitudeMode>
		</LookAt>
		<styleUrl>#__managed_style_0BB8FD03B53986095849</styleUrl>
		<Point>
			<coordinates>-0.01547950832242684,51.16610227842578,53.4075927750837</coordinates>
		</Point>
	</Placemark>
	<Placemark id="09AC65B90039776EB559">
		<name>29</name>
		<LookAt>
			<longitude>-0.01445084561965904</longitude>
			<latitude>51.16576890522431</latitude>
			<altitude>54.78475977418798</altitude>
			<heading>270.9968407996536</heading>
			<tilt>0</tilt>
			<gx:fovy>35</gx:fovy>
			<range>408.2366066945542</range>
			<altitudeMode>absolute</altitudeMode>
		</LookAt>
		<styleUrl>#__managed_style_0BB8FD03B53986095849</styleUrl>
		<Point>
			<coordinates>-0.01455104045539724,51.16537202758965,55.87402927424147</coordinates>
		</Point>
	</Placemark>
	<Placemark id="08881739EC39776F6FE7">
		<name>30</name>
		<LookAt>
			<longitude>-0.01341130763516607</longitude>
			<latitude>51.16497301352191</latitude>
			<altitude>58.11728008790683</altitude>
			<heading>270.9974225376541</heading>
			<tilt>0</tilt>
			<gx:fovy>35</gx:fovy>
			<range>620.7454327860614</range>
			<altitudeMode>absolute</altitudeMode>
		</LookAt>
		<styleUrl>#__managed_style_0BB8FD03B53986095849</styleUrl>
		<Point>
			<coordinates>-0.01339771194366346,51.16480489366303,59.64656325884477</coordinates>
		</Point>
	</Placemark>
	<Placemark id="08D1BC6FF439776FF76C">
		<name>31</name>
		<LookAt>
			<longitude>-0.01210091579821659</longitude>
			<latitude>51.16470884565215</latitude>
			<altitude>61.83796767412724</altitude>
			<heading>270.9984419455359</heading>
			<tilt>0</tilt>
			<gx:fovy>35</gx:fovy>
			<range>617.0247791160364</range>
			<altitudeMode>absolute</altitudeMode>
		</LookAt>
		<styleUrl>#__managed_style_0BB8FD03B53986095849</styleUrl>
		<Point>
			<coordinates>-0.01216118451738191,51.1642779525552,64.83556638914172</coordinates>
		</Point>
	</Placemark>
	<Placemark id="074C27410E3977702A86">
		<name>32</name>
		<LookAt>
			<longitude>-0.01137279625878507</longitude>
			<latitude>51.16416322216</latitude>
			<altitude>66.64335032080309</altitude>
			<heading>270.9984411552729</heading>
			<tilt>0</tilt>
			<gx:fovy>35</gx:fovy>
			<range>422.587249114149</range>
			<altitudeMode>absolute</altitudeMode>
		</LookAt>
		<styleUrl>#__managed_style_0BB8FD03B53986095849</styleUrl>
		<Point>
			<coordinates>-0.01109091270365736,51.16386108631836,67.42463173281486</coordinates>
		</Point>
	</Placemark>
	<Placemark id="048BC1E6DB3977707A13">
		<name>33</name>
		<LookAt>
			<longitude>-0.009937995735502803</longitude>
			<latitude>51.16397577635209</latitude>
			<altitude>64.99594891884138</altitude>
			<heading>270.9995580425912</heading>
			<tilt>0</tilt>
			<gx:fovy>35</gx:fovy>
			<range>424.234620166244</range>
			<altitudeMode>absolute</altitudeMode>
		</LookAt>
		<styleUrl>#__managed_style_0BB8FD03B53986095849</styleUrl>
		<Point>
			<coordinates>-0.009793288246811027,51.16346833141384,64.08896344445445</coordinates>
		</Point>
	</Placemark>
	<Placemark id="03479B73FC397770A454">
		<name>34</name>
		<LookAt>
			<longitude>-0.008512156819496797</longitude>
			<latitude>51.1641952912515</latitude>
			<altitude>59.12105360310634</altitude>
			<heading>271.0006679120385</heading>
			<tilt>0</tilt>
			<gx:fovy>35</gx:fovy>
			<range>430.1095389863622</range>
			<altitudeMode>absolute</altitudeMode>
		</LookAt>
		<styleUrl>#__managed_style_0BB8FD03B53986095849</styleUrl>
		<Point>
			<coordinates>-0.008241243590686453,51.1634100003247,57.61502632665842</coordinates>
		</Point>
	</Placemark>
</Document>
</kml>
