<?xml version="1.0" encoding="UTF-8"?>
<kml xmlns="http://www.opengis.net/kml/2.2" xmlns:gx="http://www.google.com/kml/ext/2.2" xmlns:kml="http://www.opengis.net/kml/2.2" xmlns:atom="http://www.w3.org/2005/Atom">
<Document id="1Et0fADIDyn-Y3_It_9AldOAI97Fs7PzD">
	<name>Huntingdon Racecourse 36wps</name>
	<gx:CascadingStyle kml:id="__managed_style_09C0689A8941FE8676D0_highlight">
		<Style>
			<IconStyle>
				<scale>1.2</scale>
				<Icon>
					<href>https://earth.google.com/earth/document/icon?color=fbc02d&amp;id=2000&amp;scale=4</href>
				</Icon>
				<hotSpot x="64" y="128" xunits="pixels" yunits="insetPixels"/>
			</IconStyle>
			<LabelStyle>
			</LabelStyle>
			<LineStyle>
				<color>ff2dc0fb</color>
				<width>4.8</width>
			</LineStyle>
			<PolyStyle>
				<color>40ffffff</color>
			</PolyStyle>
			<BalloonStyle>
			</BalloonStyle>
		</Style>
	</gx:CascadingStyle>
	<gx:CascadingStyle kml:id="__managed_style_09C0689A8941FE8676D0_normal">
		<Style>
			<IconStyle>
				<Icon>
					<href>https://earth.google.com/earth/document/icon?color=fbc02d&amp;id=2000&amp;scale=4</href>
				</Icon>
				<hotSpot x="64" y="128" xunits="pixels" yunits="insetPixels"/>
			</IconStyle>
			<LabelStyle>
			</LabelStyle>
			<LineStyle>
				<color>ff2dc0fb</color>
				<width>3.2</width>
			</LineStyle>
			<PolyStyle>
				<color>40ffffff</color>
			</PolyStyle>
			<BalloonStyle>
			</BalloonStyle>
		</Style>
	</gx:CascadingStyle>
	<StyleMap id="__managed_style_09C0689A8941FE8676D0">
		<Pair>
			<key>normal</key>
			<styleUrl>#__managed_style_09C0689A8941FE8676D0_normal</styleUrl>
		</Pair>
		<Pair>
			<key>highlight</key>
			<styleUrl>#__managed_style_09C0689A8941FE8676D0_highlight</styleUrl>
		</Pair>
	</StyleMap>
	<Placemark id="06855438634145A75D46">
		<name>1</name>
		<LookAt>
			<longitude>-0.229124775699634</longitude>
			<latitude>52.33355197797349</latitude>
			<altitude>9.780318642029485</altitude>
			<heading>-126.444556303847</heading>
			<tilt>0.1371973486906991</tilt>
			<gx:fovy>35</gx:fovy>
			<range>160.5379731782887</range>
			<altitudeMode>absolute</altitudeMode>
		</LookAt>
		<styleUrl>#__managed_style_09C0689A8941FE8676D0</styleUrl>
		<Point>
			<coordinates>-0.2300646640693171,52.33434860451901,9.874571389592559</coordinates>
		</Point>
	</Placemark>
	<Placemark id="0E781913604145A73404">
		<name>2</name>
		<LookAt>
			<longitude>-0.2291299494266108</longitude>
			<latitude>52.33378409926596</latitude>
			<altitude>9.791410230992829</altitude>
			<heading>-126.4445553944924</heading>
			<tilt>0.1371964760694333</tilt>
			<gx:fovy>35</gx:fovy>
			<range>119.9732688732001</range>
			<altitudeMode>absolute</altitudeMode>
		</LookAt>
		<styleUrl>#__managed_style_09C0689A8941FE8676D0</styleUrl>
		<Point>
			<coordinates>-0.2298430925231465,52.33444741735688,9.712137165613044</coordinates>
		</Point>
	</Placemark>
	<Placemark id="08F266D3A1414E5B276C">
		<name>3</name>
		<LookAt>
			<longitude>-0.2299810907015809</longitude>
			<latitude>52.33366811049233</latitude>
			<altitude>7.968944834933094</altitude>
			<heading>-126.4445895515416</heading>
			<tilt>0.1372014318625348</tilt>
			<gx:fovy>35</gx:fovy>
			<range>350.531824298123</range>
			<altitudeMode>absolute</altitudeMode>
		</LookAt>
		<styleUrl>#__managed_style_09C0689A8941FE8676D0</styleUrl>
		<Point>
			<coordinates>-0.2289518488767028,52.33339231579721,9.716640546007397</coordinates>
		</Point>
	</Placemark>
	<Placemark id="0E3D27783D414E5B43B8">
		<name>4</name>
		<LookAt>
			<longitude>-0.2299810907015809</longitude>
			<latitude>52.33366811049233</latitude>
			<altitude>7.968944834933094</altitude>
			<heading>-126.4445895515416</heading>
			<tilt>0.1372014318625348</tilt>
			<gx:fovy>35</gx:fovy>
			<range>350.531824298123</range>
			<altitudeMode>absolute</altitudeMode>
		</LookAt>
		<styleUrl>#__managed_style_09C0689A8941FE8676D0</styleUrl>
		<Point>
			<coordinates>-0.2287427623283678,52.33349210899635,9.880393123268856</coordinates>
		</Point>
	</Placemark>
	<Placemark id="0C1B2A24CB414E5BB564">
		<name>5</name>
		<LookAt>
			<longitude>-0.2286007522666977</longitude>
			<latitude>52.33284136902363</latitude>
			<altitude>9.630744606099617</altitude>
			<heading>-126.4434968677261</heading>
			<tilt>0.1372013944574345</tilt>
			<gx:fovy>35</gx:fovy>
			<range>348.8699440688288</range>
			<altitudeMode>absolute</altitudeMode>
		</LookAt>
		<styleUrl>#__managed_style_09C0689A8941FE8676D0</styleUrl>
		<Point>
			<coordinates>-0.2282092327361618,52.33226581862319,9.800286121243552</coordinates>
		</Point>
	</Placemark>
	<Placemark id="09B9737E62414E5BC6F8">
		<name>6</name>
		<LookAt>
			<longitude>-0.2286007522666977</longitude>
			<latitude>52.33284136902363</latitude>
			<altitude>9.630744606099617</altitude>
			<heading>-126.4434968677261</heading>
			<tilt>0.1372013944574345</tilt>
			<gx:fovy>35</gx:fovy>
			<range>348.8699440688288</range>
			<altitudeMode>absolute</altitudeMode>
		</LookAt>
		<styleUrl>#__managed_style_09C0689A8941FE8676D0</styleUrl>
		<Point>
			<coordinates>-0.2279109336112706,52.33228991597139,9.800010328465037</coordinates>
		</Point>
	</Placemark>
	<Placemark id="094E73415F414E5BFEA1">
		<name>7</name>
		<LookAt>
			<longitude>-0.2286517123033383</longitude>
			<latitude>52.33184698452333</latitude>
			<altitude>9.904682237338937</altitude>
			<heading>-126.4435371741827</heading>
			<tilt>0.1372013875932349</tilt>
			<gx:fovy>35</gx:fovy>
			<range>348.5960080219957</range>
			<altitudeMode>absolute</altitudeMode>
		</LookAt>
		<styleUrl>#__managed_style_09C0689A8941FE8676D0</styleUrl>
		<Point>
			<coordinates>-0.2292009068779954,52.33153344450589,9.963624718626992</coordinates>
		</Point>
	</Placemark>
	<Placemark id="0359151B00414E5C1EA8">
		<name>8</name>
		<LookAt>
			<longitude>-0.2286517123033383</longitude>
			<latitude>52.33184698452333</latitude>
			<altitude>9.904682237338937</altitude>
			<heading>-126.4435371741827</heading>
			<tilt>0.1372013875932349</tilt>
			<gx:fovy>35</gx:fovy>
			<range>348.5960080219957</range>
			<altitudeMode>absolute</altitudeMode>
		</LookAt>
		<styleUrl>#__managed_style_09C0689A8941FE8676D0</styleUrl>
		<Point>
			<coordinates>-0.2290216747032836,52.33133390181109,9.751992990024419</coordinates>
		</Point>
	</Placemark>
	<Placemark id="0B1455D914414E5C7CCC">
		<name>9</name>
		<LookAt>
			<longitude>-0.2303079301735078</longitude>
			<latitude>52.33139994502434</latitude>
			<altitude>9.956395811554408</altitude>
			<heading>-126.4448482015308</heading>
			<tilt>0.1372013858081179</tilt>
			<gx:fovy>35</gx:fovy>
			<range>348.544298797824</range>
			<altitudeMode>absolute</altitudeMode>
		</LookAt>
		<styleUrl>#__managed_style_09C0689A8941FE8676D0</styleUrl>
		<Point>
			<coordinates>-0.2309323413106534,52.33157547452537,10.09266355430613</coordinates>
		</Point>
	</Placemark>
	<Placemark id="064D04D0AE414E5C9217">
		<name>10</name>
		<LookAt>
			<longitude>-0.2303079301735078</longitude>
			<latitude>52.33139994502434</latitude>
			<altitude>9.956395811554408</altitude>
			<heading>-126.4448482015308</heading>
			<tilt>0.1372013858081179</tilt>
			<gx:fovy>35</gx:fovy>
			<range>348.544298797824</range>
			<altitudeMode>absolute</altitudeMode>
		</LookAt>
		<styleUrl>#__managed_style_09C0689A8941FE8676D0</styleUrl>
		<Point>
			<coordinates>-0.2310205015408795,52.33141668072448,10.05067964743069</coordinates>
		</Point>
	</Placemark>
	<Placemark id="0A789F1239414E5CCF9C">
		<name>11</name>
		<LookAt>
			<longitude>-0.2317047795577687</longitude>
			<latitude>52.3314838268295</latitude>
			<altitude>10.06166169168065</altitude>
			<heading>-126.4459538680699</heading>
			<tilt>0.1372013829976212</tilt>
			<gx:fovy>35</gx:fovy>
			<range>348.4390261415319</range>
			<altitudeMode>absolute</altitudeMode>
		</LookAt>
		<styleUrl>#__managed_style_09C0689A8941FE8676D0</styleUrl>
		<Point>
			<coordinates>-0.2326163621169863,52.33191421371546,10.09261306691944</coordinates>
		</Point>
	</Placemark>
	<Placemark id="079B797644414E5CE53C">
		<name>12</name>
		<LookAt>
			<longitude>-0.2317047795577687</longitude>
			<latitude>52.3314838268295</latitude>
			<altitude>10.06166169168065</altitude>
			<heading>-126.4459538680699</heading>
			<tilt>0.1372013829976212</tilt>
			<gx:fovy>35</gx:fovy>
			<range>348.4390261415319</range>
			<altitudeMode>absolute</altitudeMode>
		</LookAt>
		<styleUrl>#__managed_style_09C0689A8941FE8676D0</styleUrl>
		<Point>
			<coordinates>-0.2327410633893245,52.33172737446022,10.03985624751071</coordinates>
		</Point>
	</Placemark>
	<Placemark id="0E77A4AE37414E5D10F9">
		<name>13</name>
		<LookAt>
			<longitude>-0.2338774535804722</longitude>
			<latitude>52.33213345179224</latitude>
			<altitude>10.17229390470007</altitude>
			<heading>-126.4476737207682</heading>
			<tilt>0.1372013803093199</tilt>
			<gx:fovy>35</gx:fovy>
			<range>348.3283994597878</range>
			<altitudeMode>absolute</altitudeMode>
		</LookAt>
		<styleUrl>#__managed_style_09C0689A8941FE8676D0</styleUrl>
		<Point>
			<coordinates>-0.234185502621278,52.33233652123562,10.28072064408549</coordinates>
		</Point>
	</Placemark>
	<Placemark id="017AB8EC3D414E5D23D9">
		<name>14</name>
		<LookAt>
			<longitude>-0.2338774535804722</longitude>
			<latitude>52.33213345179224</latitude>
			<altitude>10.17229390470007</altitude>
			<heading>-126.4476737207682</heading>
			<tilt>0.1372013803093199</tilt>
			<gx:fovy>35</gx:fovy>
			<range>348.3283994597878</range>
			<altitudeMode>absolute</altitudeMode>
		</LookAt>
		<styleUrl>#__managed_style_09C0689A8941FE8676D0</styleUrl>
		<Point>
			<coordinates>-0.2344024162615976,52.3322333601478,10.14076141453359</coordinates>
		</Point>
	</Placemark>
	<Placemark id="0E9A53CEF3414E5D59C0">
		<name>15</name>
		<LookAt>
			<longitude>-0.2349796696980189</longitude>
			<latitude>52.33274737598994</latitude>
			<altitude>10.24211849240198</altitude>
			<heading>-126.4485461965094</heading>
			<tilt>0.1372013786623369</tilt>
			<gx:fovy>35</gx:fovy>
			<range>348.2585653529168</range>
			<altitudeMode>absolute</altitudeMode>
		</LookAt>
		<styleUrl>#__managed_style_09C0689A8941FE8676D0</styleUrl>
		<Point>
			<coordinates>-0.2353448884639087,52.33331656327699,10.31419262427945</coordinates>
		</Point>
	</Placemark>
	<Placemark id="0515312824414E5D6EFC">
		<name>16</name>
		<LookAt>
			<longitude>-0.2349796696980189</longitude>
			<latitude>52.33274737598994</latitude>
			<altitude>10.24211849240198</altitude>
			<heading>-126.4485461965094</heading>
			<tilt>0.1372013786623369</tilt>
			<gx:fovy>35</gx:fovy>
			<range>348.2585653529168</range>
			<altitudeMode>absolute</altitudeMode>
		</LookAt>
		<styleUrl>#__managed_style_09C0689A8941FE8676D0</styleUrl>
		<Point>
			<coordinates>-0.2355168120342588,52.3332356030293,10.28070393001466</coordinates>
		</Point>
	</Placemark>
	<Placemark id="0A28AB50B9414E5E1B9C">
		<name>17</name>
		<LookAt>
			<longitude>-0.2362063868420439</longitude>
			<latitude>52.33355982595089</latitude>
			<altitude>11.36389873886779</altitude>
			<heading>-126.4491718465736</heading>
			<tilt>0.1372014091102682</tilt>
			<gx:fovy>35</gx:fovy>
			<range>349.7833269043986</range>
			<altitudeMode>absolute</altitudeMode>
		</LookAt>
		<styleUrl>#__managed_style_09C0689A8941FE8676D0</styleUrl>
		<Point>
			<coordinates>-0.2364502656122525,52.33420123121153,10.51106131702771</coordinates>
		</Point>
	</Placemark>
	<Placemark id="094F29B40F414E5E312B">
		<name>18</name>
		<LookAt>
			<longitude>-0.2362063868420439</longitude>
			<latitude>52.33355982595089</latitude>
			<altitude>11.36389873886779</altitude>
			<heading>-126.4491718465736</heading>
			<tilt>0.1372014091102682</tilt>
			<gx:fovy>35</gx:fovy>
			<range>349.7833269043986</range>
			<altitudeMode>absolute</altitudeMode>
		</LookAt>
		<styleUrl>#__managed_style_09C0689A8941FE8676D0</styleUrl>
		<Point>
			<coordinates>-0.2366156545110287,52.33412268807151,10.27092664560954</coordinates>
		</Point>
	</Placemark>
	<Placemark id="09C1E39EAE414E5ED6F6">
		<name>19</name>
		<LookAt>
			<longitude>-0.2373204420341712</longitude>
			<latitude>52.33442375470516</latitude>
			<altitude>9.415461537003765</altitude>
			<heading>-126.4500537006291</heading>
			<tilt>0.1372014496738513</tilt>
			<gx:fovy>35</gx:fovy>
			<range>351.7317286169783</range>
			<altitudeMode>absolute</altitudeMode>
		</LookAt>
		<styleUrl>#__managed_style_09C0689A8941FE8676D0</styleUrl>
		<Point>
			<coordinates>-0.2376513679891901,52.33513891903048,10.62088026565865</coordinates>
		</Point>
	</Placemark>
	<Placemark id="0BC0FDC254414E5EECC4">
		<name>20</name>
		<LookAt>
			<longitude>-0.2373204420341712</longitude>
			<latitude>52.33442375470516</latitude>
			<altitude>9.415461537003765</altitude>
			<heading>-126.4500537006291</heading>
			<tilt>0.1372014496738513</tilt>
			<gx:fovy>35</gx:fovy>
			<range>351.7317286169783</range>
			<altitudeMode>absolute</altitudeMode>
		</LookAt>
		<styleUrl>#__managed_style_09C0689A8941FE8676D0</styleUrl>
		<Point>
			<coordinates>-0.2378404063922912,52.33503891335486,10.46876369630878</coordinates>
		</Point>
	</Placemark>
	<Placemark id="0ECED23862414E5F4420">
		<name>21</name>
		<LookAt>
			<longitude>-0.2388641073450082</longitude>
			<latitude>52.33582509202303</latitude>
			<altitude>10.65677097631803</altitude>
			<heading>-126.4512756998291</heading>
			<tilt>0.1372014225783354</tilt>
			<gx:fovy>35</gx:fovy>
			<range>350.490405928067</range>
			<altitudeMode>absolute</altitudeMode>
		</LookAt>
		<styleUrl>#__managed_style_09C0689A8941FE8676D0</styleUrl>
		<Point>
			<coordinates>-0.2387267501468826,52.33613952583136,10.48210805343139</coordinates>
		</Point>
	</Placemark>
	<Placemark id="0B465E3568414E5F58E4">
		<name>22</name>
		<LookAt>
			<longitude>-0.2388641073450082</longitude>
			<latitude>52.33582509202303</latitude>
			<altitude>10.65677097631803</altitude>
			<heading>-126.4512756998291</heading>
			<tilt>0.1372014225783354</tilt>
			<gx:fovy>35</gx:fovy>
			<range>350.490405928067</range>
			<altitudeMode>absolute</altitudeMode>
		</LookAt>
		<styleUrl>#__managed_style_09C0689A8941FE8676D0</styleUrl>
		<Point>
			<coordinates>-0.2390579317547104,52.33609509049828,10.65679779239307</coordinates>
		</Point>
	</Placemark>
	<Placemark id="0355FB2654414E5FA1CC">
		<name>23</name>
		<LookAt>
			<longitude>-0.2389069575123326</longitude>
			<latitude>52.33711833824184</latitude>
			<altitude>10.88983619841644</altitude>
			<heading>-126.4513096234906</heading>
			<tilt>0.1372014167953016</tilt>
			<gx:fovy>35</gx:fovy>
			<range>350.2573551665046</range>
			<altitudeMode>absolute</altitudeMode>
		</LookAt>
		<styleUrl>#__managed_style_09C0689A8941FE8676D0</styleUrl>
		<Point>
			<coordinates>-0.2382612446494037,52.33710730748936,10.68305179367333</coordinates>
		</Point>
	</Placemark>
	<Placemark id="06EB6972A0414E5FBA17">
		<name>24</name>
		<LookAt>
			<longitude>-0.2389069575123326</longitude>
			<latitude>52.33711833824184</latitude>
			<altitude>10.88983619841644</altitude>
			<heading>-126.4513096234906</heading>
			<tilt>0.1372014167953016</tilt>
			<gx:fovy>35</gx:fovy>
			<range>350.2573551665046</range>
			<altitudeMode>absolute</altitudeMode>
		</LookAt>
		<styleUrl>#__managed_style_09C0689A8941FE8676D0</styleUrl>
		<Point>
			<coordinates>-0.2385675450074609,52.33720443410116,10.84480991615844</coordinates>
		</Point>
	</Placemark>
	<Placemark id="0219458878414E601C74">
		<name>25</name>
		<LookAt>
			<longitude>-0.2379172245754058</longitude>
			<latitude>52.33774136836681</latitude>
			<altitude>10.76678657239355</altitude>
			<heading>-126.4505261162112</heading>
			<tilt>0.1372014182749295</tilt>
			<gx:fovy>35</gx:fovy>
			<range>350.3804282191049</range>
			<altitudeMode>absolute</altitudeMode>
		</LookAt>
		<styleUrl>#__managed_style_09C0689A8941FE8676D0</styleUrl>
		<Point>
			<coordinates>-0.2372077735647071,52.33812713147333,10.74878393653556</coordinates>
		</Point>
	</Placemark>
	<Placemark id="0EF58331B4414E60332C">
		<name>26</name>
		<LookAt>
			<longitude>-0.2379172245754058</longitude>
			<latitude>52.33774136836681</latitude>
			<altitude>10.76678657239355</altitude>
			<heading>-126.4505261162112</heading>
			<tilt>0.1372014182749295</tilt>
			<gx:fovy>35</gx:fovy>
			<range>350.3804282191049</range>
			<altitudeMode>absolute</altitudeMode>
		</LookAt>
		<styleUrl>#__managed_style_09C0689A8941FE8676D0</styleUrl>
		<Point>
			<coordinates>-0.237480092525798,52.33825347222098,10.83764924465135</coordinates>
		</Point>
	</Placemark>
	<Placemark id="0945AC9153414E606F06">
		<name>27</name>
		<LookAt>
			<longitude>-0.2364998917663486</longitude>
			<latitude>52.33837221678598</latitude>
			<altitude>10.55541387440061</altitude>
			<heading>-126.4494041391609</heading>
			<tilt>0.1372014220311122</tilt>
			<gx:fovy>35</gx:fovy>
			<range>350.5917847476667</range>
			<altitudeMode>absolute</altitudeMode>
		</LookAt>
		<styleUrl>#__managed_style_09C0689A8941FE8676D0</styleUrl>
		<Point>
			<coordinates>-0.2358125685713897,52.33846999479354,10.5008635793135</coordinates>
		</Point>
	</Placemark>
	<Placemark id="00C2ADEC7A414E608B93">
		<name>28</name>
		<LookAt>
			<longitude>-0.2364998917663486</longitude>
			<latitude>52.33837221678598</latitude>
			<altitude>10.55541387440061</altitude>
			<heading>-126.4494041391609</heading>
			<tilt>0.1372014220311122</tilt>
			<gx:fovy>35</gx:fovy>
			<range>350.5917847476667</range>
			<altitudeMode>absolute</altitudeMode>
		</LookAt>
		<styleUrl>#__managed_style_09C0689A8941FE8676D0</styleUrl>
		<Point>
			<coordinates>-0.2357497028435762,52.33871347435743,10.64704600561069</coordinates>
		</Point>
	</Placemark>
	<Placemark id="08B2E7BEB6414E60BFD9">
		<name>29</name>
		<LookAt>
			<longitude>-0.2345194037870046</longitude>
			<latitude>52.3377119695403</latitude>
			<altitude>10.5200646076839</altitude>
			<heading>-126.4478741676874</heading>
			<tilt>0.1372002615410783</tilt>
			<gx:fovy>35</gx:fovy>
			<range>296.7548105995957</range>
			<altitudeMode>absolute</altitudeMode>
		</LookAt>
		<styleUrl>#__managed_style_09C0689A8941FE8676D0</styleUrl>
		<Point>
			<coordinates>-0.2345202986035855,52.33788765548891,10.44404504264295</coordinates>
		</Point>
	</Placemark>
	<Placemark id="097A24EE87414E60D370">
		<name>30</name>
		<LookAt>
			<longitude>-0.2345194037870046</longitude>
			<latitude>52.3377119695403</latitude>
			<altitude>10.5200646076839</altitude>
			<heading>-126.4478741676874</heading>
			<tilt>0.1372002615410783</tilt>
			<gx:fovy>35</gx:fovy>
			<range>296.7548105995957</range>
			<altitudeMode>absolute</altitudeMode>
		</LookAt>
		<styleUrl>#__managed_style_09C0689A8941FE8676D0</styleUrl>
		<Point>
			<coordinates>-0.234258589441414,52.33802399558437,10.46881297275645</coordinates>
		</Point>
	</Placemark>
	<Placemark id="095DD08A3B414E6145E0">
		<name>31</name>
		<LookAt>
			<longitude>-0.2332089462182552</longitude>
			<latitude>52.33718856135368</latitude>
			<altitude>10.27097260612136</altitude>
			<heading>-126.4470972404115</heading>
			<tilt>0.1372028797197702</tilt>
			<gx:fovy>35</gx:fovy>
			<range>418.407771687198</range>
			<altitudeMode>absolute</altitudeMode>
		</LookAt>
		<styleUrl>#__managed_style_09C0689A8941FE8676D0</styleUrl>
		<Point>
			<coordinates>-0.2333424299584064,52.33697002412869,10.27101827945955</coordinates>
		</Point>
	</Placemark>
	<Placemark id="0C4D1590F1414E615C67">
		<name>32</name>
		<LookAt>
			<longitude>-0.2332089462182552</longitude>
			<latitude>52.33718856135368</latitude>
			<altitude>10.27097260612136</altitude>
			<heading>-126.4470972404115</heading>
			<tilt>0.1372028797197702</tilt>
			<gx:fovy>35</gx:fovy>
			<range>418.407771687198</range>
			<altitudeMode>absolute</altitudeMode>
		</LookAt>
		<styleUrl>#__managed_style_09C0689A8941FE8676D0</styleUrl>
		<Point>
			<coordinates>-0.233063811787132,52.33710151770732,10.27085733774055</coordinates>
		</Point>
	</Placemark>
	<Placemark id="0B4062800E414E6192C4">
		<name>33</name>
		<LookAt>
			<longitude>-0.2323790026865857</longitude>
			<latitude>52.33634483490783</latitude>
			<altitude>10.27651068015939</altitude>
			<heading>-126.4464402520598</heading>
			<tilt>0.1372028786545557</tilt>
			<gx:fovy>35</gx:fovy>
			<range>418.4022554185505</range>
			<altitudeMode>absolute</altitudeMode>
		</LookAt>
		<styleUrl>#__managed_style_09C0689A8941FE8676D0</styleUrl>
		<Point>
			<coordinates>-0.2321595826639344,52.33609236810436,10.27098785178715</coordinates>
		</Point>
	</Placemark>
	<Placemark id="02467E4B35414E61AC8B">
		<name>34</name>
		<LookAt>
			<longitude>-0.2323790026865857</longitude>
			<latitude>52.33634483490783</latitude>
			<altitude>10.27651068015939</altitude>
			<heading>-126.4464402520598</heading>
			<tilt>0.1372028786545557</tilt>
			<gx:fovy>35</gx:fovy>
			<range>418.4022554185505</range>
			<altitudeMode>absolute</altitudeMode>
		</LookAt>
		<styleUrl>#__managed_style_09C0689A8941FE8676D0</styleUrl>
		<Point>
			<coordinates>-0.2319450676143708,52.33617942885009,10.27099115074721</coordinates>
		</Point>
	</Placemark>
	<Placemark id="0C3931F09C414E6237FB">
		<name>35</name>
		<LookAt>
			<longitude>-0.2316150402776618</longitude>
			<latitude>52.33551636474281</latitude>
			<altitude>10.15087334957848</altitude>
			<heading>-126.4458355321646</heading>
			<tilt>0.1372028809018661</tilt>
			<gx:fovy>35</gx:fovy>
			<range>418.5278780070803</range>
			<altitudeMode>absolute</altitudeMode>
		</LookAt>
		<styleUrl>#__managed_style_09C0689A8941FE8676D0</styleUrl>
		<Point>
			<coordinates>-0.2311091531759124,52.33519709715054,10.27089910806382</coordinates>
		</Point>
	</Placemark>
	<Placemark id="07B8270AF3414E624DB8">
		<name>36</name>
		<LookAt>
			<longitude>-0.2316150402776618</longitude>
			<latitude>52.33551636474281</latitude>
			<altitude>10.15087334957848</altitude>
			<heading>-126.4458355321646</heading>
			<tilt>0.1372028809018661</tilt>
			<gx:fovy>35</gx:fovy>
			<range>418.5278780070803</range>
			<altitudeMode>absolute</altitudeMode>
		</LookAt>
		<styleUrl>#__managed_style_09C0689A8941FE8676D0</styleUrl>
		<Point>
			<coordinates>-0.2308750085969369,52.33531093492276,10.17016447549073</coordinates>
		</Point>
	</Placemark>
</Document>
</kml>
