<?xml version="1.0" encoding="UTF-8"?>
<kml xmlns="http://www.opengis.net/kml/2.2" xmlns:gx="http://www.google.com/kml/ext/2.2" xmlns:kml="http://www.opengis.net/kml/2.2" xmlns:atom="http://www.w3.org/2005/Atom">
<Document id="document">
	<name>Bangor-On-Dee Racecourse</name>
	<StyleMap id="__managed_style_067B6D383F3EC6FC01A3">
		<Pair>
			<key>normal</key>
			<styleUrl>#__managed_style_1C3FEA88B03EC6FC01A3</styleUrl>
		</Pair>
		<Pair>
			<key>highlight</key>
			<styleUrl>#__managed_style_20BA6936503EC6FC01A3</styleUrl>
		</Pair>
	</StyleMap>
	<gx:CascadingStyle kml:id="__managed_style_2B99A14BF13EC6EDED61">
		<Style>
			<IconStyle>
				<scale>1.2</scale>
				<Icon>
					<href>https://earth.google.com/earth/document/icon?color=fbc02d&amp;id=2000&amp;scale=4</href>
				</Icon>
				<hotSpot x="64" y="128" xunits="pixels" yunits="insetPixels"/>
			</IconStyle>
			<LabelStyle>
			</LabelStyle>
			<LineStyle>
				<color>ff2dc0fb</color>
				<width>6</width>
			</LineStyle>
			<PolyStyle>
				<color>40ffffff</color>
			</PolyStyle>
			<BalloonStyle>
				<gx:displayMode>card</gx:displayMode>
			</BalloonStyle>
		</Style>
	</gx:CascadingStyle>
	<gx:CascadingStyle kml:id="__managed_style_16F2230A3A3EC6EDED61">
		<Style>
			<IconStyle>
				<Icon>
					<href>https://earth.google.com/earth/document/icon?color=fbc02d&amp;id=2000&amp;scale=4</href>
				</Icon>
				<hotSpot x="64" y="128" xunits="pixels" yunits="insetPixels"/>
			</IconStyle>
			<LabelStyle>
			</LabelStyle>
			<LineStyle>
				<color>ff2dc0fb</color>
				<width>4</width>
			</LineStyle>
			<PolyStyle>
				<color>40ffffff</color>
			</PolyStyle>
			<BalloonStyle>
				<gx:displayMode>card</gx:displayMode>
			</BalloonStyle>
		</Style>
	</gx:CascadingStyle>
	<gx:CascadingStyle kml:id="__managed_style_20BA6936503EC6FC01A3">
		<Style>
			<IconStyle>
				<scale>1.2</scale>
				<Icon>
					<href>https://earth.google.com/earth/document/icon?color=d32f2f&amp;id=2000&amp;scale=4</href>
				</Icon>
				<hotSpot x="64" y="128" xunits="pixels" yunits="insetPixels"/>
			</IconStyle>
			<LabelStyle>
			</LabelStyle>
			<LineStyle>
				<color>ff2dc0fb</color>
				<width>6</width>
			</LineStyle>
			<PolyStyle>
				<color>40ffffff</color>
			</PolyStyle>
			<BalloonStyle>
				<displayMode>hide</displayMode>
			</BalloonStyle>
		</Style>
	</gx:CascadingStyle>
	<gx:CascadingStyle kml:id="__managed_style_1C3FEA88B03EC6FC01A3">
		<Style>
			<IconStyle>
				<Icon>
					<href>https://earth.google.com/earth/document/icon?color=d32f2f&amp;id=2000&amp;scale=4</href>
				</Icon>
				<hotSpot x="64" y="128" xunits="pixels" yunits="insetPixels"/>
			</IconStyle>
			<LabelStyle>
			</LabelStyle>
			<LineStyle>
				<color>ff2dc0fb</color>
				<width>4</width>
			</LineStyle>
			<PolyStyle>
				<color>40ffffff</color>
			</PolyStyle>
			<BalloonStyle>
				<displayMode>hide</displayMode>
			</BalloonStyle>
		</Style>
	</gx:CascadingStyle>
	<StyleMap id="__managed_style_093DE2601B3EC6EDED61">
		<Pair>
			<key>normal</key>
			<styleUrl>#__managed_style_16F2230A3A3EC6EDED61</styleUrl>
		</Pair>
		<Pair>
			<key>highlight</key>
			<styleUrl>#__managed_style_2B99A14BF13EC6EDED61</styleUrl>
		</Pair>
	</StyleMap>
	<Placemark id="0CA82FFE663EC6EDED49">
		<gx:mid>/m/02vps01</gx:mid>
		<gx:fid>0x487abf6e7b901be7:0x3f7c96e44c60a65</gx:fid>
		<LookAt>
			<longitude>-2.9212055</longitude>
			<latitude>52.99254320000001</latitude>
			<altitude>0</altitude>
			<heading>0</heading>
			<tilt>0</tilt>
			<gx:fovy>35</gx:fovy>
			<range>605.6031060771247</range>
			<altitudeMode>relativeToGround</altitudeMode>
		</LookAt>
		<styleUrl>#__managed_style_093DE2601B3EC6EDED61</styleUrl>
		<Point>
			<altitudeMode>relativeToGround</altitudeMode>
			<coordinates>-2.921205499999999,52.9925432,0</coordinates>
		</Point>
	</Placemark>
	<Placemark id="0323F5A5163EC6FBF2DE">
		<name>1</name>
		<LookAt>
			<longitude>-2.92293154740727</longitude>
			<latitude>52.99442067029613</latitude>
			<altitude>16.05265956959573</altitude>
			<heading>4.844821572415444</heading>
			<tilt>0</tilt>
			<gx:fovy>35</gx:fovy>
			<range>264.8086618500383</range>
			<altitudeMode>absolute</altitudeMode>
		</LookAt>
		<styleUrl>#__managed_style_067B6D383F3EC6FC01A3</styleUrl>
		<Point>
			<coordinates>-2.922713337197519,52.99424131010336,16.09238906873442</coordinates>
		</Point>
	</Placemark>
	<Placemark id="0ABFCA7C833EC6FC1F7F">
		<name>2</name>
		<LookAt>
			<longitude>-2.92293154740727</longitude>
			<latitude>52.99442067029613</latitude>
			<altitude>16.05265956959573</altitude>
			<heading>4.844821572415444</heading>
			<tilt>0</tilt>
			<gx:fovy>35</gx:fovy>
			<range>264.8086618500383</range>
			<altitudeMode>absolute</altitudeMode>
		</LookAt>
		<styleUrl>#__managed_style_067B6D383F3EC6FC01A3</styleUrl>
		<Point>
			<coordinates>-2.922453407249124,52.99424900062688,16.53693963303378</coordinates>
		</Point>
	</Placemark>
	<Placemark id="0E13B8FEF33EC6FC7A4F">
		<name>3</name>
		<LookAt>
			<longitude>-2.923030892813902</longitude>
			<latitude>52.99519991120732</latitude>
			<altitude>16.05271423868308</altitude>
			<heading>4.844821572407159</heading>
			<tilt>0</tilt>
			<gx:fovy>35</gx:fovy>
			<range>264.8085923172403</range>
			<altitudeMode>absolute</altitudeMode>
		</LookAt>
		<styleUrl>#__managed_style_067B6D383F3EC6FC01A3</styleUrl>
		<Point>
			<coordinates>-2.923009140971814,52.99510511677296,16.05267813119736</coordinates>
		</Point>
	</Placemark>
	<Placemark id="0CA23DC3553EC6FC8CBB">
		<name>4</name>
		<LookAt>
			<longitude>-2.923030892813902</longitude>
			<latitude>52.99519991120732</latitude>
			<altitude>16.05271423868308</altitude>
			<heading>4.844821572407159</heading>
			<tilt>0</tilt>
			<gx:fovy>35</gx:fovy>
			<range>264.8085923172403</range>
			<altitudeMode>absolute</altitudeMode>
		</LookAt>
		<styleUrl>#__managed_style_067B6D383F3EC6FC01A3</styleUrl>
		<Point>
			<coordinates>-2.92280275216363,52.99513474897594,16.05269618494022</coordinates>
		</Point>
	</Placemark>
	<Placemark id="02716509343EC6FCD621">
		<name>5</name>
		<LookAt>
			<longitude>-2.923090618986659</longitude>
			<latitude>52.99614279379805</latitude>
			<altitude>16.98317174037165</altitude>
			<heading>4.844821572386522</heading>
			<tilt>0</tilt>
			<gx:fovy>35</gx:fovy>
			<range>263.8781507685417</range>
			<altitudeMode>absolute</altitudeMode>
		</LookAt>
		<styleUrl>#__managed_style_067B6D383F3EC6FC01A3</styleUrl>
		<Point>
			<coordinates>-2.92332487149537,52.99605783008872,16.98313069293372</coordinates>
		</Point>
	</Placemark>
	<Placemark id="0E376E676A3EC6FCE8EC">
		<name>6</name>
		<LookAt>
			<longitude>-2.923090618986659</longitude>
			<latitude>52.99614279379805</latitude>
			<altitude>16.98317174037165</altitude>
			<heading>4.844821572386522</heading>
			<tilt>0</tilt>
			<gx:fovy>35</gx:fovy>
			<range>263.8781507685417</range>
			<altitudeMode>absolute</altitudeMode>
		</LookAt>
		<styleUrl>#__managed_style_067B6D383F3EC6FC01A3</styleUrl>
		<Point>
			<coordinates>-2.923097543342398,52.99606675784371,16.98319803444143</coordinates>
		</Point>
	</Placemark>
	<Placemark id="0115FD4CB63EC6FD2B03">
		<name>7</name>
		<LookAt>
			<longitude>-2.923282815269728</longitude>
			<latitude>52.99672320705658</latitude>
			<altitude>16.98316819950671</altitude>
			<heading>4.844821572372287</heading>
			<tilt>0</tilt>
			<gx:fovy>35</gx:fovy>
			<range>348.0686481037628</range>
			<altitudeMode>absolute</altitudeMode>
		</LookAt>
		<styleUrl>#__managed_style_067B6D383F3EC6FC01A3</styleUrl>
		<Point>
			<coordinates>-2.923305491062441,52.99688284754478,16.98315106104137</coordinates>
		</Point>
	</Placemark>
	<Placemark id="01AA0B977E3EC6FD40F4">
		<name>8</name>
		<LookAt>
			<longitude>-2.923282815269728</longitude>
			<latitude>52.99672320705658</latitude>
			<altitude>16.98316819950671</altitude>
			<heading>4.844821572372287</heading>
			<tilt>0</tilt>
			<gx:fovy>35</gx:fovy>
			<range>348.0686481037628</range>
			<altitudeMode>absolute</altitudeMode>
		</LookAt>
		<styleUrl>#__managed_style_067B6D383F3EC6FC01A3</styleUrl>
		<Point>
			<coordinates>-2.923063760984267,52.9968805689012,16.98317881078435</coordinates>
		</Point>
	</Placemark>
	<Placemark id="0617A6CB893EC6FE5FC9">
		<name>9</name>
		<LookAt>
			<longitude>-2.923247819995549</longitude>
			<latitude>52.997718454782</latitude>
			<altitude>16.98318239550339</altitude>
			<heading>358.0124771922727</heading>
			<tilt>0</tilt>
			<gx:fovy>35</gx:fovy>
			<range>121.6679338167887</range>
			<altitudeMode>absolute</altitudeMode>
		</LookAt>
		<styleUrl>#__managed_style_067B6D383F3EC6FC01A3</styleUrl>
		<Point>
			<coordinates>-2.923253419727518,52.99782594651064,16.98318247047975</coordinates>
		</Point>
	</Placemark>
	<Placemark id="0460A16EAF3EC6FE6E3F">
		<name>10</name>
		<LookAt>
			<longitude>-2.923247819995549</longitude>
			<latitude>52.997718454782</latitude>
			<altitude>16.98318239550339</altitude>
			<heading>358.0124771922727</heading>
			<tilt>0</tilt>
			<gx:fovy>35</gx:fovy>
			<range>121.6679338167887</range>
			<altitudeMode>absolute</altitudeMode>
		</LookAt>
		<styleUrl>#__managed_style_067B6D383F3EC6FC01A3</styleUrl>
		<Point>
			<coordinates>-2.923021233819387,52.9978282062448,16.98322402860575</coordinates>
		</Point>
	</Placemark>
	<Placemark id="04E7D4CEB43EC6FF0034">
		<name>11</name>
		<LookAt>
			<longitude>-2.923506767154614</longitude>
			<latitude>52.99879844433291</latitude>
			<altitude>17.71627654575287</altitude>
			<heading>358.0124740124193</heading>
			<tilt>0</tilt>
			<gx:fovy>35</gx:fovy>
			<range>185.7726076588369</range>
			<altitudeMode>absolute</altitudeMode>
		</LookAt>
		<styleUrl>#__managed_style_067B6D383F3EC6FC01A3</styleUrl>
		<Point>
			<coordinates>-2.923380989523674,52.9988622880938,17.54142788094616</coordinates>
		</Point>
	</Placemark>
	<Placemark id="0D01DA1AA03EC6FF13E7">
		<name>12</name>
		<LookAt>
			<longitude>-2.923506767154614</longitude>
			<latitude>52.99879844433291</latitude>
			<altitude>17.71627654575287</altitude>
			<heading>358.0124740124193</heading>
			<tilt>0</tilt>
			<gx:fovy>35</gx:fovy>
			<range>185.7726076588369</range>
			<altitudeMode>absolute</altitudeMode>
		</LookAt>
		<styleUrl>#__managed_style_067B6D383F3EC6FC01A3</styleUrl>
		<Point>
			<coordinates>-2.923177350071763,52.99892672389813,17.41991145085748</coordinates>
		</Point>
	</Placemark>
	<Placemark id="0F97CAC55D3EC6FF8B5C">
		<name>13</name>
		<LookAt>
			<longitude>-2.924236469921775</longitude>
			<latitude>52.99951937568107</latitude>
			<altitude>18.6082911384842</altitude>
			<heading>358.0124716289552</heading>
			<tilt>0</tilt>
			<gx:fovy>35</gx:fovy>
			<range>184.8805713922775</range>
			<altitudeMode>absolute</altitudeMode>
		</LookAt>
		<styleUrl>#__managed_style_067B6D383F3EC6FC01A3</styleUrl>
		<Point>
			<coordinates>-2.924280067848954,52.99938361322977,18.82636953159561</coordinates>
		</Point>
	</Placemark>
	<Placemark id="0D690A69423EC6FF9CD0">
		<name>14</name>
		<LookAt>
			<longitude>-2.924236469921775</longitude>
			<latitude>52.99951937568107</latitude>
			<altitude>18.6082911384842</altitude>
			<heading>358.0124716289552</heading>
			<tilt>0</tilt>
			<gx:fovy>35</gx:fovy>
			<range>184.8805713922775</range>
			<altitudeMode>absolute</altitudeMode>
		</LookAt>
		<styleUrl>#__managed_style_067B6D383F3EC6FC01A3</styleUrl>
		<Point>
			<coordinates>-2.924195980786071,52.99948701516933,18.57134496431335</coordinates>
		</Point>
	</Placemark>
	<Placemark id="0210F06B5D3EC700402F">
		<name>15</name>
		<LookAt>
			<longitude>-2.925647145830002</longitude>
			<latitude>52.99944549973268</latitude>
			<altitude>18.31033208143264</altitude>
			<heading>358.0124686678465</heading>
			<tilt>0</tilt>
			<gx:fovy>35</gx:fovy>
			<range>128.9652387320166</range>
			<altitudeMode>absolute</altitudeMode>
		</LookAt>
		<styleUrl>#__managed_style_067B6D383F3EC6FC01A3</styleUrl>
		<Point>
			<coordinates>-2.925832861636055,52.99930761198224,18.02858855472242</coordinates>
		</Point>
	</Placemark>
	<Placemark id="00F28130553EC7007E0E">
		<name>16</name>
		<LookAt>
			<longitude>-2.925849690403125</longitude>
			<latitude>52.99947310174515</latitude>
			<altitude>17.85857348602711</altitude>
			<heading>358.0124685246093</heading>
			<tilt>0</tilt>
			<gx:fovy>35</gx:fovy>
			<range>293.0433120813178</range>
			<altitudeMode>absolute</altitudeMode>
		</LookAt>
		<styleUrl>#__managed_style_067B6D383F3EC6FC01A3</styleUrl>
		<Point>
			<coordinates>-2.925903399508918,52.99941842686017,18.28550509965105</coordinates>
		</Point>
	</Placemark>
	<Placemark id="08CD050C9F3EC700FCCF">
		<name>17</name>
		<LookAt>
			<longitude>-2.926515627553709</longitude>
			<latitude>52.99892284260742</latitude>
			<altitude>16.98318792112003</altitude>
			<heading>358.0124675907083</heading>
			<tilt>0</tilt>
			<gx:fovy>35</gx:fovy>
			<range>269.1676729616302</range>
			<altitudeMode>absolute</altitudeMode>
		</LookAt>
		<styleUrl>#__managed_style_067B6D383F3EC6FC01A3</styleUrl>
		<Point>
			<coordinates>-2.927314120242498,52.99893516432453,16.98319114368908</coordinates>
		</Point>
	</Placemark>
	<Placemark id="058F98A0513EC7010EF8">
		<name>18</name>
		<LookAt>
			<longitude>-2.926515627553709</longitude>
			<latitude>52.99892284260742</latitude>
			<altitude>16.98318792112003</altitude>
			<heading>358.0124675907083</heading>
			<tilt>0</tilt>
			<gx:fovy>35</gx:fovy>
			<range>269.1676729616302</range>
			<altitudeMode>absolute</altitudeMode>
		</LookAt>
		<styleUrl>#__managed_style_067B6D383F3EC6FC01A3</styleUrl>
		<Point>
			<coordinates>-2.927373724962198,52.9990402563637,16.98315558650159</coordinates>
		</Point>
	</Placemark>
	<Placemark id="00AEABC2093EC7014CF8">
		<name>19</name>
		<LookAt>
			<longitude>-2.928366472462594</longitude>
			<latitude>52.99848631850243</latitude>
			<altitude>16.98318703837943</altitude>
			<heading>358.0124665479428</heading>
			<tilt>0</tilt>
			<gx:fovy>35</gx:fovy>
			<range>152.6289302943587</range>
			<altitudeMode>absolute</altitudeMode>
		</LookAt>
		<styleUrl>#__managed_style_067B6D383F3EC6FC01A3</styleUrl>
		<Point>
			<coordinates>-2.928771305956531,52.99850435705231,16.98316827448308</coordinates>
		</Point>
	</Placemark>
	<Placemark id="003AE3A63E3EC7015DE7">
		<name>20</name>
		<LookAt>
			<longitude>-2.928366472462594</longitude>
			<latitude>52.99848631850243</latitude>
			<altitude>16.98318703837943</altitude>
			<heading>358.0124665479428</heading>
			<tilt>0</tilt>
			<gx:fovy>35</gx:fovy>
			<range>152.6289302943587</range>
			<altitudeMode>absolute</altitudeMode>
		</LookAt>
		<styleUrl>#__managed_style_067B6D383F3EC6FC01A3</styleUrl>
		<Point>
			<coordinates>-2.928890283468574,52.99859323161877,16.98316127055886</coordinates>
		</Point>
	</Placemark>
	<Placemark id="01D16A45223EC70196FE">
		<name>21</name>
		<LookAt>
			<longitude>-2.929343383782262</longitude>
			<latitude>52.99796289852696</latitude>
			<altitude>16.98316590070306</altitude>
			<heading>358.0124656216077</heading>
			<tilt>0</tilt>
			<gx:fovy>35</gx:fovy>
			<range>200.1566721767085</range>
			<altitudeMode>absolute</altitudeMode>
		</LookAt>
		<styleUrl>#__managed_style_067B6D383F3EC6FC01A3</styleUrl>
		<Point>
			<coordinates>-2.92975793371933,52.99783323263379,16.98317634080824</coordinates>
		</Point>
	</Placemark>
	<Placemark id="0556F46D363EC701A9B4">
		<name>22</name>
		<LookAt>
			<longitude>-2.929343383782262</longitude>
			<latitude>52.99796289852696</latitude>
			<altitude>16.98316590070306</altitude>
			<heading>358.0124656216077</heading>
			<tilt>0</tilt>
			<gx:fovy>35</gx:fovy>
			<range>200.1566721767085</range>
			<altitudeMode>absolute</altitudeMode>
		</LookAt>
		<styleUrl>#__managed_style_067B6D383F3EC6FC01A3</styleUrl>
		<Point>
			<coordinates>-2.92991285322994,52.99793063583195,16.98320617715762</coordinates>
		</Point>
	</Placemark>
	<Placemark id="04278353263EC701DD17">
		<name>23</name>
		<LookAt>
			<longitude>-2.93035045567518</longitude>
			<latitude>52.99728733554576</latitude>
			<altitude>17.69247897531784</altitude>
			<heading>358.0124646704776</heading>
			<tilt>0</tilt>
			<gx:fovy>35</gx:fovy>
			<range>199.4473681035015</range>
			<altitudeMode>absolute</altitudeMode>
		</LookAt>
		<styleUrl>#__managed_style_067B6D383F3EC6FC01A3</styleUrl>
		<Point>
			<coordinates>-2.930864127172088,52.99713244581923,18.09970468528983</coordinates>
		</Point>
	</Placemark>
	<Placemark id="04E5FB03BF3EC701F417">
		<name>24</name>
		<LookAt>
			<longitude>-2.93035045567518</longitude>
			<latitude>52.99728733554576</latitude>
			<altitude>17.69247897531784</altitude>
			<heading>358.0124646704776</heading>
			<tilt>0</tilt>
			<gx:fovy>35</gx:fovy>
			<range>199.4473681035015</range>
			<altitudeMode>absolute</altitudeMode>
		</LookAt>
		<styleUrl>#__managed_style_067B6D383F3EC6FC01A3</styleUrl>
		<Point>
			<coordinates>-2.931014157467185,52.99722819816198,18.09970247985297</coordinates>
		</Point>
	</Placemark>
	<Placemark id="018C6112103EC702534B">
		<name>25</name>
		<LookAt>
			<longitude>-2.931167855604223</longitude>
			<latitude>52.99669113024636</latitude>
			<altitude>18.11139636527449</altitude>
			<heading>358.0124624405645</heading>
			<tilt>0</tilt>
			<gx:fovy>35</gx:fovy>
			<range>453.5944733136421</range>
			<altitudeMode>absolute</altitudeMode>
		</LookAt>
		<styleUrl>#__managed_style_067B6D383F3EC6FC01A3</styleUrl>
		<Point>
			<coordinates>-2.931848853448069,52.99648412022097,17.81624155159663</coordinates>
		</Point>
	</Placemark>
	<Placemark id="08D17EDD543EC7026554">
		<name>26</name>
		<LookAt>
			<longitude>-2.931167855604223</longitude>
			<latitude>52.99669113024636</latitude>
			<altitude>18.11139636527449</altitude>
			<heading>358.0124624405645</heading>
			<tilt>0</tilt>
			<gx:fovy>35</gx:fovy>
			<range>453.5944733136421</range>
			<altitudeMode>absolute</altitudeMode>
		</LookAt>
		<styleUrl>#__managed_style_067B6D383F3EC6FC01A3</styleUrl>
		<Point>
			<coordinates>-2.932044597362476,52.99656654654646,17.7680794521854</coordinates>
		</Point>
	</Placemark>
	<Placemark id="02554C48CE3EC703662C">
		<name>27</name>
		<LookAt>
			<longitude>-2.932449098359344</longitude>
			<latitude>52.99590941897114</latitude>
			<altitude>17.17050159194629</altitude>
			<heading>358.0124606972381</heading>
			<tilt>0</tilt>
			<gx:fovy>35</gx:fovy>
			<range>183.1945748708495</range>
			<altitudeMode>absolute</altitudeMode>
		</LookAt>
		<styleUrl>#__managed_style_067B6D383F3EC6FC01A3</styleUrl>
		<Point>
			<coordinates>-2.932836827586589,52.99578410668047,17.35532847074339</coordinates>
		</Point>
	</Placemark>
	<Placemark id="0B41E931F53EC703789C">
		<name>28</name>
		<LookAt>
			<longitude>-2.932449098359344</longitude>
			<latitude>52.99590941897114</latitude>
			<altitude>17.17050159194629</altitude>
			<heading>358.0124606972381</heading>
			<tilt>0</tilt>
			<gx:fovy>35</gx:fovy>
			<range>183.1945748708495</range>
			<altitudeMode>absolute</altitudeMode>
		</LookAt>
		<styleUrl>#__managed_style_067B6D383F3EC6FC01A3</styleUrl>
		<Point>
			<coordinates>-2.93304336490133,52.99591345608275,17.14256741276322</coordinates>
		</Point>
	</Placemark>
	<Placemark id="0984A461673EC703EF79">
		<name>29</name>
		<LookAt>
			<longitude>-2.933571643305951</longitude>
			<latitude>52.9949414074411</latitude>
			<altitude>18.29905266111355</altitude>
			<heading>358.0124593824506</heading>
			<tilt>0</tilt>
			<gx:fovy>35</gx:fovy>
			<range>251.0135864870972</range>
			<altitudeMode>absolute</altitudeMode>
		</LookAt>
		<styleUrl>#__managed_style_067B6D383F3EC6FC01A3</styleUrl>
		<Point>
			<coordinates>-2.933632556666107,52.99504531595903,18.28574801034219</coordinates>
		</Point>
	</Placemark>
	<Placemark id="0668868BB33EC7040F91">
		<name>30</name>
		<LookAt>
			<longitude>-2.933571643305951</longitude>
			<latitude>52.9949414074411</latitude>
			<altitude>18.29905266111355</altitude>
			<heading>358.0124593824506</heading>
			<tilt>0</tilt>
			<gx:fovy>35</gx:fovy>
			<range>251.0135864870972</range>
			<altitudeMode>absolute</altitudeMode>
		</LookAt>
		<styleUrl>#__managed_style_067B6D383F3EC6FC01A3</styleUrl>
		<Point>
			<coordinates>-2.93382194384002,52.99508195351674,18.2448360985594</coordinates>
		</Point>
	</Placemark>
	<Placemark id="05A06EDCED3EC70447E3">
		<name>31</name>
		<LookAt>
			<longitude>-2.931966376470962</longitude>
			<latitude>52.99371228430643</latitude>
			<altitude>18.8557861943971</altitude>
			<heading>358.01245840271</heading>
			<tilt>0</tilt>
			<gx:fovy>35</gx:fovy>
			<range>707.2681528792601</range>
			<altitudeMode>absolute</altitudeMode>
		</LookAt>
		<styleUrl>#__managed_style_067B6D383F3EC6FC01A3</styleUrl>
		<Point>
			<coordinates>-2.933739548228786,52.99404411125564,17.78077763894441</coordinates>
		</Point>
	</Placemark>
	<Placemark id="00F53855C23EC7045D90">
		<name>32</name>
		<LookAt>
			<longitude>-2.933206119205054</longitude>
			<latitude>52.99390645460014</latitude>
			<altitude>18.0996682708254</altitude>
			<heading>358.0124583396865</heading>
			<tilt>0</tilt>
			<gx:fovy>35</gx:fovy>
			<range>217.7993680989675</range>
			<altitudeMode>absolute</altitudeMode>
		</LookAt>
		<styleUrl>#__managed_style_067B6D383F3EC6FC01A3</styleUrl>
		<Point>
			<coordinates>-2.933942580216899,52.99400885177408,17.26425580609657</coordinates>
		</Point>
	</Placemark>
	<Placemark id="0154ECE8543EC704DDCF">
		<name>33</name>
		<LookAt>
			<longitude>-2.931827462091653</longitude>
			<latitude>52.99309043352284</latitude>
			<altitude>18.84411292889065</altitude>
			<heading>358.0124570279476</heading>
			<tilt>0</tilt>
			<gx:fovy>35</gx:fovy>
			<range>416.5435046602943</range>
			<altitudeMode>absolute</altitudeMode>
		</LookAt>
		<styleUrl>#__managed_style_067B6D383F3EC6FC01A3</styleUrl>
		<Point>
			<coordinates>-2.932529045026281,52.99353024475063,18.21757576167725</coordinates>
		</Point>
	</Placemark>
	<Placemark id="017C97FF4E3EC704EF36">
		<name>34</name>
		<LookAt>
			<longitude>-2.931827462091653</longitude>
			<latitude>52.99309043352284</latitude>
			<altitude>18.84411292889065</altitude>
			<heading>358.0124570279476</heading>
			<tilt>0</tilt>
			<gx:fovy>35</gx:fovy>
			<range>416.5435046602943</range>
			<altitudeMode>absolute</altitudeMode>
		</LookAt>
		<styleUrl>#__managed_style_067B6D383F3EC6FC01A3</styleUrl>
		<Point>
			<coordinates>-2.932622494441517,52.99343688113343,18.11372524151758</coordinates>
		</Point>
	</Placemark>
	<Placemark id="00D4395E643EC7053F7B">
		<name>35</name>
		<LookAt>
			<longitude>-2.931187580229426</longitude>
			<latitude>52.99339286297024</latitude>
			<altitude>19.03010237564411</altitude>
			<heading>358.0124563303849</heading>
			<tilt>0</tilt>
			<gx:fovy>35</gx:fovy>
			<range>326.1553172562708</range>
			<altitudeMode>absolute</altitudeMode>
		</LookAt>
		<styleUrl>#__managed_style_067B6D383F3EC6FC01A3</styleUrl>
		<Point>
			<coordinates>-2.931178481656431,52.99326287470993,19.03011629578435</coordinates>
		</Point>
	</Placemark>
	<Placemark id="05D89D16913EC7055418">
		<name>36</name>
		<LookAt>
			<longitude>-2.931187580229426</longitude>
			<latitude>52.99339286297024</latitude>
			<altitude>19.03010237564411</altitude>
			<heading>358.0124563303849</heading>
			<tilt>0</tilt>
			<gx:fovy>35</gx:fovy>
			<range>326.1553172562708</range>
			<altitudeMode>absolute</altitudeMode>
		</LookAt>
		<styleUrl>#__managed_style_067B6D383F3EC6FC01A3</styleUrl>
		<Point>
			<coordinates>-2.931228198319308,52.99316811430625,18.84404790882096</coordinates>
		</Point>
	</Placemark>
	<Placemark id="0E9D11377E3EC70633A4">
		<name>37</name>
		<LookAt>
			<longitude>-2.929612434398978</longitude>
			<latitude>52.99338843881809</latitude>
			<altitude>19.03010530962489</altitude>
			<heading>358.0124509177798</heading>
			<tilt>0</tilt>
			<gx:fovy>35</gx:fovy>
			<range>408.080111543677</range>
			<altitudeMode>absolute</altitudeMode>
		</LookAt>
		<styleUrl>#__managed_style_067B6D383F3EC6FC01A3</styleUrl>
		<Point>
			<coordinates>-2.929684188481244,52.9930835732727,19.03015031241974</coordinates>
		</Point>
	</Placemark>
	<Placemark id="06D73652DE3EC7064644">
		<name>38</name>
		<LookAt>
			<longitude>-2.929612434398978</longitude>
			<latitude>52.99338843881809</latitude>
			<altitude>19.03010530962489</altitude>
			<heading>358.0124509177798</heading>
			<tilt>0</tilt>
			<gx:fovy>35</gx:fovy>
			<range>408.080111543677</range>
			<altitudeMode>absolute</altitudeMode>
		</LookAt>
		<styleUrl>#__managed_style_067B6D383F3EC6FC01A3</styleUrl>
		<Point>
			<coordinates>-2.929719071070701,52.99298561426085,19.03011357541548</coordinates>
		</Point>
	</Placemark>
	<Placemark id="0C8EB92CD93EC7068A4E">
		<name>39</name>
		<LookAt>
			<longitude>-2.927937133822034</longitude>
			<latitude>52.99289718325215</latitude>
			<altitude>18.20011517381679</altitude>
			<heading>358.0124491473737</heading>
			<tilt>0</tilt>
			<gx:fovy>35</gx:fovy>
			<range>143.9284882802895</range>
			<altitudeMode>absolute</altitudeMode>
		</LookAt>
		<styleUrl>#__managed_style_067B6D383F3EC6FC01A3</styleUrl>
		<Point>
			<coordinates>-2.928113818422304,52.99293397112933,18.24563979851006</coordinates>
		</Point>
	</Placemark>
	<Placemark id="0CBCE088573EC70698FE">
		<name>40</name>
		<LookAt>
			<longitude>-2.927937133822034</longitude>
			<latitude>52.99289718325215</latitude>
			<altitude>18.20011517381679</altitude>
			<heading>358.0124491473737</heading>
			<tilt>0</tilt>
			<gx:fovy>35</gx:fovy>
			<range>143.9284882802895</range>
			<altitudeMode>absolute</altitudeMode>
		</LookAt>
		<styleUrl>#__managed_style_067B6D383F3EC6FC01A3</styleUrl>
		<Point>
			<coordinates>-2.92811957701086,52.99283479784131,18.22235671872175</coordinates>
		</Point>
	</Placemark>
	<Placemark id="02D08AA7133EC707ABB0">
		<name>41</name>
		<LookAt>
			<longitude>-2.925986981700296</longitude>
			<latitude>52.99334484349777</latitude>
			<altitude>16.98309435627496</altitude>
			<heading>358.0124477207349</heading>
			<tilt>0</tilt>
			<gx:fovy>35</gx:fovy>
			<range>371.9102161523915</range>
			<altitudeMode>absolute</altitudeMode>
		</LookAt>
		<styleUrl>#__managed_style_067B6D383F3EC6FC01A3</styleUrl>
		<Point>
			<coordinates>-2.926569427408929,52.99288242000443,17.21555601156094</coordinates>
		</Point>
	</Placemark>
	<Placemark id="08954AF5953EC707C9F0">
		<name>42</name>
		<LookAt>
			<longitude>-2.926401490908933</longitude>
			<latitude>52.99292190260986</latitude>
			<altitude>16.98314510112766</altitude>
			<heading>358.0124472050857</heading>
			<tilt>0</tilt>
			<gx:fovy>35</gx:fovy>
			<range>129.3412141600311</range>
			<altitudeMode>absolute</altitudeMode>
		</LookAt>
		<styleUrl>#__managed_style_067B6D383F3EC6FC01A3</styleUrl>
		<Point>
			<coordinates>-2.926573767121229,52.99279233748706,17.21766733892938</coordinates>
		</Point>
	</Placemark>
	<Placemark id="002CB8A5403EC7080A68">
		<name>43</name>
		<LookAt>
			<longitude>-2.925153532860822</longitude>
			<latitude>52.99310548060012</latitude>
			<altitude>17.14702975845149</altitude>
			<heading>358.0124465606413</heading>
			<tilt>0</tilt>
			<gx:fovy>35</gx:fovy>
			<range>255.4429879679446</range>
			<altitudeMode>absolute</altitudeMode>
		</LookAt>
		<styleUrl>#__managed_style_067B6D383F3EC6FC01A3</styleUrl>
		<Point>
			<coordinates>-2.924856601857697,52.99283841091091,17.54138393347901</coordinates>
		</Point>
	</Placemark>
	<Placemark id="0A13E7DD9B3EC7082BF9">
		<name>44</name>
		<LookAt>
			<longitude>-2.925153532860822</longitude>
			<latitude>52.99310548060012</latitude>
			<altitude>17.14702975845149</altitude>
			<heading>358.0124465606413</heading>
			<tilt>0</tilt>
			<gx:fovy>35</gx:fovy>
			<range>255.4429879679446</range>
			<altitudeMode>absolute</altitudeMode>
		</LookAt>
		<styleUrl>#__managed_style_067B6D383F3EC6FC01A3</styleUrl>
		<Point>
			<coordinates>-2.924857681831018,52.99274734379316,17.65331825254352</coordinates>
		</Point>
	</Placemark>
	<Placemark id="07B454794B3EC7088130">
		<name>45</name>
		<LookAt>
			<longitude>-2.923355463371402</longitude>
			<latitude>52.99302089984645</latitude>
			<altitude>17.91357971946374</altitude>
			<heading>358.0124450022185</heading>
			<tilt>0</tilt>
			<gx:fovy>35</gx:fovy>
			<range>254.6764584019184</range>
			<altitudeMode>absolute</altitudeMode>
		</LookAt>
		<styleUrl>#__managed_style_067B6D383F3EC6FC01A3</styleUrl>
		<Point>
			<coordinates>-2.923438555976419,52.99292465005858,17.91484743965021</coordinates>
		</Point>
	</Placemark>
	<Placemark id="06A2DF0BEC3EC7089117">
		<name>46</name>
		<LookAt>
			<longitude>-2.923355463371402</longitude>
			<latitude>52.99302089984645</latitude>
			<altitude>17.91357971946374</altitude>
			<heading>358.0124450022185</heading>
			<tilt>0</tilt>
			<gx:fovy>35</gx:fovy>
			<range>254.6764584019184</range>
			<altitudeMode>absolute</altitudeMode>
		</LookAt>
		<styleUrl>#__managed_style_067B6D383F3EC6FC01A3</styleUrl>
		<Point>
			<coordinates>-2.92335060718378,52.99284889597138,18.14309048467908</coordinates>
		</Point>
	</Placemark>
	<Placemark id="0CC5C89CE83EC708C2C1">
		<name>47</name>
		<LookAt>
			<longitude>-2.924464204778208</longitude>
			<latitude>52.99331645021475</latitude>
			<altitude>17.03915462159888</altitude>
			<heading>358.0124446527221</heading>
			<tilt>0</tilt>
			<gx:fovy>35</gx:fovy>
			<range>586.4083292417491</range>
			<altitudeMode>absolute</altitudeMode>
		</LookAt>
		<styleUrl>#__managed_style_067B6D383F3EC6FC01A3</styleUrl>
		<Point>
			<coordinates>-2.922893337526031,52.99349761609584,17.36680126783996</coordinates>
		</Point>
	</Placemark>
	<Placemark id="0B71986FB33EC708DDEE">
		<name>48</name>
		<LookAt>
			<longitude>-2.923308048027011</longitude>
			<latitude>52.99342835866123</latitude>
			<altitude>17.30140620315417</altitude>
			<heading>358.012444561051</heading>
			<tilt>0</tilt>
			<gx:fovy>35</gx:fovy>
			<range>189.8488984134383</range>
			<altitudeMode>absolute</altitudeMode>
		</LookAt>
		<styleUrl>#__managed_style_067B6D383F3EC6FC01A3</styleUrl>
		<Point>
			<coordinates>-2.922747189211821,52.99348207796745,17.48669316946453</coordinates>
		</Point>
	</Placemark>
</Document>
</kml>
