<?xml version="1.0" encoding="UTF-8"?>
<kml xmlns="http://www.opengis.net/kml/2.2" xmlns:gx="http://www.google.com/kml/ext/2.2" xmlns:kml="http://www.opengis.net/kml/2.2" xmlns:atom="http://www.w3.org/2005/Atom">
<Document id="document">
	<name>Ballarat GRV</name>
	<gx:CascadingStyle kml:id="__managed_style_2B5CA1C8CC3E1D0BC1F8">
		<Style>
			<IconStyle>
				<scale>1.2</scale>
				<Icon>
					<href>https://earth.google.com/earth/document/icon?color=1976d2&amp;id=2000&amp;scale=4</href>
				</Icon>
				<hotSpot x="64" y="128" xunits="pixels" yunits="insetPixels"/>
			</IconStyle>
			<LabelStyle>
			</LabelStyle>
			<LineStyle>
				<color>ff2dc0fb</color>
				<width>6</width>
			</LineStyle>
			<PolyStyle>
				<color>40ffffff</color>
			</PolyStyle>
			<BalloonStyle>
				<displayMode>hide</displayMode>
			</BalloonStyle>
		</Style>
	</gx:CascadingStyle>
	<gx:CascadingStyle kml:id="__managed_style_1EFCFEC9023E1D0BC1F8">
		<Style>
			<IconStyle>
				<Icon>
					<href>https://earth.google.com/earth/document/icon?color=1976d2&amp;id=2000&amp;scale=4</href>
				</Icon>
				<hotSpot x="64" y="128" xunits="pixels" yunits="insetPixels"/>
			</IconStyle>
			<LabelStyle>
			</LabelStyle>
			<LineStyle>
				<color>ff2dc0fb</color>
				<width>4</width>
			</LineStyle>
			<PolyStyle>
				<color>40ffffff</color>
			</PolyStyle>
			<BalloonStyle>
				<displayMode>hide</displayMode>
			</BalloonStyle>
		</Style>
	</gx:CascadingStyle>
	<StyleMap id="__managed_style_0017487A553E1D0BC1F8">
		<Pair>
			<key>normal</key>
			<styleUrl>#__managed_style_1EFCFEC9023E1D0BC1F8</styleUrl>
		</Pair>
		<Pair>
			<key>highlight</key>
			<styleUrl>#__managed_style_2B5CA1C8CC3E1D0BC1F8</styleUrl>
		</Pair>
	</StyleMap>
	<Placemark id="08E3976E373E1D0BC1E1">
		<name>1</name>
		<LookAt>
			<longitude>143.8303325298322</longitude>
			<latitude>-37.58019873796242</latitude>
			<altitude>429.9980654437447</altitude>
			<heading>97.80993597611499</heading>
			<tilt>0.0965562279420091</tilt>
			<gx:fovy>35</gx:fovy>
			<range>95.62447065138258</range>
			<altitudeMode>absolute</altitudeMode>
		</LookAt>
		<styleUrl>#__managed_style_0017487A553E1D0BC1F8</styleUrl>
		<Point>
			<coordinates>143.8302623738736,-37.58023131107999,430.2110408152986</coordinates>
		</Point>
	</Placemark>
	<Placemark id="0D60B0561A3E1D0BD926">
		<name>2</name>
		<LookAt>
			<longitude>143.8303325298322</longitude>
			<latitude>-37.58019873796242</latitude>
			<altitude>429.9980654437447</altitude>
			<heading>97.80993597611499</heading>
			<tilt>0.0965562279420091</tilt>
			<gx:fovy>35</gx:fovy>
			<range>95.62447065138258</range>
			<altitudeMode>absolute</altitudeMode>
		</LookAt>
		<styleUrl>#__managed_style_0017487A553E1D0BC1F8</styleUrl>
		<Point>
			<coordinates>143.8302299888365,-37.58023228477298,430.3066687906679</coordinates>
		</Point>
	</Placemark>
	<Placemark id="0CD6D70A823E1D0BFE1E">
		<name>3</name>
		<LookAt>
			<longitude>143.8304037764084</longitude>
			<latitude>-37.58040190430449</latitude>
			<altitude>430.0919931065205</altitude>
			<heading>97.80989249620897</heading>
			<tilt>0.09655622558285976</tilt>
			<gx:fovy>35</gx:fovy>
			<range>95.53054342997712</range>
			<altitudeMode>absolute</altitudeMode>
		</LookAt>
		<styleUrl>#__managed_style_0017487A553E1D0BC1F8</styleUrl>
		<Point>
			<coordinates>143.8303023473242,-37.58043514426937,430.2905763290786</coordinates>
		</Point>
	</Placemark>
	<Placemark id="0472C63C623E1D0C0F80">
		<name>4</name>
		<LookAt>
			<longitude>143.8304037764084</longitude>
			<latitude>-37.58040190430449</latitude>
			<altitude>430.0919931065205</altitude>
			<heading>97.80989249620897</heading>
			<tilt>0.09655622558285976</tilt>
			<gx:fovy>35</gx:fovy>
			<range>95.53054342997712</range>
			<altitudeMode>absolute</altitudeMode>
		</LookAt>
		<styleUrl>#__managed_style_0017487A553E1D0BC1F8</styleUrl>
		<Point>
			<coordinates>143.8302735377984,-37.5804447244378,430.4156847777946</coordinates>
		</Point>
	</Placemark>
	<Placemark id="02178F600F3E1D0C3B1C">
		<name>5</name>
		<LookAt>
			<longitude>143.8305179918545</longitude>
			<latitude>-37.58062516482288</latitude>
			<altitude>430.1038962976604</altitude>
			<heading>97.80982286217885</heading>
			<tilt>0.09655622392956788</tilt>
			<gx:fovy>35</gx:fovy>
			<range>95.51864173270587</range>
			<altitudeMode>absolute</altitudeMode>
		</LookAt>
		<styleUrl>#__managed_style_0017487A553E1D0BC1F8</styleUrl>
		<Point>
			<coordinates>143.8304214916047,-37.58060191684255,430.272851015234</coordinates>
		</Point>
	</Placemark>
	<Placemark id="064F101F0D3E1D0C4886">
		<name>6</name>
		<LookAt>
			<longitude>143.8305179918545</longitude>
			<latitude>-37.58062516482288</latitude>
			<altitude>430.1038962976604</altitude>
			<heading>97.80982286217885</heading>
			<tilt>0.09655622392956788</tilt>
			<gx:fovy>35</gx:fovy>
			<range>95.51864173270587</range>
			<altitudeMode>absolute</altitudeMode>
		</LookAt>
		<styleUrl>#__managed_style_0017487A553E1D0BC1F8</styleUrl>
		<Point>
			<coordinates>143.8304026157001,-37.58061618769667,430.3391966713016</coordinates>
		</Point>
	</Placemark>
	<Placemark id="0B4CB4E0423E1D0CFA14">
		<name>7</name>
		<LookAt>
			<longitude>143.8306295561101</longitude>
			<latitude>-37.58076998394348</latitude>
			<altitude>429.9025575196825</altitude>
			<heading>97.80975481096695</heading>
			<tilt>0.0965562256055076</tilt>
			<gx:fovy>35</gx:fovy>
			<range>95.71997974394435</range>
			<altitudeMode>absolute</altitudeMode>
		</LookAt>
		<styleUrl>#__managed_style_0017487A553E1D0BC1F8</styleUrl>
		<Point>
			<coordinates>143.8306015108787,-37.58072708531046,429.8862510331077</coordinates>
		</Point>
	</Placemark>
	<Placemark id="07C17692B43E1D0CE8BF">
		<name>8</name>
		<LookAt>
			<longitude>143.8306295561101</longitude>
			<latitude>-37.58076998394348</latitude>
			<altitude>429.9025575196825</altitude>
			<heading>97.80975481096695</heading>
			<tilt>0.0965562256055076</tilt>
			<gx:fovy>35</gx:fovy>
			<range>95.71997974394435</range>
			<altitudeMode>absolute</altitudeMode>
		</LookAt>
		<styleUrl>#__managed_style_0017487A553E1D0BC1F8</styleUrl>
		<Point>
			<coordinates>143.8305868042734,-37.58074752343296,430.0826031443589</coordinates>
		</Point>
	</Placemark>
	<Placemark id="04E39AB9103E1D0D4561">
		<name>9</name>
		<LookAt>
			<longitude>143.8308465558738</longitude>
			<latitude>-37.58078582184567</latitude>
			<altitude>429.2953277751309</altitude>
			<heading>97.80962245936372</heading>
			<tilt>0.09655623420036016</tilt>
			<gx:fovy>35</gx:fovy>
			<range>96.3272154639708</range>
			<altitudeMode>absolute</altitudeMode>
		</LookAt>
		<styleUrl>#__managed_style_0017487A553E1D0BC1F8</styleUrl>
		<Point>
			<coordinates>143.8308214329032,-37.58078630786665,429.3766011533461</coordinates>
		</Point>
	</Placemark>
	<Placemark id="075CF561393E1D0D5449">
		<name>10</name>
		<LookAt>
			<longitude>143.8308465558738</longitude>
			<latitude>-37.58078582184567</latitude>
			<altitude>429.2953277751309</altitude>
			<heading>97.80962245936372</heading>
			<tilt>0.09655623420036016</tilt>
			<gx:fovy>35</gx:fovy>
			<range>96.3272154639708</range>
			<altitudeMode>absolute</altitudeMode>
		</LookAt>
		<styleUrl>#__managed_style_0017487A553E1D0BC1F8</styleUrl>
		<Point>
			<coordinates>143.8308167357494,-37.5808079081935,429.4143486635901</coordinates>
		</Point>
	</Placemark>
	<Placemark id="0F8063AE703E1D0D71E9">
		<name>11</name>
		<LookAt>
			<longitude>143.8310812409962</longitude>
			<latitude>-37.58082396944052</latitude>
			<altitude>429.1990649013165</altitude>
			<heading>97.80947932584566</heading>
			<tilt>0.09655623496283715</tilt>
			<gx:fovy>35</gx:fovy>
			<range>96.42347203411191</range>
			<altitudeMode>absolute</altitudeMode>
		</LookAt>
		<styleUrl>#__managed_style_0017487A553E1D0BC1F8</styleUrl>
		<Point>
			<coordinates>143.8310328468501,-37.58078669678147,429.1976400589617</coordinates>
		</Point>
	</Placemark>
	<Placemark id="06E3136CF63E1D0D7EA9">
		<name>12</name>
		<LookAt>
			<longitude>143.8310812409962</longitude>
			<latitude>-37.58082396944052</latitude>
			<altitude>429.1990649013165</altitude>
			<heading>97.80947932584566</heading>
			<tilt>0.09655623496283715</tilt>
			<gx:fovy>35</gx:fovy>
			<range>96.42347203411191</range>
			<altitudeMode>absolute</altitudeMode>
		</LookAt>
		<styleUrl>#__managed_style_0017487A553E1D0BC1F8</styleUrl>
		<Point>
			<coordinates>143.8310351283392,-37.58081219504724,429.2087673960901</coordinates>
		</Point>
	</Placemark>
	<Placemark id="00F713945A3E1D0DA7D0">
		<name>13</name>
		<LookAt>
			<longitude>143.831360682279</longitude>
			<latitude>-37.58076363633889</latitude>
			<altitude>429.6304221872836</altitude>
			<heading>97.8093089044466</heading>
			<tilt>0.09655622755699593</tilt>
			<gx:fovy>35</gx:fovy>
			<range>95.99211952682708</range>
			<altitudeMode>absolute</altitudeMode>
		</LookAt>
		<styleUrl>#__managed_style_0017487A553E1D0BC1F8</styleUrl>
		<Point>
			<coordinates>143.8312626834313,-37.58072245668989,429.3988676795271</coordinates>
		</Point>
	</Placemark>
	<Placemark id="0BAD38FFAA3E1D0DB58C">
		<name>14</name>
		<LookAt>
			<longitude>143.831360682279</longitude>
			<latitude>-37.58076363633889</latitude>
			<altitude>429.6304221872836</altitude>
			<heading>97.8093089044466</heading>
			<tilt>0.09655622755699593</tilt>
			<gx:fovy>35</gx:fovy>
			<range>95.99211952682708</range>
			<altitudeMode>absolute</altitudeMode>
		</LookAt>
		<styleUrl>#__managed_style_0017487A553E1D0BC1F8</styleUrl>
		<Point>
			<coordinates>143.8312773590874,-37.58074943576822,429.4690816025173</coordinates>
		</Point>
	</Placemark>
	<Placemark id="0E633AAE973E1D0E1EF4">
		<name>15</name>
		<LookAt>
			<longitude>143.8314641438366</longitude>
			<latitude>-37.58069352408894</latitude>
			<altitude>429.8445686302455</altitude>
			<heading>97.80924581046756</heading>
			<tilt>0.09655622401638458</tilt>
			<gx:fovy>35</gx:fovy>
			<range>95.77796430314265</range>
			<altitudeMode>absolute</altitudeMode>
		</LookAt>
		<styleUrl>#__managed_style_0017487A553E1D0BC1F8</styleUrl>
		<Point>
			<coordinates>143.8314331690381,-37.58061864525777,429.6885191954685</coordinates>
		</Point>
	</Placemark>
	<Placemark id="057D283DA73E1D0E2D64">
		<name>16</name>
		<LookAt>
			<longitude>143.8314641438366</longitude>
			<latitude>-37.58069352408894</latitude>
			<altitude>429.8445686302455</altitude>
			<heading>97.80924581046756</heading>
			<tilt>0.09655622401638458</tilt>
			<gx:fovy>35</gx:fovy>
			<range>95.77796430314265</range>
			<altitudeMode>absolute</altitudeMode>
		</LookAt>
		<styleUrl>#__managed_style_0017487A553E1D0BC1F8</styleUrl>
		<Point>
			<coordinates>143.8314562936444,-37.58063966162575,429.7403387310929</coordinates>
		</Point>
	</Placemark>
	<Placemark id="0F8FCB34DA3E1D0E4F70">
		<name>17</name>
		<LookAt>
			<longitude>143.8315571259947</longitude>
			<latitude>-37.58063076714465</latitude>
			<altitude>429.9075010099255</altitude>
			<heading>97.80918909975125</heading>
			<tilt>0.0965562224234869</tilt>
			<gx:fovy>35</gx:fovy>
			<range>95.71504291528072</range>
			<altitudeMode>absolute</altitudeMode>
		</LookAt>
		<styleUrl>#__managed_style_0017487A553E1D0BC1F8</styleUrl>
		<Point>
			<coordinates>143.8315640767552,-37.5804688571118,429.8843429482747</coordinates>
		</Point>
	</Placemark>
	<Placemark id="0CA663E70B3E1D0E5DD4">
		<name>18</name>
		<LookAt>
			<longitude>143.8315571259947</longitude>
			<latitude>-37.58063076714465</latitude>
			<altitude>429.9075010099255</altitude>
			<heading>97.80918909975125</heading>
			<tilt>0.0965562224234869</tilt>
			<gx:fovy>35</gx:fovy>
			<range>95.71504291528072</range>
			<altitudeMode>absolute</altitudeMode>
		</LookAt>
		<styleUrl>#__managed_style_0017487A553E1D0BC1F8</styleUrl>
		<Point>
			<coordinates>143.8315941820358,-37.58047790087941,430.0100474831424</coordinates>
		</Point>
	</Placemark>
	<Placemark id="0D6DD90D8D3E1D0E8A19">
		<name>19</name>
		<LookAt>
			<longitude>143.8316677033383</longitude>
			<latitude>-37.58039671921344</latitude>
			<altitude>430.0725444496065</altitude>
			<heading>97.80912165779309</heading>
			<tilt>0.09655621929808568</tilt>
			<gx:fovy>35</gx:fovy>
			<range>95.5499952302398</range>
			<altitudeMode>absolute</altitudeMode>
		</LookAt>
		<styleUrl>#__managed_style_0017487A553E1D0BC1F8</styleUrl>
		<Point>
			<coordinates>143.8316313346302,-37.58028937313129,430.1197348779602</coordinates>
		</Point>
	</Placemark>
	<Placemark id="0C5C96F03D3E1D0E9D0C">
		<name>20</name>
		<LookAt>
			<longitude>143.8316677033383</longitude>
			<latitude>-37.58039671921344</latitude>
			<altitude>430.0725444496065</altitude>
			<heading>97.80912165779309</heading>
			<tilt>0.09655621929808568</tilt>
			<gx:fovy>35</gx:fovy>
			<range>95.5499952302398</range>
			<altitudeMode>absolute</altitudeMode>
		</LookAt>
		<styleUrl>#__managed_style_0017487A553E1D0BC1F8</styleUrl>
		<Point>
			<coordinates>143.8316633607771,-37.58029325107563,429.9976026217161</coordinates>
		</Point>
	</Placemark>
	<Placemark id="09D06D2D1E3E1D0EC330">
		<name>21</name>
		<LookAt>
			<longitude>143.8316893928202</longitude>
			<latitude>-37.58013653624192</latitude>
			<altitude>430.0893471212777</altitude>
			<heading>97.80910846565251</heading>
			<tilt>0.09655621829403163</tilt>
			<gx:fovy>35</gx:fovy>
			<range>95.53319726510382</range>
			<altitudeMode>absolute</altitudeMode>
		</LookAt>
		<styleUrl>#__managed_style_0017487A553E1D0BC1F8</styleUrl>
		<Point>
			<coordinates>143.8316661291825,-37.58010603157258,430.1521675343663</coordinates>
		</Point>
	</Placemark>
	<Placemark id="0CB49149773E1D0ED120">
		<name>22</name>
		<LookAt>
			<longitude>143.8316893928202</longitude>
			<latitude>-37.58013653624192</latitude>
			<altitude>430.0893471212777</altitude>
			<heading>97.80910846565251</heading>
			<tilt>0.09655621829403163</tilt>
			<gx:fovy>35</gx:fovy>
			<range>95.53319726510382</range>
			<altitudeMode>absolute</altitudeMode>
		</LookAt>
		<styleUrl>#__managed_style_0017487A553E1D0BC1F8</styleUrl>
		<Point>
			<coordinates>143.8317003503574,-37.58010969061903,430.1521696619975</coordinates>
		</Point>
	</Placemark>
	<Placemark id="03D5A0C9003E1D0F0588">
		<name>23</name>
		<LookAt>
			<longitude>143.8316893928202</longitude>
			<latitude>-37.58013653624192</latitude>
			<altitude>430.0893471212777</altitude>
			<heading>97.80910846565251</heading>
			<tilt>0.09655621829403163</tilt>
			<gx:fovy>35</gx:fovy>
			<range>95.53319726510382</range>
			<altitudeMode>absolute</altitudeMode>
		</LookAt>
		<styleUrl>#__managed_style_0017487A553E1D0BC1F8</styleUrl>
		<Point>
			<coordinates>143.8317035621927,-37.57991581409141,430.5261399928357</coordinates>
		</Point>
	</Placemark>
	<Placemark id="03B2A51F463E1D0F156B">
		<name>24</name>
		<LookAt>
			<longitude>143.8316893928202</longitude>
			<latitude>-37.58013653624192</latitude>
			<altitude>430.0893471212777</altitude>
			<heading>97.80910846565251</heading>
			<tilt>0.09655621829403163</tilt>
			<gx:fovy>35</gx:fovy>
			<range>95.53319726510382</range>
			<altitudeMode>absolute</altitudeMode>
		</LookAt>
		<styleUrl>#__managed_style_0017487A553E1D0BC1F8</styleUrl>
		<Point>
			<coordinates>143.831740701867,-37.57992047682004,430.5052217355063</coordinates>
		</Point>
	</Placemark>
	<Placemark id="0BB9F6B0AC3E1D0F40E8">
		<name>25</name>
		<LookAt>
			<longitude>143.8317465115692</longitude>
			<latitude>-37.57981504688188</latitude>
			<altitude>430.8040202505761</altitude>
			<heading>97.80907359487749</heading>
			<tilt>0.09655620661152244</tilt>
			<gx:fovy>35</gx:fovy>
			<range>94.81851598884532</range>
			<altitudeMode>absolute</altitudeMode>
		</LookAt>
		<styleUrl>#__managed_style_0017487A553E1D0BC1F8</styleUrl>
		<Point>
			<coordinates>143.8317424581544,-37.57971391891467,431.1832495396648</coordinates>
		</Point>
	</Placemark>
	<Placemark id="0109DBAD293E1D0F5FC4">
		<name>26</name>
		<LookAt>
			<longitude>143.8317722733954</longitude>
			<latitude>-37.5797577928892</latitude>
			<altitude>430.9706423360151</altitude>
			<heading>97.80907426501597</heading>
			<tilt>0.09655534968146288</tilt>
			<gx:fovy>35</gx:fovy>
			<range>38.34983842426937</range>
			<altitudeMode>absolute</altitudeMode>
		</LookAt>
		<styleUrl>#__managed_style_0017487A553E1D0BC1F8</styleUrl>
		<Point>
			<coordinates>143.8317752415402,-37.57971781833044,431.1572858256505</coordinates>
		</Point>
	</Placemark>
	<Placemark id="0EFDB684BA3E1D0FF368">
		<name>27</name>
		<LookAt>
			<longitude>143.8318344998111</longitude>
			<latitude>-37.57961218833385</latitude>
			<altitude>431.4050969041131</altitude>
			<heading>97.80910460730652</heading>
			<tilt>0.09655598671586091</tilt>
			<gx:fovy>35</gx:fovy>
			<range>80.50028744195515</range>
			<altitudeMode>absolute</altitudeMode>
		</LookAt>
		<styleUrl>#__managed_style_0017487A553E1D0BC1F8</styleUrl>
		<Point>
			<coordinates>143.8317740860083,-37.57952816637542,431.6854443044164</coordinates>
		</Point>
	</Placemark>
	<Placemark id="0EE7F4E42D3E1D100288">
		<name>28</name>
		<LookAt>
			<longitude>143.8318344998111</longitude>
			<latitude>-37.57961218833385</latitude>
			<altitude>431.4050969041131</altitude>
			<heading>97.80910460730652</heading>
			<tilt>0.09655598671586091</tilt>
			<gx:fovy>35</gx:fovy>
			<range>80.50028744195515</range>
			<altitudeMode>absolute</altitudeMode>
		</LookAt>
		<styleUrl>#__managed_style_0017487A553E1D0BC1F8</styleUrl>
		<Point>
			<coordinates>143.8318022418304,-37.57953145903,431.7224072138778</coordinates>
		</Point>
	</Placemark>
	<Placemark id="001E0FC5AD3E1D102AAF">
		<name>29</name>
		<LookAt>
			<longitude>143.8318744248303</longitude>
			<latitude>-37.57937775414845</latitude>
			<altitude>432.1330049787977</altitude>
			<heading>97.80908026115317</heading>
			<tilt>0.09655597472002783</tilt>
			<gx:fovy>35</gx:fovy>
			<range>79.77238913966175</range>
			<altitudeMode>absolute</altitudeMode>
		</LookAt>
		<styleUrl>#__managed_style_0017487A553E1D0BC1F8</styleUrl>
		<Point>
			<coordinates>143.8318037159336,-37.5793422326843,432.1530472830094</coordinates>
		</Point>
	</Placemark>
	<Placemark id="05FAB5C1AA3E1D103829">
		<name>30</name>
		<LookAt>
			<longitude>143.8318744248303</longitude>
			<latitude>-37.57937775414845</latitude>
			<altitude>432.1330049787977</altitude>
			<heading>97.80908026115317</heading>
			<tilt>0.09655597472002783</tilt>
			<gx:fovy>35</gx:fovy>
			<range>79.77238913966175</range>
			<altitudeMode>absolute</altitudeMode>
		</LookAt>
		<styleUrl>#__managed_style_0017487A553E1D0BC1F8</styleUrl>
		<Point>
			<coordinates>143.831840264401,-37.5793455025856,432.1535580998143</coordinates>
		</Point>
	</Placemark>
	<Placemark id="094B1FDDBA3E1D105FF0">
		<name>31</name>
		<LookAt>
			<longitude>143.8318628673799</longitude>
			<latitude>-37.57920597331582</latitude>
			<altitude>432.4606925196946</altitude>
			<heading>97.80908732171532</heading>
			<tilt>0.09655596905427985</tilt>
			<gx:fovy>35</gx:fovy>
			<range>79.44469265111366</range>
			<altitudeMode>absolute</altitudeMode>
		</LookAt>
		<styleUrl>#__managed_style_0017487A553E1D0BC1F8</styleUrl>
		<Point>
			<coordinates>143.8318200007558,-37.57913173406191,432.6272081203048</coordinates>
		</Point>
	</Placemark>
	<Placemark id="0AC54B7A703E1D107026">
		<name>32</name>
		<LookAt>
			<longitude>143.8318628673799</longitude>
			<latitude>-37.57920597331582</latitude>
			<altitude>432.4606925196946</altitude>
			<heading>97.80908732171532</heading>
			<tilt>0.09655596905427985</tilt>
			<gx:fovy>35</gx:fovy>
			<range>79.44469265111366</range>
			<altitudeMode>absolute</altitudeMode>
		</LookAt>
		<styleUrl>#__managed_style_0017487A553E1D0BC1F8</styleUrl>
		<Point>
			<coordinates>143.8318530742437,-37.57912843409285,432.6501402428012</coordinates>
		</Point>
	</Placemark>
	<Placemark id="03C8D363EE3E1D10A953">
		<name>33</name>
		<LookAt>
			<longitude>143.8318318197798</longitude>
			<latitude>-37.57911923832374</latitude>
			<altitude>432.6509999713163</altitude>
			<heading>97.80910625309838</heading>
			<tilt>0.09655596516261665</tilt>
			<gx:fovy>35</gx:fovy>
			<range>79.25438717717043</range>
			<altitudeMode>absolute</altitudeMode>
		</LookAt>
		<styleUrl>#__managed_style_0017487A553E1D0BC1F8</styleUrl>
		<Point>
			<coordinates>143.8317887584017,-37.57897351080926,432.9021055834091</coordinates>
		</Point>
	</Placemark>
	<Placemark id="0805F28E5D3E1D10B846">
		<name>34</name>
		<LookAt>
			<longitude>143.8318318197798</longitude>
			<latitude>-37.57911923832374</latitude>
			<altitude>432.6509999713163</altitude>
			<heading>97.80910625309838</heading>
			<tilt>0.09655596516261665</tilt>
			<gx:fovy>35</gx:fovy>
			<range>79.25438717717043</range>
			<altitudeMode>absolute</altitudeMode>
		</LookAt>
		<styleUrl>#__managed_style_0017487A553E1D0BC1F8</styleUrl>
		<Point>
			<coordinates>143.8318143069987,-37.57896683993585,432.9562874092719</coordinates>
		</Point>
	</Placemark>
	<Placemark id="04141ABAA53E1D1104B4">
		<name>35</name>
		<LookAt>
			<longitude>143.8316748967755</longitude>
			<latitude>-37.57889641903193</latitude>
			<altitude>432.9379207164778</altitude>
			<heading>97.80920195320697</heading>
			<tilt>0.09655595979506541</tilt>
			<gx:fovy>35</gx:fovy>
			<range>78.96746008589616</range>
			<altitudeMode>absolute</altitudeMode>
		</LookAt>
		<styleUrl>#__managed_style_0017487A553E1D0BC1F8</styleUrl>
		<Point>
			<coordinates>143.8316890618079,-37.5788146163753,433.0357584900613</coordinates>
		</Point>
	</Placemark>
	<Placemark id="0F30822AE53E1D1110E0">
		<name>36</name>
		<LookAt>
			<longitude>143.8316748967755</longitude>
			<latitude>-37.57889641903193</latitude>
			<altitude>432.9379207164778</altitude>
			<heading>97.80920195320697</heading>
			<tilt>0.09655595979506541</tilt>
			<gx:fovy>35</gx:fovy>
			<range>78.96746008589616</range>
			<altitudeMode>absolute</altitudeMode>
		</LookAt>
		<styleUrl>#__managed_style_0017487A553E1D0BC1F8</styleUrl>
		<Point>
			<coordinates>143.8317096017581,-37.57879852389433,433.121943820348</coordinates>
		</Point>
	</Placemark>
	<Placemark id="0827F517C63E1D114364">
		<name>37</name>
		<LookAt>
			<longitude>143.831474574332</longitude>
			<latitude>-37.57883229582743</latitude>
			<altitude>432.6325288689826</altitude>
			<heading>97.80932409930348</heading>
			<tilt>0.09655596156537595</tilt>
			<gx:fovy>35</gx:fovy>
			<range>79.27285392946033</range>
			<altitudeMode>absolute</altitudeMode>
		</LookAt>
		<styleUrl>#__managed_style_0017487A553E1D0BC1F8</styleUrl>
		<Point>
			<coordinates>143.8315163014437,-37.57868323132349,432.8305728006929</coordinates>
		</Point>
	</Placemark>
	<Placemark id="0E2391FD323E1D1154A6">
		<name>38</name>
		<LookAt>
			<longitude>143.831474574332</longitude>
			<latitude>-37.57883229582743</latitude>
			<altitude>432.6325288689826</altitude>
			<heading>97.80932409930348</heading>
			<tilt>0.09655596156537595</tilt>
			<gx:fovy>35</gx:fovy>
			<range>79.27285392946033</range>
			<altitudeMode>absolute</altitudeMode>
		</LookAt>
		<styleUrl>#__managed_style_0017487A553E1D0BC1F8</styleUrl>
		<Point>
			<coordinates>143.8315287143733,-37.57866442970935,432.8805551649792</coordinates>
		</Point>
	</Placemark>
	<Placemark id="0C7BE5A92C3E1D1185CE">
		<name>39</name>
		<LookAt>
			<longitude>143.8313670437506</longitude>
			<latitude>-37.57877051783221</latitude>
			<altitude>432.5613151870909</altitude>
			<heading>97.80938970358373</heading>
			<tilt>0.09655595968560059</tilt>
			<gx:fovy>35</gx:fovy>
			<range>79.34407289789306</range>
			<altitudeMode>absolute</altitudeMode>
		</LookAt>
		<styleUrl>#__managed_style_0017487A553E1D0BC1F8</styleUrl>
		<Point>
			<coordinates>143.8312852165084,-37.57860956556718,432.779257830542</coordinates>
		</Point>
	</Placemark>
	<Placemark id="0A13016D753E1D11959E">
		<name>40</name>
		<LookAt>
			<longitude>143.8313670437506</longitude>
			<latitude>-37.57877051783221</latitude>
			<altitude>432.5613151870909</altitude>
			<heading>97.80938970358373</heading>
			<tilt>0.09655595968560059</tilt>
			<gx:fovy>35</gx:fovy>
			<range>79.34407289789306</range>
			<altitudeMode>absolute</altitudeMode>
		</LookAt>
		<styleUrl>#__managed_style_0017487A553E1D0BC1F8</styleUrl>
		<Point>
			<coordinates>143.8312918645875,-37.5785840533441,432.7808533431528</coordinates>
		</Point>
	</Placemark>
	<Placemark id="02DE4E082B3E1D11D1F8">
		<name>41</name>
		<LookAt>
			<longitude>143.8311450187384</longitude>
			<latitude>-37.5787652186719</latitude>
			<altitude>432.2444288205729</altitude>
			<heading>97.80952510202363</heading>
			<tilt>0.09655596322622162</tilt>
			<gx:fovy>35</gx:fovy>
			<range>79.66095703633982</range>
			<altitudeMode>absolute</altitudeMode>
		</LookAt>
		<styleUrl>#__managed_style_0017487A553E1D0BC1F8</styleUrl>
		<Point>
			<coordinates>143.8310416915342,-37.578603674861,432.4337932265474</coordinates>
		</Point>
	</Placemark>
	<Placemark id="080B838CAE3E1D11E038">
		<name>42</name>
		<LookAt>
			<longitude>143.8311450187384</longitude>
			<latitude>-37.5787652186719</latitude>
			<altitude>432.2444288205729</altitude>
			<heading>97.80952510202363</heading>
			<tilt>0.09655596322622162</tilt>
			<gx:fovy>35</gx:fovy>
			<range>79.66095703633982</range>
			<altitudeMode>absolute</altitudeMode>
		</LookAt>
		<styleUrl>#__managed_style_0017487A553E1D0BC1F8</styleUrl>
		<Point>
			<coordinates>143.8310416857077,-37.57857587286074,432.5340738305463</coordinates>
		</Point>
	</Placemark>
	<Placemark id="022DD1FAB43E1D122634">
		<name>43</name>
		<LookAt>
			<longitude>143.8308544341291</longitude>
			<latitude>-37.57867430002329</latitude>
			<altitude>432.3834077751757</altitude>
			<heading>97.80970230452679</heading>
			<tilt>0.09655595890047351</tilt>
			<gx:fovy>35</gx:fovy>
			<range>79.52198415057865</range>
			<altitudeMode>absolute</altitudeMode>
		</LookAt>
		<styleUrl>#__managed_style_0017487A553E1D0BC1F8</styleUrl>
		<Point>
			<coordinates>143.8308334718483,-37.57865545079815,432.4233597504094</coordinates>
		</Point>
	</Placemark>
	<Placemark id="0F51A90F9E3E1D12336C">
		<name>44</name>
		<LookAt>
			<longitude>143.8308544341291</longitude>
			<latitude>-37.57867430002329</latitude>
			<altitude>432.3834077751757</altitude>
			<heading>97.80970230452679</heading>
			<tilt>0.09655595890047351</tilt>
			<gx:fovy>35</gx:fovy>
			<range>79.52198415057865</range>
			<altitudeMode>absolute</altitudeMode>
		</LookAt>
		<styleUrl>#__managed_style_0017487A553E1D0BC1F8</styleUrl>
		<Point>
			<coordinates>143.8308166024823,-37.57862963039299,432.5728518612212</coordinates>
		</Point>
	</Placemark>
	<Placemark id="052B61ED8D3E1D126F0F">
		<name>45</name>
		<LookAt>
			<longitude>143.8306795277989</longitude>
			<latitude>-37.5788121365686</latitude>
			<altitude>432.2066291536571</altitude>
			<heading>97.80980896931183</heading>
			<tilt>0.09655596020650219</tilt>
			<gx:fovy>35</gx:fovy>
			<range>79.69875390649578</range>
			<altitudeMode>absolute</altitudeMode>
		</LookAt>
		<styleUrl>#__managed_style_0017487A553E1D0BC1F8</styleUrl>
		<Point>
			<coordinates>143.8306516612718,-37.57877129072945,432.3318616076224</coordinates>
		</Point>
	</Placemark>
	<Placemark id="04C37B45CF3E1D127AD4">
		<name>46</name>
		<LookAt>
			<longitude>143.8306795277989</longitude>
			<latitude>-37.5788121365686</latitude>
			<altitude>432.2066291536571</altitude>
			<heading>97.80980896931183</heading>
			<tilt>0.09655596020650219</tilt>
			<gx:fovy>35</gx:fovy>
			<range>79.69875390649578</range>
			<altitudeMode>absolute</altitudeMode>
		</LookAt>
		<styleUrl>#__managed_style_0017487A553E1D0BC1F8</styleUrl>
		<Point>
			<coordinates>143.830626928333,-37.57875366682621,432.533809097489</coordinates>
		</Point>
	</Placemark>
	<Placemark id="04D44DCA913E1D12BA80">
		<name>47</name>
		<LookAt>
			<longitude>143.8305435101616</longitude>
			<latitude>-37.57898222847233</latitude>
			<altitude>431.8196071140104</altitude>
			<heading>97.8098919348439</heading>
			<tilt>0.09655596404909515</tilt>
			<gx:fovy>35</gx:fovy>
			<range>80.08577925500505</range>
			<altitudeMode>absolute</altitudeMode>
		</LookAt>
		<styleUrl>#__managed_style_0017487A553E1D0BC1F8</styleUrl>
		<Point>
			<coordinates>143.8305162674104,-37.57893657734145,432.0489253356762</coordinates>
		</Point>
	</Placemark>
	<Placemark id="0A0A5224FF3E1D12C969">
		<name>48</name>
		<LookAt>
			<longitude>143.8305435101616</longitude>
			<latitude>-37.57898222847233</latitude>
			<altitude>431.8196071140104</altitude>
			<heading>97.8098919348439</heading>
			<tilt>0.09655596404909515</tilt>
			<gx:fovy>35</gx:fovy>
			<range>80.08577925500505</range>
			<altitudeMode>absolute</altitudeMode>
		</LookAt>
		<styleUrl>#__managed_style_0017487A553E1D0BC1F8</styleUrl>
		<Point>
			<coordinates>143.8304831834714,-37.57892844353624,432.1638608185861</coordinates>
		</Point>
	</Placemark>
	<Placemark id="0F167B285F3E1D12F304">
		<name>49</name>
		<LookAt>
			<longitude>143.8305075237303</longitude>
			<latitude>-37.57910992986455</latitude>
			<altitude>431.5780590574748</altitude>
			<heading>97.80991387823818</heading>
			<tilt>0.09655596670644814</tilt>
			<gx:fovy>35</gx:fovy>
			<range>80.32731881233305</range>
			<altitudeMode>absolute</altitudeMode>
		</LookAt>
		<styleUrl>#__managed_style_0017487A553E1D0BC1F8</styleUrl>
		<Point>
			<coordinates>143.8304545941916,-37.57910963433054,431.6090033184468</coordinates>
		</Point>
	</Placemark>
	<Placemark id="034A891D6D3E1D13004C">
		<name>50</name>
		<LookAt>
			<longitude>143.8305075237303</longitude>
			<latitude>-37.57910992986455</latitude>
			<altitude>431.5780590574748</altitude>
			<heading>97.80991387823818</heading>
			<tilt>0.09655596670644814</tilt>
			<gx:fovy>35</gx:fovy>
			<range>80.32731881233305</range>
			<altitudeMode>absolute</altitudeMode>
		</LookAt>
		<styleUrl>#__managed_style_0017487A553E1D0BC1F8</styleUrl>
		<Point>
			<coordinates>143.8304174446471,-37.57910378771588,431.7369231629989</coordinates>
		</Point>
	</Placemark>
	<Placemark id="074781BDEF3E1D133FD4">
		<name>51</name>
		<LookAt>
			<longitude>143.8304500390958</longitude>
			<latitude>-37.57924797268778</latitude>
			<altitude>431.1919211306378</altitude>
			<heading>97.8099489348904</heading>
			<tilt>0.09655597118318186</tilt>
			<gx:fovy>35</gx:fovy>
			<range>80.71346920646647</range>
			<altitudeMode>absolute</altitudeMode>
		</LookAt>
		<styleUrl>#__managed_style_0017487A553E1D0BC1F8</styleUrl>
		<Point>
			<coordinates>143.8304137174533,-37.57930628330673,431.1104299432527</coordinates>
		</Point>
	</Placemark>
	<Placemark id="05BEE313343E1D134E17">
		<name>52</name>
		<LookAt>
			<longitude>143.8304500390958</longitude>
			<latitude>-37.57924797268778</latitude>
			<altitude>431.1919211306378</altitude>
			<heading>97.8099489348904</heading>
			<tilt>0.09655597118318186</tilt>
			<gx:fovy>35</gx:fovy>
			<range>80.71346920646647</range>
			<altitudeMode>absolute</altitudeMode>
		</LookAt>
		<styleUrl>#__managed_style_0017487A553E1D0BC1F8</styleUrl>
		<Point>
			<coordinates>143.8303765825584,-37.57930187898882,431.1945190956406</coordinates>
		</Point>
	</Placemark>
	<Placemark id="0AEB22D3FE3E1D137803">
		<name>53</name>
		<LookAt>
			<longitude>143.8304444900717</longitude>
			<latitude>-37.57939785281457</latitude>
			<altitude>430.8173338801208</altitude>
			<heading>97.80995229702555</heading>
			<tilt>0.09655597642994372</tilt>
			<gx:fovy>35</gx:fovy>
			<range>81.08805397851938</range>
			<altitudeMode>absolute</altitudeMode>
		</LookAt>
		<styleUrl>#__managed_style_0017487A553E1D0BC1F8</styleUrl>
		<Point>
			<coordinates>143.8303747272955,-37.57949340312815,430.6420161009294</coordinates>
		</Point>
	</Placemark>
	<Placemark id="0B8BE61B893E1D1384D6">
		<name>54</name>
		<LookAt>
			<longitude>143.8304444900717</longitude>
			<latitude>-37.57939785281457</latitude>
			<altitude>430.8173338801208</altitude>
			<heading>97.80995229702555</heading>
			<tilt>0.09655597642994372</tilt>
			<gx:fovy>35</gx:fovy>
			<range>81.08805397851938</range>
			<altitudeMode>absolute</altitudeMode>
		</LookAt>
		<styleUrl>#__managed_style_0017487A553E1D0BC1F8</styleUrl>
		<Point>
			<coordinates>143.8303437745831,-37.57949062374279,430.7636873756025</coordinates>
		</Point>
	</Placemark>
	<Placemark id="02510BDA6B3E1D13E891">
		<name>55</name>
		<LookAt>
			<longitude>143.8304060617508</longitude>
			<latitude>-37.57968280235605</latitude>
			<altitude>430.3400433624171</altitude>
			<heading>97.80997574093463</heading>
			<tilt>0.09655598067264877</tilt>
			<gx:fovy>35</gx:fovy>
			<range>81.56535028213513</range>
			<altitudeMode>absolute</altitudeMode>
		</LookAt>
		<styleUrl>#__managed_style_0017487A553E1D0BC1F8</styleUrl>
		<Point>
			<coordinates>143.8303469413116,-37.57967393713115,430.4220581564432</coordinates>
		</Point>
	</Placemark>
	<Placemark id="011218D0633E1D13F428">
		<name>56</name>
		<LookAt>
			<longitude>143.8304060617508</longitude>
			<latitude>-37.57968280235605</latitude>
			<altitude>430.3400433624171</altitude>
			<heading>97.80997574093463</heading>
			<tilt>0.09655598067264877</tilt>
			<gx:fovy>35</gx:fovy>
			<range>81.56535028213513</range>
			<altitudeMode>absolute</altitudeMode>
		</LookAt>
		<styleUrl>#__managed_style_0017487A553E1D0BC1F8</styleUrl>
		<Point>
			<coordinates>143.8303135452173,-37.57966971224006,430.5257419673624</coordinates>
		</Point>
	</Placemark>
	<Placemark id="013B5837C13E1D1416BB">
		<name>57</name>
		<LookAt>
			<longitude>143.8302789136952</longitude>
			<latitude>-37.57985482640507</latitude>
			<altitude>430.2677680505615</altitude>
			<heading>97.81005328746879</heading>
			<tilt>0.09655598119732492</tilt>
			<gx:fovy>35</gx:fovy>
			<range>81.63761803693887</range>
			<altitudeMode>absolute</altitudeMode>
		</LookAt>
		<styleUrl>#__managed_style_0017487A553E1D0BC1F8</styleUrl>
		<Point>
			<coordinates>143.8303126347804,-37.57986477757711,430.2279844255605</coordinates>
		</Point>
	</Placemark>
	<Placemark id="036F3030173E1D1424FC">
		<name>58</name>
		<LookAt>
			<longitude>143.8302789136952</longitude>
			<latitude>-37.57985482640507</latitude>
			<altitude>430.2677680505615</altitude>
			<heading>97.81005328745415</heading>
			<tilt>0.09655598119355027</tilt>
			<gx:fovy>35</gx:fovy>
			<range>81.63761803693887</range>
			<altitudeMode>absolute</altitudeMode>
		</LookAt>
		<styleUrl>#__managed_style_0017487A553E1D0BC1F8</styleUrl>
		<Point>
			<coordinates>143.8302823173022,-37.57986084198281,430.2873503860906</coordinates>
		</Point>
	</Placemark>
	<Placemark id="03EC2C7D5B3E1D1443B7">
		<name>59</name>
		<LookAt>
			<longitude>143.8302593103325</longitude>
			<latitude>-37.58010504201557</latitude>
			<altitude>430.157132752194</altitude>
			<heading>97.8100652446804</heading>
			<tilt>0.09655598168047994</tilt>
			<gx:fovy>35</gx:fovy>
			<range>81.74825630748273</range>
			<altitudeMode>absolute</altitudeMode>
		</LookAt>
		<styleUrl>#__managed_style_0017487A553E1D0BC1F8</styleUrl>
		<Point>
			<coordinates>143.8302789793762,-37.58005403712789,430.1489485613509</coordinates>
		</Point>
	</Placemark>
	<Placemark id="086D2EC3A03E1D14528E">
		<name>60</name>
		<LookAt>
			<longitude>143.8302593103325</longitude>
			<latitude>-37.58010504201557</latitude>
			<altitude>430.157132752194</altitude>
			<heading>97.8100652446804</heading>
			<tilt>0.09655598168047994</tilt>
			<gx:fovy>35</gx:fovy>
			<range>81.74825630748273</range>
			<altitudeMode>absolute</altitudeMode>
		</LookAt>
		<styleUrl>#__managed_style_0017487A553E1D0BC1F8</styleUrl>
		<Point>
			<coordinates>143.8302417376685,-37.58005041013236,430.1955697889457</coordinates>
		</Point>
	</Placemark>
</Document>
</kml>
