<?xml version="1.0" encoding="UTF-8"?>
<kml xmlns="http://www.opengis.net/kml/2.2" xmlns:gx="http://www.google.com/kml/ext/2.2" xmlns:kml="http://www.opengis.net/kml/2.2" xmlns:atom="http://www.w3.org/2005/Atom">
<Document id="1yhzvklK1zpF1tgpv8U3fAkqXhky2F7US">
	<name>Newmarket - July</name>
	<gx:CascadingStyle kml:id="__managed_style_20FF78838E2F4A17909F">
		<Style>
			<IconStyle>
				<scale>1.2</scale>
				<Icon>
					<href>https://earth.google.com/earth/rpc/cc/icon?color=1976d2&amp;id=2000&amp;scale=4</href>
				</Icon>
				<hotSpot x="64" y="128" xunits="pixels" yunits="insetPixels"/>
			</IconStyle>
			<LabelStyle>
			</LabelStyle>
			<LineStyle>
				<color>ff2dc0fb</color>
				<width>4.8</width>
			</LineStyle>
			<PolyStyle>
				<color>40ffffff</color>
			</PolyStyle>
			<BalloonStyle>
			</BalloonStyle>
		</Style>
	</gx:CascadingStyle>
	<gx:CascadingStyle kml:id="__managed_style_101AD4D09F2F4A17909F">
		<Style>
			<IconStyle>
				<Icon>
					<href>https://earth.google.com/earth/rpc/cc/icon?color=1976d2&amp;id=2000&amp;scale=4</href>
				</Icon>
				<hotSpot x="64" y="128" xunits="pixels" yunits="insetPixels"/>
			</IconStyle>
			<LabelStyle>
			</LabelStyle>
			<LineStyle>
				<color>ff2dc0fb</color>
				<width>3.2</width>
			</LineStyle>
			<PolyStyle>
				<color>40ffffff</color>
			</PolyStyle>
			<BalloonStyle>
			</BalloonStyle>
		</Style>
	</gx:CascadingStyle>
	<StyleMap id="__managed_style_0B045693A62F4A17909F">
		<Pair>
			<key>normal</key>
			<styleUrl>#__managed_style_101AD4D09F2F4A17909F</styleUrl>
		</Pair>
		<Pair>
			<key>highlight</key>
			<styleUrl>#__managed_style_20FF78838E2F4A17909F</styleUrl>
		</Pair>
	</StyleMap>
	<Placemark id="05820F45412F491F9A14">
		<name>1</name>
		<LookAt>
			<longitude>0.3675613050067805</longitude>
			<latitude>52.23748576073675</latitude>
			<altitude>29.0987536003272</altitude>
			<heading>0</heading>
			<tilt>0</tilt>
			<gx:fovy>35</gx:fovy>
			<range>3847.336494660122</range>
			<altitudeMode>absolute</altitudeMode>
		</LookAt>
		<styleUrl>#__managed_style_0B045693A62F4A17909F</styleUrl>
		<Point>
			<coordinates>0.3250946443871583,52.22755270274033,42.22565534376206</coordinates>
		</Point>
	</Placemark>
	<Placemark id="02073C2A952F4926D4B4">
		<name>2</name>
		<LookAt>
			<longitude>0.3275338230924141</longitude>
			<latitude>52.227785349489</latitude>
			<altitude>39.82982345391184</altitude>
			<heading>18.82615883242209</heading>
			<tilt>4.569511105110831</tilt>
			<gx:fovy>35</gx:fovy>
			<range>663.8329608374625</range>
			<altitudeMode>absolute</altitudeMode>
		</LookAt>
		<styleUrl>#__managed_style_0B045693A62F4A17909F</styleUrl>
		<Point>
			<coordinates>0.3255209609341025,52.2280595220899,37.05215761109945</coordinates>
		</Point>
	</Placemark>
	<Placemark id="0523C1FEB22F4926F35D">
		<name>3</name>
		<LookAt>
			<longitude>0.3275338230924141</longitude>
			<latitude>52.227785349489</latitude>
			<altitude>39.82982345391184</altitude>
			<heading>18.82615883242209</heading>
			<tilt>4.569511105110831</tilt>
			<gx:fovy>35</gx:fovy>
			<range>663.8329608374625</range>
			<altitudeMode>absolute</altitudeMode>
		</LookAt>
		<styleUrl>#__managed_style_0B045693A62F4A17909F</styleUrl>
		<Point>
			<coordinates>0.3259639742466969,52.22851117614085,35.98446368552018</coordinates>
		</Point>
	</Placemark>
	<Placemark id="069D7EC3692F492716D8">
		<name>4</name>
		<LookAt>
			<longitude>0.3275338230924141</longitude>
			<latitude>52.227785349489</latitude>
			<altitude>39.82982345391184</altitude>
			<heading>18.82615883242209</heading>
			<tilt>4.569511105110831</tilt>
			<gx:fovy>35</gx:fovy>
			<range>663.8329608374625</range>
			<altitudeMode>absolute</altitudeMode>
		</LookAt>
		<styleUrl>#__managed_style_0B045693A62F4A17909F</styleUrl>
		<Point>
			<coordinates>0.3264826229889906,52.22904226067449,35.2333278173626</coordinates>
		</Point>
	</Placemark>
	<Placemark id="08987754852F4927416B">
		<name>5</name>
		<LookAt>
			<longitude>0.3289843019892458</longitude>
			<latitude>52.22953858109837</latitude>
			<altitude>37.34174134321878</altitude>
			<heading>18.82730539441634</heading>
			<tilt>4.569512893328984</tilt>
			<gx:fovy>35</gx:fovy>
			<range>666.328956512516</range>
			<altitudeMode>absolute</altitudeMode>
		</LookAt>
		<styleUrl>#__managed_style_0B045693A62F4A17909F</styleUrl>
		<Point>
			<coordinates>0.3270010826136827,52.22952867083389,34.48024473508818</coordinates>
		</Point>
	</Placemark>
	<Placemark id="0B7C94467D2F49275237">
		<name>6</name>
		<LookAt>
			<longitude>0.3289843019892458</longitude>
			<latitude>52.22953858109837</latitude>
			<altitude>37.34174134321878</altitude>
			<heading>18.82730539441634</heading>
			<tilt>4.569512893328984</tilt>
			<gx:fovy>35</gx:fovy>
			<range>666.328956512516</range>
			<altitudeMode>absolute</altitudeMode>
		</LookAt>
		<styleUrl>#__managed_style_0B045693A62F4A17909F</styleUrl>
		<Point>
			<coordinates>0.3275860896402438,52.23011453206603,33.80949423820161</coordinates>
		</Point>
	</Placemark>
	<Placemark id="0C4C34C4342F49276676">
		<name>7</name>
		<LookAt>
			<longitude>0.3289843019892458</longitude>
			<latitude>52.22953858109837</latitude>
			<altitude>37.34174134321878</altitude>
			<heading>18.82730539441634</heading>
			<tilt>4.569512893328984</tilt>
			<gx:fovy>35</gx:fovy>
			<range>666.328956512516</range>
			<altitudeMode>absolute</altitudeMode>
		</LookAt>
		<styleUrl>#__managed_style_0B045693A62F4A17909F</styleUrl>
		<Point>
			<coordinates>0.3281452393097495,52.230587344187,33.78275242656892</coordinates>
		</Point>
	</Placemark>
	<Placemark id="0090F9F1522F49277EF0">
		<name>8</name>
		<LookAt>
			<longitude>0.3289843019892458</longitude>
			<latitude>52.22953858109837</latitude>
			<altitude>37.34174134321878</altitude>
			<heading>18.82730539441634</heading>
			<tilt>4.569512893328984</tilt>
			<gx:fovy>35</gx:fovy>
			<range>666.328956512516</range>
			<altitudeMode>absolute</altitudeMode>
		</LookAt>
		<styleUrl>#__managed_style_0B045693A62F4A17909F</styleUrl>
		<Point>
			<coordinates>0.3287763014538503,52.23106348999814,32.12894188682749</coordinates>
		</Point>
	</Placemark>
	<Placemark id="077EC885A12F4927DE2E">
		<name>9</name>
		<LookAt>
			<longitude>0.3303625433978263</longitude>
			<latitude>52.23175029816689</latitude>
			<altitude>32.09553493998496</altitude>
			<heading>18.82930499483426</heading>
			<tilt>4.569687547560761</tilt>
			<gx:fovy>35</gx:fovy>
			<range>910.1235088374233</range>
			<altitudeMode>absolute</altitudeMode>
		</LookAt>
		<styleUrl>#__managed_style_0B045693A62F4A17909F</styleUrl>
		<Point>
			<coordinates>0.3294194944015327,52.2316018950829,32.1299533022944</coordinates>
		</Point>
	</Placemark>
	<Placemark id="0E0DD82CD72F49280947">
		<name>10</name>
		<LookAt>
			<longitude>0.3303625433978263</longitude>
			<latitude>52.23175029816689</latitude>
			<altitude>32.09553493998496</altitude>
			<heading>18.82930499483426</heading>
			<tilt>4.569687547560761</tilt>
			<gx:fovy>35</gx:fovy>
			<range>910.1235088374233</range>
			<altitudeMode>absolute</altitudeMode>
		</LookAt>
		<styleUrl>#__managed_style_0B045693A62F4A17909F</styleUrl>
		<Point>
			<coordinates>0.3300839205689976,52.23212571823925,32.12909004157548</coordinates>
		</Point>
	</Placemark>
	<Placemark id="032DB683732F49282649">
		<name>11</name>
		<LookAt>
			<longitude>0.3307510657625667</longitude>
			<latitude>52.23239837733789</latitude>
			<altitude>31.60180987183085</altitude>
			<heading>18.82915840890675</heading>
			<tilt>4.569335487742828</tilt>
			<gx:fovy>35</gx:fovy>
			<range>418.6924389625347</range>
			<altitudeMode>absolute</altitudeMode>
		</LookAt>
		<styleUrl>#__managed_style_0B045693A62F4A17909F</styleUrl>
		<Point>
			<coordinates>0.3306647283554431,52.23265165470259,31.32984515353835</coordinates>
		</Point>
	</Placemark>
	<Placemark id="078EEE787E2F49283790">
		<name>12</name>
		<LookAt>
			<longitude>0.3307510657625667</longitude>
			<latitude>52.23239837733789</latitude>
			<altitude>31.60180987183085</altitude>
			<heading>18.82915840890675</heading>
			<tilt>4.569335487742828</tilt>
			<gx:fovy>35</gx:fovy>
			<range>418.6924389625347</range>
			<altitudeMode>absolute</altitudeMode>
		</LookAt>
		<styleUrl>#__managed_style_0B045693A62F4A17909F</styleUrl>
		<Point>
			<coordinates>0.3311614486837522,52.23319514314687,30.64208265303018</coordinates>
		</Point>
	</Placemark>
	<Placemark id="03C6C909A12F492876AB">
		<name>13</name>
		<LookAt>
			<longitude>0.3324142432613497</longitude>
			<latitude>52.23358961054872</latitude>
			<altitude>30.24186397900361</altitude>
			<heading>18.83853608335814</heading>
			<tilt>4.569461267930736</tilt>
			<gx:fovy>35</gx:fovy>
			<range>594.2658135559032</range>
			<altitudeMode>absolute</altitudeMode>
		</LookAt>
		<styleUrl>#__managed_style_0B045693A62F4A17909F</styleUrl>
		<Point>
			<coordinates>0.3316880504330588,52.23362510045645,29.80138352918726</coordinates>
		</Point>
	</Placemark>
	<Placemark id="096CAAD8F42F492B552D">
		<name>14</name>
		<LookAt>
			<longitude>0.3324142432613497</longitude>
			<latitude>52.23358961054872</latitude>
			<altitude>30.24186397900361</altitude>
			<heading>18.83853608335814</heading>
			<tilt>4.569461267930736</tilt>
			<gx:fovy>35</gx:fovy>
			<range>594.2658135559032</range>
			<altitudeMode>absolute</altitudeMode>
		</LookAt>
		<styleUrl>#__managed_style_0B045693A62F4A17909F</styleUrl>
		<Point>
			<coordinates>0.3322681927681903,52.23411529500193,30.570582698912</coordinates>
		</Point>
	</Placemark>
	<Placemark id="01E5B0E6CA2F492B8506">
		<name>15</name>
		<LookAt>
			<longitude>0.3345243805008513</longitude>
			<latitude>52.23526150214056</latitude>
			<altitude>33.03490783032218</altitude>
			<heading>18.84014905233706</heading>
			<tilt>4.569730843814198</tilt>
			<gx:fovy>35</gx:fovy>
			<range>970.5603044031886</range>
			<altitudeMode>absolute</altitudeMode>
		</LookAt>
		<styleUrl>#__managed_style_0B045693A62F4A17909F</styleUrl>
		<Point>
			<coordinates>0.3329614713163798,52.23465427337208,32.37010559871933</coordinates>
		</Point>
	</Placemark>
	<Placemark id="040A5013EF2F492B98E1">
		<name>16</name>
		<LookAt>
			<longitude>0.3345243805008513</longitude>
			<latitude>52.23526150214056</latitude>
			<altitude>33.03490783032218</altitude>
			<heading>18.84014905233706</heading>
			<tilt>4.569730843814198</tilt>
			<gx:fovy>35</gx:fovy>
			<range>970.5603044031886</range>
			<altitudeMode>absolute</altitudeMode>
		</LookAt>
		<styleUrl>#__managed_style_0B045693A62F4A17909F</styleUrl>
		<Point>
			<coordinates>0.3335805758077326,52.23516274216038,34.27146342620704</coordinates>
		</Point>
	</Placemark>
	<Placemark id="051A5C37792F492BB64E">
		<name>17</name>
		<LookAt>
			<longitude>0.3345243805008513</longitude>
			<latitude>52.23526150214056</latitude>
			<altitude>33.03490783032218</altitude>
			<heading>18.84014905233706</heading>
			<tilt>4.569730843814198</tilt>
			<gx:fovy>35</gx:fovy>
			<range>970.5603044031886</range>
			<altitudeMode>absolute</altitudeMode>
		</LookAt>
		<styleUrl>#__managed_style_0B045693A62F4A17909F</styleUrl>
		<Point>
			<coordinates>0.3342492821670784,52.23570181180899,34.80848165857046</coordinates>
		</Point>
	</Placemark>
	<Placemark id="091BB881BE2F492BE2B4">
		<name>18</name>
		<LookAt>
			<longitude>0.3345243805008513</longitude>
			<latitude>52.23526150203678</latitude>
			<altitude>33.03490783032218</altitude>
			<heading>18.84014905275643</heading>
			<tilt>4.569730843715674</tilt>
			<gx:fovy>35</gx:fovy>
			<range>970.5603044031886</range>
			<altitudeMode>absolute</altitudeMode>
		</LookAt>
		<styleUrl>#__managed_style_0B045693A62F4A17909F</styleUrl>
		<Point>
			<coordinates>0.334976989882465,52.23628552284489,35.05161932160251</coordinates>
		</Point>
	</Placemark>
	<Placemark id="0DE4B1E59E2F492C0578">
		<name>19</name>
		<LookAt>
			<longitude>0.3399515477646053</longitude>
			<latitude>52.23771960182685</latitude>
			<altitude>26.72585598178446</altitude>
			<heading>18.84432073220944</heading>
			<tilt>4.570079940952894</tilt>
			<gx:fovy>35</gx:fovy>
			<range>1457.854682699544</range>
			<altitudeMode>absolute</altitudeMode>
		</LookAt>
		<styleUrl>#__managed_style_0B045693A62F4A17909F</styleUrl>
		<Point>
			<coordinates>0.335748811443608,52.23693610117406,32.78266022146169</coordinates>
		</Point>
	</Placemark>
	<Placemark id="05B3D88D622F492C1943">
		<name>20</name>
		<LookAt>
			<longitude>0.3399515477646053</longitude>
			<latitude>52.23771960182685</latitude>
			<altitude>26.72585598178446</altitude>
			<heading>18.84432073220944</heading>
			<tilt>4.570079940952894</tilt>
			<gx:fovy>35</gx:fovy>
			<range>1457.854682699544</range>
			<altitudeMode>absolute</altitudeMode>
		</LookAt>
		<styleUrl>#__managed_style_0B045693A62F4A17909F</styleUrl>
		<Point>
			<coordinates>0.3366557586884733,52.23747003150118,31.96233785911357</coordinates>
		</Point>
	</Placemark>
	<Placemark id="00AD9E720A2F492C29DC">
		<name>21</name>
		<LookAt>
			<longitude>0.3399515477646053</longitude>
			<latitude>52.23771960182685</latitude>
			<altitude>26.72585598178446</altitude>
			<heading>18.84432073220944</heading>
			<tilt>4.570079940952894</tilt>
			<gx:fovy>35</gx:fovy>
			<range>1457.854682699544</range>
			<altitudeMode>absolute</altitudeMode>
		</LookAt>
		<styleUrl>#__managed_style_0B045693A62F4A17909F</styleUrl>
		<Point>
			<coordinates>0.337610399709467,52.23794500690463,29.33032040243846</coordinates>
		</Point>
	</Placemark>
	<Placemark id="04966F3F5F2F492C3B2D">
		<name>22</name>
		<LookAt>
			<longitude>0.3399515477646053</longitude>
			<latitude>52.23771960182685</latitude>
			<altitude>26.72585598178446</altitude>
			<heading>18.84432073220944</heading>
			<tilt>4.570079940952894</tilt>
			<gx:fovy>35</gx:fovy>
			<range>1457.854682699544</range>
			<altitudeMode>absolute</altitudeMode>
		</LookAt>
		<styleUrl>#__managed_style_0B045693A62F4A17909F</styleUrl>
		<Point>
			<coordinates>0.3386240272605612,52.23849196235502,27.0209465516554</coordinates>
		</Point>
	</Placemark>
	<Placemark id="01BF2905942F492C4E0D">
		<name>23</name>
		<LookAt>
			<longitude>0.3399515477646053</longitude>
			<latitude>52.23771960182685</latitude>
			<altitude>26.72585598178446</altitude>
			<heading>18.84432073220944</heading>
			<tilt>4.570079940952894</tilt>
			<gx:fovy>35</gx:fovy>
			<range>1457.854682699544</range>
			<altitudeMode>absolute</altitudeMode>
		</LookAt>
		<styleUrl>#__managed_style_0B045693A62F4A17909F</styleUrl>
		<Point>
			<coordinates>0.3395641163976371,52.23893364088921,26.29872828608381</coordinates>
		</Point>
	</Placemark>
	<Placemark id="085A556F5F2F492CB14F">
		<name>24</name>
		<LookAt>
			<longitude>0.3459741893707147</longitude>
			<latitude>52.24130301384319</latitude>
			<altitude>28.93572376268855</altitude>
			<heading>18.84908201728989</heading>
			<tilt>4.57007835246733</tilt>
			<gx:fovy>35</gx:fovy>
			<range>1455.637791675981</range>
			<altitudeMode>absolute</altitudeMode>
		</LookAt>
		<styleUrl>#__managed_style_0B045693A62F4A17909F</styleUrl>
		<Point>
			<coordinates>0.3404983732456413,52.23943763592465,25.81614585009747</coordinates>
		</Point>
	</Placemark>
	<Placemark id="02F893B74C2F492CCAA8">
		<name>25</name>
		<LookAt>
			<longitude>0.3459741893707147</longitude>
			<latitude>52.24130301384319</latitude>
			<altitude>28.93572376268855</altitude>
			<heading>18.84908201728989</heading>
			<tilt>4.57007835246733</tilt>
			<gx:fovy>35</gx:fovy>
			<range>1455.637791675981</range>
			<altitudeMode>absolute</altitudeMode>
		</LookAt>
		<styleUrl>#__managed_style_0B045693A62F4A17909F</styleUrl>
		<Point>
			<coordinates>0.3413823217657019,52.23989635047629,25.72895736155964</coordinates>
		</Point>
	</Placemark>
	<Placemark id="0C2A8800422F492CE4D4">
		<name>26</name>
		<LookAt>
			<longitude>0.3459741893707147</longitude>
			<latitude>52.24130301384319</latitude>
			<altitude>28.93572376268855</altitude>
			<heading>18.84908201728989</heading>
			<tilt>4.57007835246733</tilt>
			<gx:fovy>35</gx:fovy>
			<range>1455.637791675981</range>
			<altitudeMode>absolute</altitudeMode>
		</LookAt>
		<styleUrl>#__managed_style_0B045693A62F4A17909F</styleUrl>
		<Point>
			<coordinates>0.3426721607542182,52.24058448016537,27.6578978495448</coordinates>
		</Point>
	</Placemark>
	<Placemark id="074D60BBE22F49315BAB">
		<name>27</name>
		<LookAt>
			<longitude>0.3450360148116949</longitude>
			<latitude>52.23949791329478</latitude>
			<altitude>27.26914131850902</altitude>
			<heading>18.84944127556044</heading>
			<tilt>4.569472723011552</tilt>
			<gx:fovy>35</gx:fovy>
			<range>610.2569664581825</range>
			<altitudeMode>absolute</altitudeMode>
		</LookAt>
		<styleUrl>#__managed_style_0B045693A62F4A17909F</styleUrl>
		<Point>
			<coordinates>0.343754876204494,52.24022256023213,26.0580025719256</coordinates>
		</Point>
	</Placemark>
	<Placemark id="00725BD0C22F49316746">
		<name>29</name>
		<LookAt>
			<longitude>0.3450360148116949</longitude>
			<latitude>52.23949791329478</latitude>
			<altitude>27.26914131850902</altitude>
			<heading>18.84944127556044</heading>
			<tilt>4.569472723011552</tilt>
			<gx:fovy>35</gx:fovy>
			<range>610.2569664581825</range>
			<altitudeMode>absolute</altitudeMode>
		</LookAt>
		<styleUrl>#__managed_style_0B045693A62F4A17909F</styleUrl>
		<Point>
			<coordinates>0.3446593822366673,52.23978022962812,27.16429626892661</coordinates>
		</Point>
	</Placemark>
	<Placemark id="0032320A492F49317512">
		<name>31</name>
		<LookAt>
			<longitude>0.3450360148116949</longitude>
			<latitude>52.23949791329478</latitude>
			<altitude>27.26914131850902</altitude>
			<heading>18.84944127556044</heading>
			<tilt>4.569472723011552</tilt>
			<gx:fovy>35</gx:fovy>
			<range>610.2569664581825</range>
			<altitudeMode>absolute</altitudeMode>
		</LookAt>
		<styleUrl>#__managed_style_0B045693A62F4A17909F</styleUrl>
		<Point>
			<coordinates>0.3456014159841558,52.23929367681907,27.29969175644707</coordinates>
		</Point>
	</Placemark>
	<Placemark id="018E9E3DB32F4931E54F">
		<name>33</name>
		<LookAt>
			<longitude>0.3466951948325891</longitude>
			<latitude>52.23846634712091</latitude>
			<altitude>28.73718714289262</altitude>
			<heading>18.8507529798973</heading>
			<tilt>4.569471667947684</tilt>
			<gx:fovy>35</gx:fovy>
			<range>608.7842154396641</range>
			<altitudeMode>absolute</altitudeMode>
		</LookAt>
		<styleUrl>#__managed_style_0B045693A62F4A17909F</styleUrl>
		<Point>
			<coordinates>0.3463649061021634,52.23888740678772,27.55323131544725</coordinates>
		</Point>
	</Placemark>
	<Placemark id="064AD8D8CC2F4931FD02">
		<name>35</name>
		<LookAt>
			<longitude>0.3466951948325891</longitude>
			<latitude>52.23846634712091</latitude>
			<altitude>28.73718714289262</altitude>
			<heading>18.8507529798973</heading>
			<tilt>4.569471667947684</tilt>
			<gx:fovy>35</gx:fovy>
			<range>608.7842154396641</range>
			<altitudeMode>absolute</altitudeMode>
		</LookAt>
		<styleUrl>#__managed_style_0B045693A62F4A17909F</styleUrl>
		<Point>
			<coordinates>0.3472538456047713,52.23841284335051,28.81657488443842</coordinates>
		</Point>
	</Placemark>
	<Placemark id="04A9299BD12F49321847">
		<name>37</name>
		<LookAt>
			<longitude>0.3466951948325891</longitude>
			<latitude>52.23846634712091</latitude>
			<altitude>28.73718714289262</altitude>
			<heading>18.8507529798973</heading>
			<tilt>4.569471667947684</tilt>
			<gx:fovy>35</gx:fovy>
			<range>608.7842154396641</range>
			<altitudeMode>absolute</altitudeMode>
		</LookAt>
		<styleUrl>#__managed_style_0B045693A62F4A17909F</styleUrl>
		<Point>
			<coordinates>0.348157693525819,52.23789048957885,29.07336312844264</coordinates>
		</Point>
	</Placemark>
	<Placemark id="0FC61A72A62F49322DF5">
		<name>39</name>
		<LookAt>
			<longitude>0.3466951948325891</longitude>
			<latitude>52.23846634712091</latitude>
			<altitude>28.73718714289262</altitude>
			<heading>18.8507529798973</heading>
			<tilt>4.569471667947684</tilt>
			<gx:fovy>35</gx:fovy>
			<range>608.7842154396641</range>
			<altitudeMode>absolute</altitudeMode>
		</LookAt>
		<styleUrl>#__managed_style_0B045693A62F4A17909F</styleUrl>
		<Point>
			<coordinates>0.3490489132095109,52.23743463678385,28.8846738534967</coordinates>
		</Point>
	</Placemark>
	<Placemark id="090B85396D2F49323F24">
		<name>41</name>
		<LookAt>
			<longitude>0.3466951948325891</longitude>
			<latitude>52.23846634712091</latitude>
			<altitude>28.73718714289262</altitude>
			<heading>18.8507529798973</heading>
			<tilt>4.569471667947684</tilt>
			<gx:fovy>35</gx:fovy>
			<range>608.7842154396641</range>
			<altitudeMode>absolute</altitudeMode>
		</LookAt>
		<styleUrl>#__managed_style_0B045693A62F4A17909F</styleUrl>
		<Point>
			<coordinates>0.3499171270071466,52.23697455361314,28.06246023797993</coordinates>
		</Point>
	</Placemark>
	<Placemark id="0A0B461BF32F49324FAE">
		<name>43</name>
		<LookAt>
			<longitude>0.3466951948325891</longitude>
			<latitude>52.23846634712091</latitude>
			<altitude>28.73718714289262</altitude>
			<heading>18.8507529798973</heading>
			<tilt>4.569471667947684</tilt>
			<gx:fovy>35</gx:fovy>
			<range>608.7842154396641</range>
			<altitudeMode>absolute</altitudeMode>
		</LookAt>
		<styleUrl>#__managed_style_0B045693A62F4A17909F</styleUrl>
		<Point>
			<coordinates>0.3508984683503136,52.23643792085867,29.21429644987496</coordinates>
		</Point>
	</Placemark>
	<Placemark id="055CE0B19E2F493260AC">
		<name>45</name>
		<LookAt>
			<longitude>0.3466951948325891</longitude>
			<latitude>52.23846634712091</latitude>
			<altitude>28.73718714289262</altitude>
			<heading>18.8507529798973</heading>
			<tilt>4.569471667947684</tilt>
			<gx:fovy>35</gx:fovy>
			<range>608.7842154396641</range>
			<altitudeMode>absolute</altitudeMode>
		</LookAt>
		<styleUrl>#__managed_style_0B045693A62F4A17909F</styleUrl>
		<Point>
			<coordinates>0.3518508893616312,52.23592378824547,30.8761083359533</coordinates>
		</Point>
	</Placemark>
	<Placemark id="022BA2DAE32F493286C2">
		<name>47</name>
		<LookAt>
			<longitude>0.3466951948325891</longitude>
			<latitude>52.23846634712091</latitude>
			<altitude>28.73718714289262</altitude>
			<heading>18.8507529798973</heading>
			<tilt>4.569471667947684</tilt>
			<gx:fovy>35</gx:fovy>
			<range>608.7842154396641</range>
			<altitudeMode>absolute</altitudeMode>
		</LookAt>
		<styleUrl>#__managed_style_0B045693A62F4A17909F</styleUrl>
		<Point>
			<coordinates>0.3527055852280325,52.23546870358928,31.66053640518822</coordinates>
		</Point>
	</Placemark>
	<Placemark id="0B28F8A7E82F4932995F">
		<name>49</name>
		<LookAt>
			<longitude>0.3466951948325891</longitude>
			<latitude>52.23846634712091</latitude>
			<altitude>28.73718714289262</altitude>
			<heading>18.8507529798973</heading>
			<tilt>4.569471667947684</tilt>
			<gx:fovy>35</gx:fovy>
			<range>608.7842154396641</range>
			<altitudeMode>absolute</altitudeMode>
		</LookAt>
		<styleUrl>#__managed_style_0B045693A62F4A17909F</styleUrl>
		<Point>
			<coordinates>0.3536300158478656,52.23498105418026,31.55743905635554</coordinates>
		</Point>
	</Placemark>
	<Placemark id="0493AF211B2F4932BD85">
		<name>51</name>
		<LookAt>
			<longitude>0.3521463898668764</longitude>
			<latitude>52.23538113621387</latitude>
			<altitude>31.10110951193973</altitude>
			<heading>18.85506242180161</heading>
			<tilt>4.56946996874446</tilt>
			<gx:fovy>35</gx:fovy>
			<range>606.4128225387685</range>
			<altitudeMode>absolute</altitudeMode>
		</LookAt>
		<styleUrl>#__managed_style_0B045693A62F4A17909F</styleUrl>
		<Point>
			<coordinates>0.3545121297637177,52.23449974855615,31.01253813231334</coordinates>
		</Point>
	</Placemark>
	<Placemark id="05CEC14ECF2F4932CFDD">
		<name>53</name>
		<LookAt>
			<longitude>0.3521463898668764</longitude>
			<latitude>52.23538113621387</latitude>
			<altitude>31.10110951193973</altitude>
			<heading>18.85506242180161</heading>
			<tilt>4.56946996874446</tilt>
			<gx:fovy>35</gx:fovy>
			<range>606.4128225387685</range>
			<altitudeMode>absolute</altitudeMode>
		</LookAt>
		<styleUrl>#__managed_style_0B045693A62F4A17909F</styleUrl>
		<Point>
			<coordinates>0.3555402788209094,52.2339631584039,31.61359072553026</coordinates>
		</Point>
	</Placemark>
	<Placemark id="0210AE182B2F4932E076">
		<name>55</name>
		<LookAt>
			<longitude>0.3521463898668764</longitude>
			<latitude>52.23538113621387</latitude>
			<altitude>31.10110951193973</altitude>
			<heading>18.85506242180161</heading>
			<tilt>4.56946996874446</tilt>
			<gx:fovy>35</gx:fovy>
			<range>606.4128225387685</range>
			<altitudeMode>absolute</altitudeMode>
		</LookAt>
		<styleUrl>#__managed_style_0B045693A62F4A17909F</styleUrl>
		<Point>
			<coordinates>0.3562902398121182,52.2335433182285,30.57998208892188</coordinates>
		</Point>
	</Placemark>
	<Placemark id="05695E9D6C2F4932EEFB">
		<name>57</name>
		<LookAt>
			<longitude>0.3521463898668764</longitude>
			<latitude>52.23538113621387</latitude>
			<altitude>31.10110951193973</altitude>
			<heading>18.85506242180161</heading>
			<tilt>4.56946996874446</tilt>
			<gx:fovy>35</gx:fovy>
			<range>606.4128225387685</range>
			<altitudeMode>absolute</altitudeMode>
		</LookAt>
		<styleUrl>#__managed_style_0B045693A62F4A17909F</styleUrl>
		<Point>
			<coordinates>0.3572089697373948,52.23304896253458,30.23136138227194</coordinates>
		</Point>
	</Placemark>
	<Placemark id="018FAC09CE2F4932FFD7">
		<name>59</name>
		<LookAt>
			<longitude>0.3521463898668764</longitude>
			<latitude>52.23538113621387</latitude>
			<altitude>31.10110951193973</altitude>
			<heading>18.85506242180161</heading>
			<tilt>4.56946996874446</tilt>
			<gx:fovy>35</gx:fovy>
			<range>606.4128225387685</range>
			<altitudeMode>absolute</altitudeMode>
		</LookAt>
		<styleUrl>#__managed_style_0B045693A62F4A17909F</styleUrl>
		<Point>
			<coordinates>0.3581576173539958,52.2325228397173,30.23127392151584</coordinates>
		</Point>
	</Placemark>
	<Placemark id="09D7C35B172F4933192D">
		<name>61</name>
		<LookAt>
			<longitude>0.3521463898668764</longitude>
			<latitude>52.23538113621387</latitude>
			<altitude>31.10110951193973</altitude>
			<heading>18.85506242180161</heading>
			<tilt>4.56946996874446</tilt>
			<gx:fovy>35</gx:fovy>
			<range>606.4128225387685</range>
			<altitudeMode>absolute</altitudeMode>
		</LookAt>
		<styleUrl>#__managed_style_0B045693A62F4A17909F</styleUrl>
		<Point>
			<coordinates>0.3588332576406539,52.23217425423379,30.60778718689481</coordinates>
		</Point>
	</Placemark>
	<Placemark id="0515B83F392F49332EE9">
		<name>63</name>
		<LookAt>
			<longitude>0.3521463898668764</longitude>
			<latitude>52.23538113621387</latitude>
			<altitude>31.10110951193973</altitude>
			<heading>18.85506242180161</heading>
			<tilt>4.56946996874446</tilt>
			<gx:fovy>35</gx:fovy>
			<range>606.4128225387685</range>
			<altitudeMode>absolute</altitudeMode>
		</LookAt>
		<styleUrl>#__managed_style_0B045693A62F4A17909F</styleUrl>
		<Point>
			<coordinates>0.3595581034414752,52.23178629327421,30.984218550224</coordinates>
		</Point>
	</Placemark>
	<Placemark id="0403B31F982F49333FAB">
		<name>65</name>
		<LookAt>
			<longitude>0.3521463898668764</longitude>
			<latitude>52.23538113621387</latitude>
			<altitude>31.10110951193973</altitude>
			<heading>18.85506242180161</heading>
			<tilt>4.56946996874446</tilt>
			<gx:fovy>35</gx:fovy>
			<range>606.4128225387685</range>
			<altitudeMode>absolute</altitudeMode>
		</LookAt>
		<styleUrl>#__managed_style_0B045693A62F4A17909F</styleUrl>
		<Point>
			<coordinates>0.3603086406767964,52.23139822693502,30.75525740109122</coordinates>
		</Point>
	</Placemark>
	<Placemark id="08B84482E72F493372E0">
		<name>67</name>
		<LookAt>
			<longitude>0.3537712243331903</longitude>
			<latitude>52.23348613693466</latitude>
			<altitude>30.40416258912906</altitude>
			<heading>18.85904845735104</heading>
			<tilt>4.570038215657374</tilt>
			<gx:fovy>35</gx:fovy>
			<range>1399.613732897124</range>
			<altitudeMode>absolute</altitudeMode>
		</LookAt>
		<styleUrl>#__managed_style_0B045693A62F4A17909F</styleUrl>
		<Point>
			<coordinates>0.3610468223775221,52.23098020491975,29.85690164463179</coordinates>
		</Point>
	</Placemark>
	<Placemark id="056A0470032F493388E1">
		<name>69</name>
		<LookAt>
			<longitude>0.3537712243331903</longitude>
			<latitude>52.23348613693466</latitude>
			<altitude>30.40416258912906</altitude>
			<heading>18.85904845735104</heading>
			<tilt>4.570038215657374</tilt>
			<gx:fovy>35</gx:fovy>
			<range>1399.613732897124</range>
			<altitudeMode>absolute</altitudeMode>
		</LookAt>
		<styleUrl>#__managed_style_0B045693A62F4A17909F</styleUrl>
		<Point>
			<coordinates>0.3618333548356456,52.23056891054996,30.57835382558459</coordinates>
		</Point>
	</Placemark>
	<Placemark id="0033E2F98D2F495BC5B0">
		<name>28</name>
		<LookAt>
			<longitude>0.3436465030543401</longitude>
			<latitude>52.23908602800285</latitude>
			<altitude>25.30927994950178</altitude>
			<heading>42.49330277480194</heading>
			<tilt>0</tilt>
			<gx:fovy>35</gx:fovy>
			<range>516.0795660452277</range>
			<altitudeMode>absolute</altitudeMode>
		</LookAt>
		<styleUrl>#__managed_style_0B045693A62F4A17909F</styleUrl>
		<Point>
			<coordinates>0.3432907266495633,52.23988889047691,26.06083954585792</coordinates>
		</Point>
	</Placemark>
	<Placemark id="007F02D0962F495C76C3">
		<name>71</name>
		<LookAt>
			<longitude>0.3436465030543401</longitude>
			<latitude>52.23908602789906</latitude>
			<altitude>25.30927994950178</altitude>
			<heading>42.49330277480194</heading>
			<tilt>0</tilt>
			<gx:fovy>35</gx:fovy>
			<range>516.0795660452278</range>
			<altitudeMode>absolute</altitudeMode>
		</LookAt>
		<styleUrl>#__managed_style_0B045693A62F4A17909F</styleUrl>
		<Point>
			<coordinates>0.3435716818588408,52.24009235994993,26.41270362239729</coordinates>
		</Point>
	</Placemark>
	<Placemark id="0D4C965CA52F495CCB96">
		<name>72</name>
		<LookAt>
			<longitude>0.3436465030543401</longitude>
			<latitude>52.23908602779528</latitude>
			<altitude>25.30927994950178</altitude>
			<heading>42.49330277480194</heading>
			<tilt>0</tilt>
			<gx:fovy>35</gx:fovy>
			<range>516.0795660452277</range>
			<altitudeMode>absolute</altitudeMode>
		</LookAt>
		<styleUrl>#__managed_style_0B045693A62F4A17909F</styleUrl>
		<Point>
			<coordinates>0.344525581263706,52.23966871858231,26.90784191977051</coordinates>
		</Point>
	</Placemark>
	<Placemark id="034ED6EF762F495CE338">
		<name>30</name>
		<LookAt>
			<longitude>0.3436465030543401</longitude>
			<latitude>52.23908602779528</latitude>
			<altitude>25.30927994950178</altitude>
			<heading>42.49330277480194</heading>
			<tilt>0</tilt>
			<gx:fovy>35</gx:fovy>
			<range>516.0795660452277</range>
			<altitudeMode>absolute</altitudeMode>
		</LookAt>
		<styleUrl>#__managed_style_0B045693A62F4A17909F</styleUrl>
		<Point>
			<coordinates>0.3443700144076689,52.23955489697271,26.16419570947324</coordinates>
		</Point>
	</Placemark>
	<Placemark id="09A83FC6C22F495D065F">
		<name>32</name>
		<LookAt>
			<longitude>0.3436465030543401</longitude>
			<latitude>52.23908602779528</latitude>
			<altitude>25.30927994950178</altitude>
			<heading>42.49330277480194</heading>
			<tilt>0</tilt>
			<gx:fovy>35</gx:fovy>
			<range>516.0795660452277</range>
			<altitudeMode>absolute</altitudeMode>
		</LookAt>
		<styleUrl>#__managed_style_0B045693A62F4A17909F</styleUrl>
		<Point>
			<coordinates>0.3452906456617599,52.23908476776142,27.18608387398935</coordinates>
		</Point>
	</Placemark>
	<Placemark id="05A46323F42F495E2739">
		<name>73</name>
		<LookAt>
			<longitude>0.3454808984440083</longitude>
			<latitude>52.23798060550954</latitude>
			<altitude>27.94144545100352</altitude>
			<heading>42.49475299874688</heading>
			<tilt>0</tilt>
			<gx:fovy>35</gx:fovy>
			<range>513.4473787963361</range>
			<altitudeMode>absolute</altitudeMode>
		</LookAt>
		<styleUrl>#__managed_style_0B045693A62F4A17909F</styleUrl>
		<Point>
			<coordinates>0.3454376604530007,52.23918266237537,27.19527174708031</coordinates>
		</Point>
	</Placemark>
	<Placemark id="0F9CDC140A2F49600157">
		<name>34</name>
		<LookAt>
			<longitude>0.3464175719125562</longitude>
			<latitude>52.23895643207373</latitude>
			<altitude>28.94527760054984</altitude>
			<heading>42.49484813077614</heading>
			<tilt>0</tilt>
			<gx:fovy>35</gx:fovy>
			<range>396.4038396038086</range>
			<altitudeMode>absolute</altitudeMode>
		</LookAt>
		<styleUrl>#__managed_style_0B045693A62F4A17909F</styleUrl>
		<Point>
			<coordinates>0.3460577760925387,52.23865908277633,28.04498815758481</coordinates>
		</Point>
	</Placemark>
	<Placemark id="02D1955F882F49601ADF">
		<name>36</name>
		<LookAt>
			<longitude>0.3464175719125562</longitude>
			<latitude>52.23895643207373</latitude>
			<altitude>28.94527760054984</altitude>
			<heading>42.49484813077614</heading>
			<tilt>0</tilt>
			<gx:fovy>35</gx:fovy>
			<range>396.4038396038086</range>
			<altitudeMode>absolute</altitudeMode>
		</LookAt>
		<styleUrl>#__managed_style_0B045693A62F4A17909F</styleUrl>
		<Point>
			<coordinates>0.3469552646167973,52.23818395664244,28.56795467856549</coordinates>
		</Point>
	</Placemark>
	<Placemark id="0CB7AE4CA12F4960420F">
		<name>38</name>
		<LookAt>
			<longitude>0.348976199845481</longitude>
			<latitude>52.2375104928774</latitude>
			<altitude>29.81490433836561</altitude>
			<heading>42.49687087510345</heading>
			<tilt>0</tilt>
			<gx:fovy>35</gx:fovy>
			<range>395.5342624310289</range>
			<altitudeMode>absolute</altitudeMode>
		</LookAt>
		<styleUrl>#__managed_style_0B045693A62F4A17909F</styleUrl>
		<Point>
			<coordinates>0.347849666437603,52.23768897877098,28.46869376472693</coordinates>
		</Point>
	</Placemark>
	<Placemark id="018639FFB42F49605670">
		<name>40</name>
		<LookAt>
			<longitude>0.348976199845481</longitude>
			<latitude>52.2375104928774</latitude>
			<altitude>29.81490433836561</altitude>
			<heading>42.49687087510345</heading>
			<tilt>0</tilt>
			<gx:fovy>35</gx:fovy>
			<range>395.5342624310289</range>
			<altitudeMode>absolute</altitudeMode>
		</LookAt>
		<styleUrl>#__managed_style_0B045693A62F4A17909F</styleUrl>
		<Point>
			<coordinates>0.3487563127517879,52.23722028126436,30.231572703751</coordinates>
		</Point>
	</Placemark>
	<Placemark id="082A6C64332F49606FD3">
		<name>42</name>
		<LookAt>
			<longitude>0.348976199845481</longitude>
			<latitude>52.2375104928774</latitude>
			<altitude>29.81490433836561</altitude>
			<heading>42.49687087510345</heading>
			<tilt>0</tilt>
			<gx:fovy>35</gx:fovy>
			<range>395.5342624310289</range>
			<altitudeMode>absolute</altitudeMode>
		</LookAt>
		<styleUrl>#__managed_style_0B045693A62F4A17909F</styleUrl>
		<Point>
			<coordinates>0.3496271051765554,52.23674999108585,31.27292086525542</coordinates>
		</Point>
	</Placemark>
	<Placemark id="01CF7EAE442F49608CA3">
		<name>44</name>
		<LookAt>
			<longitude>0.351310893245369</longitude>
			<latitude>52.23611084973968</latitude>
			<altitude>31.17480427633962</altitude>
			<heading>42.4987165505958</heading>
			<tilt>0</tilt>
			<gx:fovy>35</gx:fovy>
			<range>394.1743399661937</range>
			<altitudeMode>absolute</altitudeMode>
		</LookAt>
		<styleUrl>#__managed_style_0B045693A62F4A17909F</styleUrl>
		<Point>
			<coordinates>0.3506091003297684,52.23624170887183,31.31913309733593</coordinates>
		</Point>
	</Placemark>
	<Placemark id="0380955BA52F4960ED68">
		<name>46</name>
		<LookAt>
			<longitude>0.352302771502897</longitude>
			<latitude>52.23531949647578</latitude>
			<altitude>30.78413406359744</altitude>
			<heading>42.49950065879266</heading>
			<tilt>0</tilt>
			<gx:fovy>35</gx:fovy>
			<range>394.5649288706045</range>
			<altitudeMode>absolute</altitudeMode>
		</LookAt>
		<styleUrl>#__managed_style_0B045693A62F4A17909F</styleUrl>
		<Point>
			<coordinates>0.3515705818636383,52.23573810959194,31.953956995466</coordinates>
		</Point>
	</Placemark>
	<Placemark id="087401E3752F49610577">
		<name>48</name>
		<LookAt>
			<longitude>0.352302771502897</longitude>
			<latitude>52.23531949647578</latitude>
			<altitude>30.78413406359744</altitude>
			<heading>42.49950065879266</heading>
			<tilt>0</tilt>
			<gx:fovy>35</gx:fovy>
			<range>394.5649288706045</range>
			<altitudeMode>absolute</altitudeMode>
		</LookAt>
		<styleUrl>#__managed_style_0B045693A62F4A17909F</styleUrl>
		<Point>
			<coordinates>0.3524356369281789,52.23528029569689,30.71378220648418</coordinates>
		</Point>
	</Placemark>
	<Placemark id="02E61227572F4961215C">
		<name>50</name>
		<LookAt>
			<longitude>0.352302771502897</longitude>
			<latitude>52.23531949647578</latitude>
			<altitude>30.78413406359744</altitude>
			<heading>42.49950065879266</heading>
			<tilt>0</tilt>
			<gx:fovy>35</gx:fovy>
			<range>394.5649288706045</range>
			<altitudeMode>absolute</altitudeMode>
		</LookAt>
		<styleUrl>#__managed_style_0B045693A62F4A17909F</styleUrl>
		<Point>
			<coordinates>0.3533600928215153,52.23478227419517,30.23126535331884</coordinates>
		</Point>
	</Placemark>
	<Placemark id="049F8968512F49784E70">
		<name>52</name>
		<LookAt>
			<longitude>0.3544627899191477</longitude>
			<latitude>52.23417987647507</latitude>
			<altitude>30.57356548146178</altitude>
			<heading>42.50120820033062</heading>
			<tilt>0</tilt>
			<gx:fovy>35</gx:fovy>
			<range>394.7755205383874</range>
			<altitudeMode>absolute</altitudeMode>
		</LookAt>
		<styleUrl>#__managed_style_0B045693A62F4A17909F</styleUrl>
		<Point>
			<coordinates>0.354253775599096,52.2343153099836,30.27444630600235</coordinates>
		</Point>
	</Placemark>
	<Placemark id="018F6097822F4978674E">
		<name>54</name>
		<LookAt>
			<longitude>0.3544627899191477</longitude>
			<latitude>52.23417987647507</latitude>
			<altitude>30.57356548146178</altitude>
			<heading>42.50120820033062</heading>
			<tilt>0</tilt>
			<gx:fovy>35</gx:fovy>
			<range>394.7755205383874</range>
			<altitudeMode>absolute</altitudeMode>
		</LookAt>
		<styleUrl>#__managed_style_0B045693A62F4A17909F</styleUrl>
		<Point>
			<coordinates>0.3552589410293661,52.23377182419343,31.1393817774609</coordinates>
		</Point>
	</Placemark>
	<Placemark id="0AF91D524D2F4978913F">
		<name>56</name>
		<LookAt>
			<longitude>0.3567506779483964</longitude>
			<latitude>52.23297485595006</latitude>
			<altitude>29.87131856145065</altitude>
			<heading>42.50301678318077</heading>
			<tilt>0</tilt>
			<gx:fovy>35</gx:fovy>
			<range>395.4777554437896</range>
			<altitudeMode>absolute</altitudeMode>
		</LookAt>
		<styleUrl>#__managed_style_0B045693A62F4A17909F</styleUrl>
		<Point>
			<coordinates>0.3560183460009925,52.2333695085245,30.97619124295828</coordinates>
		</Point>
	</Placemark>
	<Placemark id="0DE40A3E452F4978A8DD">
		<name>58</name>
		<LookAt>
			<longitude>0.3567506779483964</longitude>
			<latitude>52.23297485595006</latitude>
			<altitude>29.87131856145065</altitude>
			<heading>42.50301678318077</heading>
			<tilt>0</tilt>
			<gx:fovy>35</gx:fovy>
			<range>395.4777554437896</range>
			<altitudeMode>absolute</altitudeMode>
		</LookAt>
		<styleUrl>#__managed_style_0B045693A62F4A17909F</styleUrl>
		<Point>
			<coordinates>0.3569499370170215,52.23287424787472,30.07967137636875</coordinates>
		</Point>
	</Placemark>
	<Placemark id="05B529E6B12F4978C261">
		<name>60</name>
		<LookAt>
			<longitude>0.3567506779483964</longitude>
			<latitude>52.23297485595006</latitude>
			<altitude>29.87131856145065</altitude>
			<heading>42.50301678318077</heading>
			<tilt>0</tilt>
			<gx:fovy>35</gx:fovy>
			<range>395.4777554437896</range>
			<altitudeMode>absolute</altitudeMode>
		</LookAt>
		<styleUrl>#__managed_style_0B045693A62F4A17909F</styleUrl>
		<Point>
			<coordinates>0.3579256875858849,52.232354205195,30.2192477616465</coordinates>
		</Point>
	</Placemark>
	<Placemark id="050A6FCBCC2F49793302">
		<name>62</name>
		<LookAt>
			<longitude>0.3588827226062974</longitude>
			<latitude>52.23177815063362</latitude>
			<altitude>33.52607400889151</altitude>
			<heading>42.50470215197306</heading>
			<tilt>0</tilt>
			<gx:fovy>35</gx:fovy>
			<range>391.8229725111451</range>
			<altitudeMode>absolute</altitudeMode>
		</LookAt>
		<styleUrl>#__managed_style_0B045693A62F4A17909F</styleUrl>
		<Point>
			<coordinates>0.3585779299703273,52.2319948099073,31.89866885892654</coordinates>
		</Point>
	</Placemark>
	<Placemark id="0D89208A2F2F49795A0E">
		<name>64</name>
		<LookAt>
			<longitude>0.3598942457085363</longitude>
			<latitude>52.23124766384399</latitude>
			<altitude>37.05520916519141</altitude>
			<heading>42.50550174973458</heading>
			<tilt>0</tilt>
			<gx:fovy>35</gx:fovy>
			<range>388.2938585222291</range>
			<altitudeMode>absolute</altitudeMode>
		</LookAt>
		<styleUrl>#__managed_style_0B045693A62F4A17909F</styleUrl>
		<Point>
			<coordinates>0.3593199455677332,52.2316084206799,35.08053204385678</coordinates>
		</Point>
	</Placemark>
	<Placemark id="07AD61785E2F49796F9D">
		<name>66</name>
		<LookAt>
			<longitude>0.3598942457085363</longitude>
			<latitude>52.23124766384399</latitude>
			<altitude>37.05520916519141</altitude>
			<heading>42.50550174973458</heading>
			<tilt>0</tilt>
			<gx:fovy>35</gx:fovy>
			<range>388.2938585222291</range>
			<altitudeMode>absolute</altitudeMode>
		</LookAt>
		<styleUrl>#__managed_style_0B045693A62F4A17909F</styleUrl>
		<Point>
			<coordinates>0.3600504961403495,52.23121509425107,37.21779064682533</coordinates>
		</Point>
	</Placemark>
	<Placemark id="0F0E3AF4162F4979B49F">
		<name>68</name>
		<LookAt>
			<longitude>0.3598942457085363</longitude>
			<latitude>52.23124766384399</latitude>
			<altitude>37.05520916519141</altitude>
			<heading>42.50550174973458</heading>
			<tilt>0</tilt>
			<gx:fovy>35</gx:fovy>
			<range>388.2938585222291</range>
			<altitudeMode>absolute</altitudeMode>
		</LookAt>
		<styleUrl>#__managed_style_0B045693A62F4A17909F</styleUrl>
		<Point>
			<coordinates>0.3608226415678661,52.23080515523071,38.43766497800134</coordinates>
		</Point>
	</Placemark>
	<Placemark id="03B76264472F4979EDF9">
		<name>70</name>
		<LookAt>
			<longitude>0.3612123605587447</longitude>
			<latitude>52.23056179401537</latitude>
			<altitude>38.84605271764788</altitude>
			<heading>42.50654370058839</heading>
			<tilt>0</tilt>
			<gx:fovy>35</gx:fovy>
			<range>386.5029949524978</range>
			<altitudeMode>absolute</altitudeMode>
		</LookAt>
		<styleUrl>#__managed_style_0B045693A62F4A17909F</styleUrl>
		<Point>
			<coordinates>0.3615920849278531,52.23040014318628,38.88945621863249</coordinates>
		</Point>
	</Placemark>
	<Placemark id="01246EA5DF2F4986591A">
		<name>74</name>
		<LookAt>
			<longitude>0.3461095528606717</longitude>
			<latitude>52.23875726279081</latitude>
			<altitude>28.27532069794676</altitude>
			<heading>42.49449894128679</heading>
			<tilt>0</tilt>
			<gx:fovy>35</gx:fovy>
			<range>237.3198667661563</range>
			<altitudeMode>absolute</altitudeMode>
		</LookAt>
		<styleUrl>#__managed_style_0B045693A62F4A17909F</styleUrl>
		<Point>
			<coordinates>0.3462108291506061,52.23877971507945,28.50567613246999</coordinates>
		</Point>
	</Placemark>
	<Placemark id="0E87F2DDBA2F49867AC1">
		<name>75</name>
		<LookAt>
			<longitude>0.3471152567234403</longitude>
			<latitude>52.23818681349952</latitude>
			<altitude>28.45852182460889</altitude>
			<heading>42.49529401720535</heading>
			<tilt>0</tilt>
			<gx:fovy>35</gx:fovy>
			<range>237.1366710208167</range>
			<altitudeMode>absolute</altitudeMode>
		</LookAt>
		<styleUrl>#__managed_style_0B045693A62F4A17909F</styleUrl>
		<Point>
			<coordinates>0.3471019937046771,52.2383045390828,28.66671628036938</coordinates>
		</Point>
	</Placemark>
	<Placemark id="0A08C0013C2F49869554">
		<name>76</name>
		<LookAt>
			<longitude>0.3478282585005399</longitude>
			<latitude>52.23778885641668</latitude>
			<altitude>28.25661775171632</altitude>
			<heading>42.49585768916221</heading>
			<tilt>0</tilt>
			<gx:fovy>35</gx:fovy>
			<range>237.338594266439</range>
			<altitudeMode>absolute</altitudeMode>
		</LookAt>
		<styleUrl>#__managed_style_0B045693A62F4A17909F</styleUrl>
		<Point>
			<coordinates>0.3480269046850615,52.23781068570445,28.2819541624747</coordinates>
		</Point>
	</Placemark>
	<Placemark id="06085304A32F4986B2DF">
		<name>77</name>
		<LookAt>
			<longitude>0.348905666404673</longitude>
			<latitude>52.23732904174849</latitude>
			<altitude>30.05174278423401</altitude>
			<heading>42.4967094419452</heading>
			<tilt>0</tilt>
			<gx:fovy>35</gx:fovy>
			<range>235.543489196025</range>
			<altitudeMode>absolute</altitudeMode>
		</LookAt>
		<styleUrl>#__managed_style_0B045693A62F4A17909F</styleUrl>
		<Point>
			<coordinates>0.3489176528711524,52.23733930017737,30.09328353641256</coordinates>
		</Point>
	</Placemark>
	<Placemark id="043903F5C12F4986D412">
		<name>78</name>
		<LookAt>
			<longitude>0.3499516485447751</longitude>
			<latitude>52.23680779261912</latitude>
			<altitude>31.40930746024206</altitude>
			<heading>42.49753634206489</heading>
			<tilt>0</tilt>
			<gx:fovy>35</gx:fovy>
			<range>234.1859076687251</range>
			<altitudeMode>absolute</altitudeMode>
		</LookAt>
		<styleUrl>#__managed_style_0B045693A62F4A17909F</styleUrl>
		<Point>
			<coordinates>0.3497902425412325,52.23687429072352,31.27330526856272</coordinates>
		</Point>
	</Placemark>
	<Placemark id="06E451E4882F4986F3F9">
		<name>79</name>
		<LookAt>
			<longitude>0.3507781273763677</longitude>
			<latitude>52.23629706818232</latitude>
			<altitude>31.00759577669999</altitude>
			<heading>42.49818971089829</heading>
			<tilt>0</tilt>
			<gx:fovy>35</gx:fovy>
			<range>234.5876218208286</range>
			<altitudeMode>absolute</altitudeMode>
		</LookAt>
		<styleUrl>#__managed_style_0B045693A62F4A17909F</styleUrl>
		<Point>
			<coordinates>0.3507689731158181,52.23635805695371,31.13459259436532</coordinates>
		</Point>
	</Placemark>
	<Placemark id="0F6BA52BC62F49871CED">
		<name>80</name>
		<LookAt>
			<longitude>0.3519202595146331</longitude>
			<latitude>52.2357442139904</latitude>
			<altitude>31.44045388861667</altitude>
			<heading>42.49909261059832</heading>
			<tilt>0</tilt>
			<gx:fovy>35</gx:fovy>
			<range>234.1547569751856</range>
			<altitudeMode>absolute</altitudeMode>
		</LookAt>
		<styleUrl>#__managed_style_0B045693A62F4A17909F</styleUrl>
		<Point>
			<coordinates>0.3517339329568303,52.23584723869179,31.75589654607863</coordinates>
		</Point>
	</Placemark>
	<Placemark id="0FFC0C01B02F49873B41">
		<name>81</name>
		<LookAt>
			<longitude>0.3531932153559492</longitude>
			<latitude>52.23497865558302</latitude>
			<altitude>30.00165202251414</altitude>
			<heading>42.50009892227376</heading>
			<tilt>0</tilt>
			<gx:fovy>35</gx:fovy>
			<range>235.593552810642</range>
			<altitudeMode>absolute</altitudeMode>
		</LookAt>
		<styleUrl>#__managed_style_0B045693A62F4A17909F</styleUrl>
		<Point>
			<coordinates>0.3525849284269822,52.23539037033419,30.61304533219665</coordinates>
		</Point>
	</Placemark>
	<Placemark id="03C4CE2A6D2F498750BE">
		<name>82</name>
		<LookAt>
			<longitude>0.3531932153559492</longitude>
			<latitude>52.23497865558302</latitude>
			<altitude>30.00165202251414</altitude>
			<heading>42.50009892227376</heading>
			<tilt>0</tilt>
			<gx:fovy>35</gx:fovy>
			<range>235.593552810642</range>
			<altitudeMode>absolute</altitudeMode>
		</LookAt>
		<styleUrl>#__managed_style_0B045693A62F4A17909F</styleUrl>
		<Point>
			<coordinates>0.353513618198007,52.23489615025912,30.03528914547002</coordinates>
		</Point>
	</Placemark>
	<Placemark id="077802D8602F498767FB">
		<name>83</name>
		<LookAt>
			<longitude>0.3543405508326747</longitude>
			<latitude>52.23446450894409</latitude>
			<altitude>30.13072427784704</altitude>
			<heading>42.50100591982818</heading>
			<tilt>0</tilt>
			<gx:fovy>35</gx:fovy>
			<range>235.4644767598074</range>
			<altitudeMode>absolute</altitudeMode>
		</LookAt>
		<styleUrl>#__managed_style_0B045693A62F4A17909F</styleUrl>
		<Point>
			<coordinates>0.3543922903732666,52.23442153072103,30.28241125095617</coordinates>
		</Point>
	</Placemark>
	<Placemark id="04FC569A352F49877E94">
		<name>84</name>
		<LookAt>
			<longitude>0.3559009224866805</longitude>
			<latitude>52.23365852384755</latitude>
			<altitude>30.7530164077566</altitude>
			<heading>42.5022394197199</heading>
			<tilt>0</tilt>
			<gx:fovy>35</gx:fovy>
			<range>234.8422045721964</range>
			<altitudeMode>absolute</altitudeMode>
		</LookAt>
		<styleUrl>#__managed_style_0B045693A62F4A17909F</styleUrl>
		<Point>
			<coordinates>0.3554002968915415,52.23387232013247,30.97634099946343</coordinates>
		</Point>
	</Placemark>
	<Placemark id="0C1CCBBA922F4987CD58">
		<name>85</name>
		<LookAt>
			<longitude>0.3559009225289467</longitude>
			<latitude>52.23365852374376</latitude>
			<altitude>30.7530164077566</altitude>
			<heading>42.5022394197199</heading>
			<tilt>0</tilt>
			<gx:fovy>35</gx:fovy>
			<range>234.8422045721964</range>
			<altitudeMode>absolute</altitudeMode>
		</LookAt>
		<styleUrl>#__managed_style_0B045693A62F4A17909F</styleUrl>
		<Point>
			<coordinates>0.3561760695803096,52.23346555454513,30.45851664721912</coordinates>
		</Point>
	</Placemark>
	<Placemark id="0302BFCE5C2F4987EEAE">
		<name>86</name>
		<LookAt>
			<longitude>0.3576055089453445</longitude>
			<latitude>52.23279235277016</latitude>
			<altitude>29.50774422139711</altitude>
			<heading>42.50358690784061</heading>
			<tilt>0</tilt>
			<gx:fovy>35</gx:fovy>
			<range>236.0874674529987</range>
			<altitudeMode>absolute</altitudeMode>
		</LookAt>
		<styleUrl>#__managed_style_0B045693A62F4A17909F</styleUrl>
		<Point>
			<coordinates>0.35708814578709,52.23297172114056,29.42806301618876</coordinates>
		</Point>
	</Placemark>
	<Placemark id="078FD9F96D2F498803B4">
		<name>87</name>
		<LookAt>
			<longitude>0.3576055089453445</longitude>
			<latitude>52.23279235277016</latitude>
			<altitude>29.50774422139711</altitude>
			<heading>42.50358690784061</heading>
			<tilt>0</tilt>
			<gx:fovy>35</gx:fovy>
			<range>236.0874674529987</range>
			<altitudeMode>absolute</altitudeMode>
		</LookAt>
		<styleUrl>#__managed_style_0B045693A62F4A17909F</styleUrl>
		<Point>
			<coordinates>0.3580509467017046,52.23244379870436,29.55785268080005</coordinates>
		</Point>
	</Placemark>
	<Placemark id="0EFE6C68A02F49881D9D">
		<name>88</name>
		<LookAt>
			<longitude>0.3588366150733457</longitude>
			<latitude>52.23215701616637</latitude>
			<altitude>30.9483379957476</altitude>
			<heading>42.50456009814994</heading>
			<tilt>0</tilt>
			<gx:fovy>35</gx:fovy>
			<range>234.6468637647922</range>
			<altitudeMode>absolute</altitudeMode>
		</LookAt>
		<styleUrl>#__managed_style_0B045693A62F4A17909F</styleUrl>
		<Point>
			<coordinates>0.3587243225032233,52.23209762276987,31.23614909388119</coordinates>
		</Point>
	</Placemark>
	<Placemark id="0B7D850DDA2F498831DD">
		<name>89</name>
		<LookAt>
			<longitude>0.3599704712157825</longitude>
			<latitude>52.23158417745539</latitude>
			<altitude>36.20017417760189</altitude>
			<heading>42.50545640191193</heading>
			<tilt>0</tilt>
			<gx:fovy>35</gx:fovy>
			<range>229.3950515258621</range>
			<altitudeMode>absolute</altitudeMode>
		</LookAt>
		<styleUrl>#__managed_style_0B045693A62F4A17909F</styleUrl>
		<Point>
			<coordinates>0.3594557419025102,52.23170581174853,35.15784875006723</coordinates>
		</Point>
	</Placemark>
	<Placemark id="04FB97B0CF2F498867C3">
		<name>90</name>
		<LookAt>
			<longitude>0.359989772746856</longitude>
			<latitude>52.23158205203353</latitude>
			<altitude>36.21646673554852</altitude>
			<heading>42.50547165966508</heading>
			<tilt>0</tilt>
			<gx:fovy>35</gx:fovy>
			<range>229.3787576735122</range>
			<altitudeMode>absolute</altitudeMode>
		</LookAt>
		<styleUrl>#__managed_style_0B045693A62F4A17909F</styleUrl>
		<Point>
			<coordinates>0.3602113904155524,52.23132027575002,37.05441088687832</coordinates>
		</Point>
	</Placemark>
	<Placemark id="064EC990362F49887E7B">
		<name>91</name>
		<LookAt>
			<longitude>0.3612594194383378</longitude>
			<latitude>52.23087332461809</latitude>
			<altitude>38.30726838612301</altitude>
			<heading>42.50647529753473</heading>
			<tilt>0</tilt>
			<gx:fovy>35</gx:fovy>
			<range>227.2879527904661</range>
			<altitudeMode>absolute</altitudeMode>
		</LookAt>
		<styleUrl>#__managed_style_0B045693A62F4A17909F</styleUrl>
		<Point>
			<coordinates>0.3609594635863211,52.23090706185466,38.29077798752104</coordinates>
		</Point>
	</Placemark>
	<Placemark id="0842ABF2E62F49889CC1">
		<name>92</name>
		<LookAt>
			<longitude>0.3612594194383378</longitude>
			<latitude>52.23087332461809</latitude>
			<altitude>38.30726838612301</altitude>
			<heading>42.50647529753473</heading>
			<tilt>0</tilt>
			<gx:fovy>35</gx:fovy>
			<range>227.2879527904661</range>
			<altitudeMode>absolute</altitudeMode>
		</LookAt>
		<styleUrl>#__managed_style_0B045693A62F4A17909F</styleUrl>
		<Point>
			<coordinates>0.3617375127581512,52.2304964096608,38.88157611299136</coordinates>
		</Point>
	</Placemark>
</Document>
</kml>
