<?xml version="1.0" encoding="UTF-8"?>
<kml xmlns="http://www.opengis.net/kml/2.2" xmlns:gx="http://www.google.com/kml/ext/2.2" xmlns:kml="http://www.opengis.net/kml/2.2" xmlns:atom="http://www.w3.org/2005/Atom">
<Document id="1TRC-ptZrdSdx0qjTnJeT7hrnr9FtBcYJ">
	<name>Ffos Las Jump</name>
	<gx:CascadingStyle kml:id="__managed_style_00C7DFC92C388DFC7EEE">
		<Style>
			<IconStyle>
				<scale>1.2</scale>
				<Icon>
					<href>https://earth.google.com/earth/document/icon?color=1976d2&amp;id=2000&amp;scale=4</href>
				</Icon>
				<hotSpot x="64" y="128" xunits="pixels" yunits="insetPixels"/>
			</IconStyle>
			<LabelStyle>
			</LabelStyle>
			<LineStyle>
				<color>ff2dc0fb</color>
				<width>6</width>
			</LineStyle>
			<PolyStyle>
				<color>40ffffff</color>
			</PolyStyle>
			<BalloonStyle>
			</BalloonStyle>
		</Style>
	</gx:CascadingStyle>
	<gx:CascadingStyle kml:id="__managed_style_4A9BCBBD6A388DFC7EEC">
		<Style>
			<IconStyle>
				<Icon>
					<href>https://earth.google.com/earth/document/icon?color=1976d2&amp;id=2000&amp;scale=4</href>
				</Icon>
				<hotSpot x="64" y="128" xunits="pixels" yunits="insetPixels"/>
			</IconStyle>
			<LabelStyle>
			</LabelStyle>
			<LineStyle>
				<color>ff2dc0fb</color>
				<width>4</width>
			</LineStyle>
			<PolyStyle>
				<color>40ffffff</color>
			</PolyStyle>
			<BalloonStyle>
			</BalloonStyle>
		</Style>
	</gx:CascadingStyle>
	<gx:CascadingStyle kml:id="__managed_style_2E2151BDC2388DFC7EF3">
		<Style>
			<IconStyle>
				<scale>1.2</scale>
				<Icon>
					<href>https://earth.google.com/earth/document/icon?color=fbc02d&amp;id=2000&amp;scale=4</href>
				</Icon>
				<hotSpot x="64" y="128" xunits="pixels" yunits="insetPixels"/>
			</IconStyle>
			<LabelStyle>
			</LabelStyle>
			<LineStyle>
				<color>ff2dc0fb</color>
				<width>6</width>
			</LineStyle>
			<PolyStyle>
				<color>40ffffff</color>
			</PolyStyle>
			<BalloonStyle>
				<displayMode>hide</displayMode>
			</BalloonStyle>
		</Style>
	</gx:CascadingStyle>
	<StyleMap id="__managed_style_3A5974EDDE388DFC7EEC">
		<Pair>
			<key>normal</key>
			<styleUrl>#__managed_style_4A9BCBBD6A388DFC7EEC</styleUrl>
		</Pair>
		<Pair>
			<key>highlight</key>
			<styleUrl>#__managed_style_00C7DFC92C388DFC7EEE</styleUrl>
		</Pair>
	</StyleMap>
	<gx:CascadingStyle kml:id="__managed_style_1059124366388DFC7EF3">
		<Style>
			<IconStyle>
				<Icon>
					<href>https://earth.google.com/earth/document/icon?color=fbc02d&amp;id=2000&amp;scale=4</href>
				</Icon>
				<hotSpot x="64" y="128" xunits="pixels" yunits="insetPixels"/>
			</IconStyle>
			<LabelStyle>
			</LabelStyle>
			<LineStyle>
				<color>ff2dc0fb</color>
				<width>4</width>
			</LineStyle>
			<PolyStyle>
				<color>40ffffff</color>
			</PolyStyle>
			<BalloonStyle>
				<displayMode>hide</displayMode>
			</BalloonStyle>
		</Style>
	</gx:CascadingStyle>
	<StyleMap id="__managed_style_06BAF72449388DFC7EF3">
		<Pair>
			<key>normal</key>
			<styleUrl>#__managed_style_1059124366388DFC7EF3</styleUrl>
		</Pair>
		<Pair>
			<key>highlight</key>
			<styleUrl>#__managed_style_2E2151BDC2388DFC7EF3</styleUrl>
		</Pair>
	</StyleMap>
	<Placemark id="0BFDEA4F6F388A9DB203">
		<name>Ffos Las Racecourse</name>
		<gx:mid>/m/06w8sv0</gx:mid>
		<gx:fid>0x486eef2a758e6f7d:0x961b462ed3f44709</gx:fid>
		<LookAt>
			<longitude>-4.243731700000001</longitude>
			<latitude>51.72632609999999</latitude>
			<altitude>0</altitude>
			<heading>0</heading>
			<tilt>0</tilt>
			<gx:fovy>35</gx:fovy>
			<range>624.5825827780186</range>
			<altitudeMode>relativeToGround</altitudeMode>
		</LookAt>
		<styleUrl>#__managed_style_06BAF72449388DFC7EF3</styleUrl>
		<Point>
			<altitudeMode>relativeToGround</altitudeMode>
			<coordinates>-4.238443784196417,51.73329406143517,0</coordinates>
		</Point>
	</Placemark>
	<Placemark id="0BD9E07E52388AA25851">
		<name>1</name>
		<LookAt>
			<longitude>-4.23502969783231</longitude>
			<latitude>51.73090200811527</latitude>
			<altitude>46.50135583919074</altitude>
			<heading>0</heading>
			<tilt>0</tilt>
			<gx:fovy>35</gx:fovy>
			<range>583.7297867941379</range>
			<altitudeMode>absolute</altitudeMode>
		</LookAt>
		<styleUrl>#__managed_style_3A5974EDDE388DFC7EEC</styleUrl>
		<Point>
			<coordinates>-4.237454960568389,51.73160359237195,47.27563819761635</coordinates>
		</Point>
	</Placemark>
	<Placemark id="03DA6C302F388AA276A4">
		<name>2</name>
		<LookAt>
			<longitude>-4.23502969783231</longitude>
			<latitude>51.73090200811527</latitude>
			<altitude>46.50135583919074</altitude>
			<heading>0</heading>
			<tilt>0</tilt>
			<gx:fovy>35</gx:fovy>
			<range>583.7297867941379</range>
			<altitudeMode>absolute</altitudeMode>
		</LookAt>
		<styleUrl>#__managed_style_3A5974EDDE388DFC7EEC</styleUrl>
		<Point>
			<coordinates>-4.237358658084991,51.73138597590935,47.09687615133492</coordinates>
		</Point>
	</Placemark>
	<Placemark id="08E52DDEA1388AA2F3FC">
		<name>3</name>
		<LookAt>
			<longitude>-4.237958715531413</longitude>
			<latitude>51.73091882918567</latitude>
			<altitude>45.20243351549583</altitude>
			<heading>0</heading>
			<tilt>0</tilt>
			<gx:fovy>35</gx:fovy>
			<range>812.5805819318339</range>
			<altitudeMode>absolute</altitudeMode>
		</LookAt>
		<styleUrl>#__managed_style_3A5974EDDE388DFC7EEC</styleUrl>
		<Point>
			<coordinates>-4.238830101475194,51.7310187697846,47.10192126001627</coordinates>
		</Point>
	</Placemark>
	<Placemark id="03C5A9475F388AA30B2B">
		<name>4</name>
		<LookAt>
			<longitude>-4.237958715531413</longitude>
			<latitude>51.73091882918567</latitude>
			<altitude>45.20243351549583</altitude>
			<heading>0</heading>
			<tilt>0</tilt>
			<gx:fovy>35</gx:fovy>
			<range>812.5805819318339</range>
			<altitudeMode>absolute</altitudeMode>
		</LookAt>
		<styleUrl>#__managed_style_3A5974EDDE388DFC7EEC</styleUrl>
		<Point>
			<coordinates>-4.238483659104013,51.73090882396402,46.32958308117757</coordinates>
		</Point>
	</Placemark>
	<Placemark id="0959A42FAD388AA335AE">
		<name>5</name>
		<LookAt>
			<longitude>-4.237958715531413</longitude>
			<latitude>51.73091882918567</latitude>
			<altitude>45.20243351549583</altitude>
			<heading>0</heading>
			<tilt>0</tilt>
			<gx:fovy>35</gx:fovy>
			<range>812.5805819318339</range>
			<altitudeMode>absolute</altitudeMode>
		</LookAt>
		<styleUrl>#__managed_style_3A5974EDDE388DFC7EEC</styleUrl>
		<Point>
			<coordinates>-4.239300549053847,51.72994754803512,45.58247315338263</coordinates>
		</Point>
	</Placemark>
	<Placemark id="04FE19CFEB388AA34D1C">
		<name>6</name>
		<LookAt>
			<longitude>-4.237958715531413</longitude>
			<latitude>51.73091882918567</latitude>
			<altitude>45.20243351549583</altitude>
			<heading>0</heading>
			<tilt>0</tilt>
			<gx:fovy>35</gx:fovy>
			<range>812.5805819318339</range>
			<altitudeMode>absolute</altitudeMode>
		</LookAt>
		<styleUrl>#__managed_style_3A5974EDDE388DFC7EEC</styleUrl>
		<Point>
			<coordinates>-4.238928911385148,51.72998240939617,45.41880053487795</coordinates>
		</Point>
	</Placemark>
	<Placemark id="0469C86D0D388AA376BE">
		<name>7</name>
		<LookAt>
			<longitude>-4.237033742650014</longitude>
			<latitude>51.72925009945293</latitude>
			<altitude>43.83043375166913</altitude>
			<heading>0</heading>
			<tilt>0</tilt>
			<gx:fovy>35</gx:fovy>
			<range>646.0443851048331</range>
			<altitudeMode>absolute</altitudeMode>
		</LookAt>
		<styleUrl>#__managed_style_3A5974EDDE388DFC7EEC</styleUrl>
		<Point>
			<coordinates>-4.238587106902031,51.7289278131119,44.77902387701307</coordinates>
		</Point>
	</Placemark>
	<Placemark id="0682DB9B8F388AA38831">
		<name>8</name>
		<LookAt>
			<longitude>-4.237033742650014</longitude>
			<latitude>51.72925009945293</latitude>
			<altitude>43.83043375166913</altitude>
			<heading>0</heading>
			<tilt>0</tilt>
			<gx:fovy>35</gx:fovy>
			<range>646.0443851048331</range>
			<altitudeMode>absolute</altitudeMode>
		</LookAt>
		<styleUrl>#__managed_style_3A5974EDDE388DFC7EEC</styleUrl>
		<Point>
			<coordinates>-4.238228015808351,51.72912114713314,44.198175317706</coordinates>
		</Point>
	</Placemark>
	<Placemark id="08456F678B388AA3A973">
		<name>9</name>
		<LookAt>
			<longitude>-4.237033742650014</longitude>
			<latitude>51.72925009945293</latitude>
			<altitude>43.83043375166913</altitude>
			<heading>0</heading>
			<tilt>0</tilt>
			<gx:fovy>35</gx:fovy>
			<range>646.0443851048331</range>
			<altitudeMode>absolute</altitudeMode>
		</LookAt>
		<styleUrl>#__managed_style_3A5974EDDE388DFC7EEC</styleUrl>
		<Point>
			<coordinates>-4.236753736836389,51.72839881318794,45.55721920949467</coordinates>
		</Point>
	</Placemark>
	<Placemark id="0F84BDF172388AA3C840">
		<name>10</name>
		<LookAt>
			<longitude>-4.237033742650014</longitude>
			<latitude>51.72925009945293</latitude>
			<altitude>43.83043375166913</altitude>
			<heading>0</heading>
			<tilt>0</tilt>
			<gx:fovy>35</gx:fovy>
			<range>646.0443851048331</range>
			<altitudeMode>absolute</altitudeMode>
		</LookAt>
		<styleUrl>#__managed_style_3A5974EDDE388DFC7EEC</styleUrl>
		<Point>
			<coordinates>-4.236558749110772,51.72875710808452,44.90298374015751</coordinates>
		</Point>
	</Placemark>
	<Placemark id="093C061FE6388AA4020F">
		<name>12</name>
		<LookAt>
			<longitude>-4.233940977101142</longitude>
			<latitude>51.72861152648368</latitude>
			<altitude>46.34377861102178</altitude>
			<heading>0</heading>
			<tilt>0</tilt>
			<gx:fovy>35</gx:fovy>
			<range>643.5310062302597</range>
			<altitudeMode>absolute</altitudeMode>
		</LookAt>
		<styleUrl>#__managed_style_3A5974EDDE388DFC7EEC</styleUrl>
		<Point>
			<coordinates>-4.234664719318628,51.72840920385268,46.30784450743743</coordinates>
		</Point>
	</Placemark>
	<Placemark id="034D16EB26388AA41E60">
		<name>11</name>
		<LookAt>
			<longitude>-4.233940977101142</longitude>
			<latitude>51.72861152648368</latitude>
			<altitude>46.34377861102178</altitude>
			<heading>0</heading>
			<tilt>0</tilt>
			<gx:fovy>35</gx:fovy>
			<range>643.5310062302597</range>
			<altitudeMode>absolute</altitudeMode>
		</LookAt>
		<styleUrl>#__managed_style_3A5974EDDE388DFC7EEC</styleUrl>
		<Point>
			<coordinates>-4.234824072788398,51.72806453840158,46.86131473686875</coordinates>
		</Point>
	</Placemark>
	<Placemark id="0D6D95188F388AA48D98">
		<name>14</name>
		<LookAt>
			<longitude>-4.23171098236759</longitude>
			<latitude>51.72849234015982</latitude>
			<altitude>48.32545559835025</altitude>
			<heading>0</heading>
			<tilt>0</tilt>
			<gx:fovy>35</gx:fovy>
			<range>641.5493678401981</range>
			<altitudeMode>absolute</altitudeMode>
		</LookAt>
		<styleUrl>#__managed_style_3A5974EDDE388DFC7EEC</styleUrl>
		<Point>
			<coordinates>-4.233117172840943,51.72812414241081,47.61296145763857</coordinates>
		</Point>
	</Placemark>
	<Placemark id="004896C20E388AA4BB09">
		<name>13</name>
		<LookAt>
			<longitude>-4.23171098236759</longitude>
			<latitude>51.72849234015982</latitude>
			<altitude>48.32545559835025</altitude>
			<heading>0</heading>
			<tilt>0</tilt>
			<gx:fovy>35</gx:fovy>
			<range>641.5493678401981</range>
			<altitudeMode>absolute</altitudeMode>
		</LookAt>
		<styleUrl>#__managed_style_3A5974EDDE388DFC7EEC</styleUrl>
		<Point>
			<coordinates>-4.233250047694214,51.72777637008989,48.17240003632084</coordinates>
		</Point>
	</Placemark>
	<Placemark id="02A4887CAB388AA4E0A9">
		<name>16</name>
		<LookAt>
			<longitude>-4.23171098236759</longitude>
			<latitude>51.72849234015982</latitude>
			<altitude>48.32545559835025</altitude>
			<heading>0</heading>
			<tilt>0</tilt>
			<gx:fovy>35</gx:fovy>
			<range>641.5493678401981</range>
			<altitudeMode>absolute</altitudeMode>
		</LookAt>
		<styleUrl>#__managed_style_3A5974EDDE388DFC7EEC</styleUrl>
		<Point>
			<coordinates>-4.23139225701402,51.7278250674398,49.3432453904661</coordinates>
		</Point>
	</Placemark>
	<Placemark id="0FCD392538388AA4F741">
		<name>15</name>
		<LookAt>
			<longitude>-4.23171098236759</longitude>
			<latitude>51.72849234015982</latitude>
			<altitude>48.32545559835025</altitude>
			<heading>0</heading>
			<tilt>0</tilt>
			<gx:fovy>35</gx:fovy>
			<range>641.5493678401981</range>
			<altitudeMode>absolute</altitudeMode>
		</LookAt>
		<styleUrl>#__managed_style_3A5974EDDE388DFC7EEC</styleUrl>
		<Point>
			<coordinates>-4.231558039257523,51.72748974578225,49.52780680624729</coordinates>
		</Point>
	</Placemark>
	<Placemark id="09ACB44F01388AA53AD4">
		<name>18</name>
		<LookAt>
			<longitude>-4.22873132327365</longitude>
			<latitude>51.72775113226317</latitude>
			<altitude>49.34324629159713</altitude>
			<heading>0</heading>
			<tilt>0</tilt>
			<gx:fovy>35</gx:fovy>
			<range>639.4239819789072</range>
			<altitudeMode>absolute</altitudeMode>
		</LookAt>
		<styleUrl>#__managed_style_3A5974EDDE388DFC7EEC</styleUrl>
		<Point>
			<coordinates>-4.229499669227321,51.72745220738675,50.69597374716458</coordinates>
		</Point>
	</Placemark>
	<Placemark id="09DADA719A388AA54F4C">
		<name>17</name>
		<LookAt>
			<longitude>-4.22873132327365</longitude>
			<latitude>51.72775113226317</latitude>
			<altitude>49.34324629159713</altitude>
			<heading>0</heading>
			<tilt>0</tilt>
			<gx:fovy>35</gx:fovy>
			<range>639.4239819789072</range>
			<altitudeMode>absolute</altitudeMode>
		</LookAt>
		<styleUrl>#__managed_style_3A5974EDDE388DFC7EEC</styleUrl>
		<Point>
			<coordinates>-4.229638848299179,51.7271496914912,51.05762075467897</coordinates>
		</Point>
	</Placemark>
	<Placemark id="0ED190EA8F388AA57403">
		<name>20</name>
		<LookAt>
			<longitude>-4.22873132327365</longitude>
			<latitude>51.72775113226317</latitude>
			<altitude>49.34324629159713</altitude>
			<heading>0</heading>
			<tilt>0</tilt>
			<gx:fovy>35</gx:fovy>
			<range>639.4239819789072</range>
			<altitudeMode>absolute</altitudeMode>
		</LookAt>
		<styleUrl>#__managed_style_3A5974EDDE388DFC7EEC</styleUrl>
		<Point>
			<coordinates>-4.227884980333919,51.72716276578738,52.20823007275821</coordinates>
		</Point>
	</Placemark>
	<Placemark id="0323ADE34E388AA58AEF">
		<name>19</name>
		<LookAt>
			<longitude>-4.22873132327365</longitude>
			<latitude>51.72775113226317</latitude>
			<altitude>49.34324629159713</altitude>
			<heading>0</heading>
			<tilt>0</tilt>
			<gx:fovy>35</gx:fovy>
			<range>639.4239819789072</range>
			<altitudeMode>absolute</altitudeMode>
		</LookAt>
		<styleUrl>#__managed_style_3A5974EDDE388DFC7EEC</styleUrl>
		<Point>
			<coordinates>-4.227998164418624,51.72685961603034,52.48872932990846</coordinates>
		</Point>
	</Placemark>
	<Placemark id="050A19F69E388AA5D4A0">
		<name>22</name>
		<LookAt>
			<longitude>-4.227213178340085</longitude>
			<latitude>51.72777864816119</latitude>
			<altitude>49.22771250012288</altitude>
			<heading>0</heading>
			<tilt>0</tilt>
			<gx:fovy>35</gx:fovy>
			<range>639.5395454893151</range>
			<altitudeMode>absolute</altitudeMode>
		</LookAt>
		<styleUrl>#__managed_style_3A5974EDDE388DFC7EEC</styleUrl>
		<Point>
			<coordinates>-4.22610783650908,51.72688374944648,53.7688822160689</coordinates>
		</Point>
	</Placemark>
	<Placemark id="0F626D9BA9388AA5ED3C">
		<name>21</name>
		<LookAt>
			<longitude>-4.227213178340085</longitude>
			<latitude>51.72777864816119</latitude>
			<altitude>49.22771250012288</altitude>
			<heading>0</heading>
			<tilt>0</tilt>
			<gx:fovy>35</gx:fovy>
			<range>639.5395454893151</range>
			<altitudeMode>absolute</altitudeMode>
		</LookAt>
		<styleUrl>#__managed_style_3A5974EDDE388DFC7EEC</styleUrl>
		<Point>
			<coordinates>-4.22607236004932,51.7265584754474,54.31295949560128</coordinates>
		</Point>
	</Placemark>
	<Placemark id="05CD91ADDF388AA61E63">
		<name>24</name>
		<LookAt>
			<longitude>-4.227213178340085</longitude>
			<latitude>51.72777864816119</latitude>
			<altitude>49.22771250012288</altitude>
			<heading>0</heading>
			<tilt>0</tilt>
			<gx:fovy>35</gx:fovy>
			<range>639.5395454893151</range>
			<altitudeMode>absolute</altitudeMode>
		</LookAt>
		<styleUrl>#__managed_style_3A5974EDDE388DFC7EEC</styleUrl>
		<Point>
			<coordinates>-4.224771201066452,51.72723925498476,54.70897724338872</coordinates>
		</Point>
	</Placemark>
	<Placemark id="06E603618E388AA63254">
		<name>23</name>
		<LookAt>
			<longitude>-4.227213178340085</longitude>
			<latitude>51.72777864816119</latitude>
			<altitude>49.22771250012288</altitude>
			<heading>0</heading>
			<tilt>0</tilt>
			<gx:fovy>35</gx:fovy>
			<range>639.5395454893151</range>
			<altitudeMode>absolute</altitudeMode>
		</LookAt>
		<styleUrl>#__managed_style_3A5974EDDE388DFC7EEC</styleUrl>
		<Point>
			<coordinates>-4.224428747187957,51.72708481931028,55.16097115989673</coordinates>
		</Point>
	</Placemark>
	<Placemark id="0F9DFCB998388AA67850">
		<name>26</name>
		<LookAt>
			<longitude>-4.225667623348106</longitude>
			<latitude>51.72844676940842</latitude>
			<altitude>49.72333254073401</altitude>
			<heading>0</heading>
			<tilt>0</tilt>
			<gx:fovy>35</gx:fovy>
			<range>639.0438693494071</range>
			<altitudeMode>absolute</altitudeMode>
		</LookAt>
		<styleUrl>#__managed_style_3A5974EDDE388DFC7EEC</styleUrl>
		<Point>
			<coordinates>-4.224354670924973,51.72814961886058,54.49365219460164</coordinates>
		</Point>
	</Placemark>
	<Placemark id="065CFCCE9B388AA6942F">
		<name>25</name>
		<LookAt>
			<longitude>-4.225667623348106</longitude>
			<latitude>51.72844676940842</latitude>
			<altitude>49.72333254073401</altitude>
			<heading>0</heading>
			<tilt>0</tilt>
			<gx:fovy>35</gx:fovy>
			<range>639.0438693494071</range>
			<altitudeMode>absolute</altitudeMode>
		</LookAt>
		<styleUrl>#__managed_style_3A5974EDDE388DFC7EEC</styleUrl>
		<Point>
			<coordinates>-4.224007933919646,51.72822786824046,54.66234684604299</coordinates>
		</Point>
	</Placemark>
	<Placemark id="028624D462388AA6C863">
		<name>28</name>
		<LookAt>
			<longitude>-4.225667623348106</longitude>
			<latitude>51.72844676940842</latitude>
			<altitude>49.72333254073401</altitude>
			<heading>0</heading>
			<tilt>0</tilt>
			<gx:fovy>35</gx:fovy>
			<range>639.0438693494071</range>
			<altitudeMode>absolute</altitudeMode>
		</LookAt>
		<styleUrl>#__managed_style_3A5974EDDE388DFC7EEC</styleUrl>
		<Point>
			<coordinates>-4.225067823389955,51.72884955913157,54.36100252405681</coordinates>
		</Point>
	</Placemark>
	<Placemark id="0F19576F33388AA6DF2C">
		<name>27</name>
		<LookAt>
			<longitude>-4.225667623348106</longitude>
			<latitude>51.72844676940842</latitude>
			<altitude>49.72333254073401</altitude>
			<heading>0</heading>
			<tilt>0</tilt>
			<gx:fovy>35</gx:fovy>
			<range>639.0438693494071</range>
			<altitudeMode>absolute</altitudeMode>
		</LookAt>
		<styleUrl>#__managed_style_3A5974EDDE388DFC7EEC</styleUrl>
		<Point>
			<coordinates>-4.224916601511925,51.72906047691854,54.62315780059308</coordinates>
		</Point>
	</Placemark>
	<Placemark id="000E3668A7388AA70A04">
		<name>29</name>
		<LookAt>
			<longitude>-4.227139400507712</longitude>
			<latitude>51.72961114854485</latitude>
			<altitude>53.52263699777206</altitude>
			<heading>0</heading>
			<tilt>0</tilt>
			<gx:fovy>35</gx:fovy>
			<range>635.2445972623538</range>
			<altitudeMode>absolute</altitudeMode>
		</LookAt>
		<styleUrl>#__managed_style_3A5974EDDE388DFC7EEC</styleUrl>
		<Point>
			<coordinates>-4.226646606475621,51.72969332310755,53.95198443192966</coordinates>
		</Point>
	</Placemark>
	<Placemark id="08116CC2E1388AA7200C">
		<name>30</name>
		<LookAt>
			<longitude>-4.227139400507712</longitude>
			<latitude>51.72961114854485</latitude>
			<altitude>53.52263699777206</altitude>
			<heading>0</heading>
			<tilt>0</tilt>
			<gx:fovy>35</gx:fovy>
			<range>635.2445972623538</range>
			<altitudeMode>absolute</altitudeMode>
		</LookAt>
		<styleUrl>#__managed_style_3A5974EDDE388DFC7EEC</styleUrl>
		<Point>
			<coordinates>-4.226867369784134,51.72927025021534,53.09968436145443</coordinates>
		</Point>
	</Placemark>
	<Placemark id="06F43BFA6A388AA73E50">
		<name>31</name>
		<LookAt>
			<longitude>-4.227139400507712</longitude>
			<latitude>51.72961114854485</latitude>
			<altitude>53.52263699777206</altitude>
			<heading>0</heading>
			<tilt>0</tilt>
			<gx:fovy>35</gx:fovy>
			<range>635.2445972623538</range>
			<altitudeMode>absolute</altitudeMode>
		</LookAt>
		<styleUrl>#__managed_style_3A5974EDDE388DFC7EEC</styleUrl>
		<Point>
			<coordinates>-4.228233426543195,51.73003023987862,53.3566659688922</coordinates>
		</Point>
	</Placemark>
	<Placemark id="03AB489734388AA74F80">
		<name>32</name>
		<LookAt>
			<longitude>-4.227139400507712</longitude>
			<latitude>51.72961114854485</latitude>
			<altitude>53.52263699777206</altitude>
			<heading>0</heading>
			<tilt>0</tilt>
			<gx:fovy>35</gx:fovy>
			<range>635.2445972623538</range>
			<altitudeMode>absolute</altitudeMode>
		</LookAt>
		<styleUrl>#__managed_style_3A5974EDDE388DFC7EEC</styleUrl>
		<Point>
			<coordinates>-4.228469898609753,51.72962291349081,52.15983864893905</coordinates>
		</Point>
	</Placemark>
	<Placemark id="0A8F7557E9388AA78547">
		<name>33</name>
		<LookAt>
			<longitude>-4.231406467709061</longitude>
			<latitude>51.73096790559574</latitude>
			<altitude>50.56006991281082</altitude>
			<heading>0</heading>
			<tilt>0</tilt>
			<gx:fovy>35</gx:fovy>
			<range>638.2071116573206</range>
			<altitudeMode>absolute</altitudeMode>
		</LookAt>
		<styleUrl>#__managed_style_3A5974EDDE388DFC7EEC</styleUrl>
		<Point>
			<coordinates>-4.229974392986485,51.73041059493942,52.07998132811213</coordinates>
		</Point>
	</Placemark>
	<Placemark id="0BCC443DF5388AA79780">
		<name>34</name>
		<LookAt>
			<longitude>-4.231406467709061</longitude>
			<latitude>51.73096790559574</latitude>
			<altitude>50.56006991281082</altitude>
			<heading>0</heading>
			<tilt>0</tilt>
			<gx:fovy>35</gx:fovy>
			<range>638.2071116573206</range>
			<altitudeMode>absolute</altitudeMode>
		</LookAt>
		<styleUrl>#__managed_style_3A5974EDDE388DFC7EEC</styleUrl>
		<Point>
			<coordinates>-4.230207026979444,51.72999309492865,51.10670251701401</coordinates>
		</Point>
	</Placemark>
	<Placemark id="087140B9E7388AA7B81E">
		<name>35</name>
		<LookAt>
			<longitude>-4.231406467709061</longitude>
			<latitude>51.73096790559574</latitude>
			<altitude>50.56006991281082</altitude>
			<heading>0</heading>
			<tilt>0</tilt>
			<gx:fovy>35</gx:fovy>
			<range>638.2071116573206</range>
			<altitudeMode>absolute</altitudeMode>
		</LookAt>
		<styleUrl>#__managed_style_3A5974EDDE388DFC7EEC</styleUrl>
		<Point>
			<coordinates>-4.231538644681848,51.7307522227859,50.98373389092912</coordinates>
		</Point>
	</Placemark>
	<Placemark id="026BC17AFF388AA7C9D3">
		<name>36</name>
		<LookAt>
			<longitude>-4.231406467709061</longitude>
			<latitude>51.73096790559574</latitude>
			<altitude>50.56006991281082</altitude>
			<heading>0</heading>
			<tilt>0</tilt>
			<gx:fovy>35</gx:fovy>
			<range>638.2071116573206</range>
			<altitudeMode>absolute</altitudeMode>
		</LookAt>
		<styleUrl>#__managed_style_3A5974EDDE388DFC7EEC</styleUrl>
		<Point>
			<coordinates>-4.231746036472409,51.730331929692,49.46597821446807</coordinates>
		</Point>
	</Placemark>
	<Placemark id="0B2EFB1528388AA7EE9B">
		<name>37</name>
		<LookAt>
			<longitude>-4.234437320660195</longitude>
			<latitude>51.73155942640061</latitude>
			<altitude>49.34983964241305</altitude>
			<heading>0</heading>
			<tilt>0</tilt>
			<gx:fovy>35</gx:fovy>
			<range>639.4173531854904</range>
			<altitudeMode>absolute</altitudeMode>
		</LookAt>
		<styleUrl>#__managed_style_3A5974EDDE388DFC7EEC</styleUrl>
		<Point>
			<coordinates>-4.233108045807434,51.73109459468353,49.72318878133447</coordinates>
		</Point>
	</Placemark>
	<Placemark id="0CC0C00689388AA801B4">
		<name>38</name>
		<LookAt>
			<longitude>-4.234437320660195</longitude>
			<latitude>51.73155942640061</latitude>
			<altitude>49.34983964241305</altitude>
			<heading>0</heading>
			<tilt>0</tilt>
			<gx:fovy>35</gx:fovy>
			<range>639.4173531854904</range>
			<altitudeMode>absolute</altitudeMode>
		</LookAt>
		<styleUrl>#__managed_style_3A5974EDDE388DFC7EEC</styleUrl>
		<Point>
			<coordinates>-4.233342103626211,51.73067995571345,48.97682160619323</coordinates>
		</Point>
	</Placemark>
	<Placemark id="0326227206388AA8334F">
		<name>40</name>
		<LookAt>
			<longitude>-4.234437320660195</longitude>
			<latitude>51.73155942640061</latitude>
			<altitude>49.34983964241305</altitude>
			<heading>0</heading>
			<tilt>0</tilt>
			<gx:fovy>35</gx:fovy>
			<range>639.4173531854904</range>
			<altitudeMode>absolute</altitudeMode>
		</LookAt>
		<styleUrl>#__managed_style_3A5974EDDE388DFC7EEC</styleUrl>
		<Point>
			<coordinates>-4.235279026009175,51.73109340122106,48.07625096955547</coordinates>
		</Point>
	</Placemark>
	<Placemark id="06FA630C5D388AA84A5B">
		<name>38</name>
		<LookAt>
			<longitude>-4.234437320660195</longitude>
			<latitude>51.73155942640061</latitude>
			<altitude>49.34983964241305</altitude>
			<heading>0</heading>
			<tilt>0</tilt>
			<gx:fovy>35</gx:fovy>
			<range>639.4173531854904</range>
			<altitudeMode>absolute</altitudeMode>
		</LookAt>
		<styleUrl>#__managed_style_3A5974EDDE388DFC7EEC</styleUrl>
		<Point>
			<coordinates>-4.235106008537994,51.73154364734437,48.89608160418091</coordinates>
		</Point>
	</Placemark>
</Document>
</kml>
