<?xml version="1.0" encoding="UTF-8"?>
<kml xmlns="http://www.opengis.net/kml/2.2" xmlns:gx="http://www.google.com/kml/ext/2.2" xmlns:kml="http://www.opengis.net/kml/2.2" xmlns:atom="http://www.w3.org/2005/Atom">
<Document id="document">
	<name>Doncaster Racecourse 40WPS</name>
	<gx:CascadingStyle kml:id="__managed_style_0AF217602F41E9C2A2CB_highlight">
		<styleUrl>https://earth.google.com/balloon_components/base/1.1.0.0/card_template.kml#main</styleUrl>
		<Style>
			<IconStyle>
				<scale>1.2</scale>
				<Icon>
					<href>https://earth.google.com/earth/document/icon?color=1976d2&amp;id=2000&amp;scale=4</href>
				</Icon>
				<hotSpot x="64" y="128" xunits="pixels" yunits="insetPixels"/>
			</IconStyle>
			<LabelStyle>
			</LabelStyle>
			<LineStyle>
				<color>ff2dc0fb</color>
				<width>6</width>
			</LineStyle>
			<PolyStyle>
				<color>40ffffff</color>
			</PolyStyle>
			<BalloonStyle>
			</BalloonStyle>
		</Style>
	</gx:CascadingStyle>
	<gx:CascadingStyle kml:id="__managed_style_0AF217602F41E9C2A2CB_normal">
		<styleUrl>https://earth.google.com/balloon_components/base/1.1.0.0/card_template.kml#main</styleUrl>
		<Style>
			<IconStyle>
				<Icon>
					<href>https://earth.google.com/earth/document/icon?color=1976d2&amp;id=2000&amp;scale=4</href>
				</Icon>
				<hotSpot x="64" y="128" xunits="pixels" yunits="insetPixels"/>
			</IconStyle>
			<LabelStyle>
			</LabelStyle>
			<LineStyle>
				<color>ff2dc0fb</color>
				<width>4</width>
			</LineStyle>
			<PolyStyle>
				<color>40ffffff</color>
			</PolyStyle>
			<BalloonStyle>
			</BalloonStyle>
		</Style>
	</gx:CascadingStyle>
	<StyleMap id="__managed_style_0AF217602F41E9C2A2CB">
		<Pair>
			<key>normal</key>
			<styleUrl>#__managed_style_0AF217602F41E9C2A2CB_normal</styleUrl>
		</Pair>
		<Pair>
			<key>highlight</key>
			<styleUrl>#__managed_style_0AF217602F41E9C2A2CB_highlight</styleUrl>
		</Pair>
	</StyleMap>
	<Placemark id="04E6A6102A41E9C2A290">
		<name>1</name>
		<LookAt>
			<longitude>-1.098543772829653</longitude>
			<latitude>53.52146015060188</latitude>
			<altitude>7.542183866101513</altitude>
			<heading>-2.221111275965121</heading>
			<tilt>0.09453046177157785</tilt>
			<gx:fovy>35</gx:fovy>
			<range>326.138258543142</range>
			<altitudeMode>absolute</altitudeMode>
		</LookAt>
		<styleUrl>#__managed_style_0AF217602F41E9C2A2CB</styleUrl>
		<Point>
			<coordinates>-1.099151081067002,53.52179855772602,7.052577133682081</coordinates>
		</Point>
	</Placemark>
	<Placemark id="04FFD7F07741E9C2E934">
		<name>2</name>
		<LookAt>
			<longitude>-1.098715251200316</longitude>
			<latitude>53.52142170834272</latitude>
			<altitude>7.403984684086346</altitude>
			<heading>-2.221111283501681</heading>
			<tilt>0.09453046317499018</tilt>
			<gx:fovy>35</gx:fovy>
			<range>326.2764665681243</range>
			<altitudeMode>absolute</altitudeMode>
		</LookAt>
		<styleUrl>#__managed_style_0AF217602F41E9C2A2CB</styleUrl>
		<Point>
			<coordinates>-1.10034468424331,53.52146339937864,6.949578380396337</coordinates>
		</Point>
	</Placemark>
	<Placemark id="056ACA080241E9C3308E">
		<name>3</name>
		<LookAt>
			<longitude>-1.100045562628612</longitude>
			<latitude>53.52137685118645</latitude>
			<altitude>7.040240867740031</altitude>
			<heading>-2.221111271357731</heading>
			<tilt>0.09453046718859516</tilt>
			<gx:fovy>35</gx:fovy>
			<range>326.6402158124765</range>
			<altitudeMode>absolute</altitudeMode>
		</LookAt>
		<styleUrl>#__managed_style_0AF217602F41E9C2A2CB</styleUrl>
		<Point>
			<coordinates>-1.101475212201378,53.52114490436541,7.090535572246257</coordinates>
		</Point>
	</Placemark>
	<Placemark id="0DE6E299A341E9C35E0E">
		<name>4</name>
		<LookAt>
			<longitude>-1.101243517670057</longitude>
			<latitude>53.52086446465446</latitude>
			<altitude>7.234947008701347</altitude>
			<heading>-2.221111276591011</heading>
			<tilt>0.09453046213014199</tilt>
			<gx:fovy>35</gx:fovy>
			<range>326.4455239778545</range>
			<altitudeMode>absolute</altitudeMode>
		</LookAt>
		<styleUrl>#__managed_style_0AF217602F41E9C2A2CB</styleUrl>
		<Point>
			<coordinates>-1.102441640678493,53.52087455286956,7.135183240836205</coordinates>
		</Point>
	</Placemark>
	<Placemark id="00F5CEEEE641E9C3AA07">
		<name>5</name>
		<LookAt>
			<longitude>-1.102181423440356</longitude>
			<latitude>53.52066245977396</latitude>
			<altitude>7.312461210605107</altitude>
			<heading>-2.221111274125646</heading>
			<tilt>0.09453046047226474</tilt>
			<gx:fovy>35</gx:fovy>
			<range>326.3679717303967</range>
			<altitudeMode>absolute</altitudeMode>
		</LookAt>
		<styleUrl>#__managed_style_0AF217602F41E9C2A2CB</styleUrl>
		<Point>
			<coordinates>-1.103510003988742,53.52056538181402,7.195807417944797</coordinates>
		</Point>
	</Placemark>
	<Placemark id="04A352D4B841E9C41126">
		<name>6</name>
		<LookAt>
			<longitude>-1.10403508340401</longitude>
			<latitude>53.5203080912346</latitude>
			<altitude>6.935371236288779</altitude>
			<heading>-2.221111276484898</heading>
			<tilt>0.09453046305546881</tilt>
			<gx:fovy>35</gx:fovy>
			<range>326.7450712719801</range>
			<altitudeMode>absolute</altitudeMode>
		</LookAt>
		<styleUrl>#__managed_style_0AF217602F41E9C2A2CB</styleUrl>
		<Point>
			<coordinates>-1.10501486484509,53.52014717338177,7.052576543773698</coordinates>
		</Point>
	</Placemark>
	<Placemark id="0D6DA4498D41E9C45A20">
		<name>7</name>
		<LookAt>
			<longitude>-1.105162994406597</longitude>
			<latitude>53.51972408264894</latitude>
			<altitude>8.22419438648199</altitude>
			<heading>-2.041311340479246</heading>
			<tilt>0.09453047268657826</tilt>
			<gx:fovy>35</gx:fovy>
			<range>327.605052918625</range>
			<altitudeMode>absolute</altitudeMode>
		</LookAt>
		<styleUrl>#__managed_style_0AF217602F41E9C2A2CB</styleUrl>
		<Point>
			<coordinates>-1.106006320539773,53.51937800003852,7.414607594376701</coordinates>
		</Point>
	</Placemark>
	<Placemark id="0B23BD465F41E9C4AB4F">
		<name>8</name>
		<LookAt>
			<longitude>-1.104880224007461</longitude>
			<latitude>53.51901531768497</latitude>
			<altitude>8.053197800776298</altitude>
			<heading>-2.041311328553557</heading>
			<tilt>0.09453047357334969</tilt>
			<gx:fovy>35</gx:fovy>
			<range>327.776034069102</range>
			<altitudeMode>absolute</altitudeMode>
		</LookAt>
		<styleUrl>#__managed_style_0AF217602F41E9C2A2CB</styleUrl>
		<Point>
			<coordinates>-1.10516073494316,53.51871565533569,7.234937158504549</coordinates>
		</Point>
	</Placemark>
	<Placemark id="0B0B02307E41E9C4DF61">
		<name>9</name>
		<LookAt>
			<longitude>-1.104880224007461</longitude>
			<latitude>53.51901531768497</latitude>
			<altitude>8.053197800776298</altitude>
			<heading>-2.041311328553557</heading>
			<tilt>0.09453047357334969</tilt>
			<gx:fovy>35</gx:fovy>
			<range>327.776034069102</range>
			<altitudeMode>absolute</altitudeMode>
		</LookAt>
		<styleUrl>#__managed_style_0AF217602F41E9C2A2CB</styleUrl>
		<Point>
			<coordinates>-1.103709389301053,53.5184852859996,7.170726585995999</coordinates>
		</Point>
	</Placemark>
	<Placemark id="0E708A83AA41E9C52069">
		<name>10</name>
		<LookAt>
			<longitude>-1.102059530989373</longitude>
			<latitude>53.51839635621266</latitude>
			<altitude>7.052582629591109</altitude>
			<heading>-2.041311334901971</heading>
			<tilt>0.09453048709854084</tilt>
			<gx:fovy>35</gx:fovy>
			<range>328.776657388662</range>
			<altitudeMode>absolute</altitudeMode>
		</LookAt>
		<styleUrl>#__managed_style_0AF217602F41E9C2A2CB</styleUrl>
		<Point>
			<coordinates>-1.102528427454629,53.51831085607299,6.870180902348504</coordinates>
		</Point>
	</Placemark>
	<Placemark id="06C0358F5041E9C56528">
		<name>11</name>
		<LookAt>
			<longitude>-1.101210606434221</longitude>
			<latitude>53.51825381370722</latitude>
			<altitude>6.922332072582355</altitude>
			<heading>-2.04131133227179</heading>
			<tilt>0.09453048749180464</tilt>
			<gx:fovy>35</gx:fovy>
			<range>328.9069386746633</range>
			<altitudeMode>absolute</altitudeMode>
		</LookAt>
		<styleUrl>#__managed_style_0AF217602F41E9C2A2CB</styleUrl>
		<Point>
			<coordinates>-1.101101055151815,53.51808861043252,6.737610928850499</coordinates>
		</Point>
	</Placemark>
	<Placemark id="03F3AB368E41E9C59887">
		<name>12</name>
		<LookAt>
			<longitude>-1.100126129915464</longitude>
			<latitude>53.51786023301104</latitude>
			<altitude>6.687863737128563</altitude>
			<heading>-2.041311330301923</heading>
			<tilt>0.0945304895159565</tilt>
			<gx:fovy>35</gx:fovy>
			<range>329.1413800921873</range>
			<altitudeMode>absolute</altitudeMode>
		</LookAt>
		<styleUrl>#__managed_style_0AF217602F41E9C2A2CB</styleUrl>
		<Point>
			<coordinates>-1.099627949687464,53.5178626156544,6.709574859616536</coordinates>
		</Point>
	</Placemark>
	<Placemark id="0AB438E30941E9C5D7AC">
		<name>13</name>
		<LookAt>
			<longitude>-1.098249116917623</longitude>
			<latitude>53.51764033433068</latitude>
			<altitude>6.231701212525738</altitude>
			<heading>-2.041311333136125</heading>
			<tilt>0.09453051281490524</tilt>
			<gx:fovy>35</gx:fovy>
			<range>330.9937338330201</range>
			<altitudeMode>absolute</altitudeMode>
		</LookAt>
		<styleUrl>#__managed_style_0AF217602F41E9C2A2CB</styleUrl>
		<Point>
			<coordinates>-1.098106678573494,53.5176289645177,6.113614447526299</coordinates>
		</Point>
	</Placemark>
	<Placemark id="06B122062141E9C6082C">
		<name>14</name>
		<LookAt>
			<longitude>-1.096938511165338</longitude>
			<latitude>53.51786724424107</latitude>
			<altitude>5.588917791637087</altitude>
			<heading>-2.041311345419385</heading>
			<tilt>0.09453052043342502</tilt>
			<gx:fovy>35</gx:fovy>
			<range>331.6365181960646</range>
			<altitudeMode>absolute</altitudeMode>
		</LookAt>
		<styleUrl>#__managed_style_0AF217602F41E9C2A2CB</styleUrl>
		<Point>
			<coordinates>-1.096710108970451,53.51741229838404,5.046504933653653</coordinates>
		</Point>
	</Placemark>
	<Placemark id="0A34DBCC4A41E9C6340E">
		<name>15</name>
		<LookAt>
			<longitude>-1.095401580777411</longitude>
			<latitude>53.51777508882171</latitude>
			<altitude>4.94755054696713</altitude>
			<heading>-2.04131133655541</heading>
			<tilt>0.0945305270340854</tilt>
			<gx:fovy>35</gx:fovy>
			<range>332.2778423703494</range>
			<altitudeMode>absolute</altitudeMode>
		</LookAt>
		<styleUrl>#__managed_style_0AF217602F41E9C2A2CB</styleUrl>
		<Point>
			<coordinates>-1.095231311280369,53.51718936773103,5.228856197558589</coordinates>
		</Point>
	</Placemark>
	<Placemark id="08317F1C7F41E9C66C3B">
		<name>16</name>
		<LookAt>
			<longitude>-1.094354248742293</longitude>
			<latitude>53.5174866994365</latitude>
			<altitude>5.593602104146951</altitude>
			<heading>-2.041311339570179</heading>
			<tilt>0.09453051633885627</tilt>
			<gx:fovy>35</gx:fovy>
			<range>331.6318594985933</range>
			<altitudeMode>absolute</altitudeMode>
		</LookAt>
		<styleUrl>#__managed_style_0AF217602F41E9C2A2CB</styleUrl>
		<Point>
			<coordinates>-1.09374244041938,53.51701904777692,6.329578511385372</coordinates>
		</Point>
	</Placemark>
	<Placemark id="0F91D512BF41E9C68D60">
		<name>17</name>
		<LookAt>
			<longitude>-1.092680426900813</longitude>
			<latitude>53.51749135695034</latitude>
			<altitude>7.598218459800945</altitude>
			<heading>-2.041311342558616</heading>
			<tilt>0.09453048551777458</tilt>
			<gx:fovy>35</gx:fovy>
			<range>329.6272289299668</range>
			<altitudeMode>absolute</altitudeMode>
		</LookAt>
		<styleUrl>#__managed_style_0AF217602F41E9C2A2CB</styleUrl>
		<Point>
			<coordinates>-1.092184415215968,53.51713576404862,7.736676157493736</coordinates>
		</Point>
	</Placemark>
	<Placemark id="083929240841E9C6D400">
		<name>18</name>
		<LookAt>
			<longitude>-1.091515998410723</longitude>
			<latitude>53.51755241770005</latitude>
			<altitude>10.88225358821945</altitude>
			<heading>-2.041311330947016</heading>
			<tilt>0.09453043531108238</tilt>
			<gx:fovy>35</gx:fovy>
			<range>326.3431716990818</range>
			<altitudeMode>absolute</altitudeMode>
		</LookAt>
		<styleUrl>#__managed_style_0AF217602F41E9C2A2CB</styleUrl>
		<Point>
			<coordinates>-1.090538935897986,53.51751397365472,8.521374771542368</coordinates>
		</Point>
	</Placemark>
	<Placemark id="029B95017641E9C77C7C">
		<name>19</name>
		<LookAt>
			<longitude>-1.088885021122901</longitude>
			<latitude>53.51825650092413</latitude>
			<altitude>7.355726245704536</altitude>
			<heading>-8.968832039149499</heading>
			<tilt>0.0659424372820397</tilt>
			<gx:fovy>35</gx:fovy>
			<range>434.7114976944431</range>
			<altitudeMode>absolute</altitudeMode>
		</LookAt>
		<styleUrl>#__managed_style_0AF217602F41E9C2A2CB</styleUrl>
		<Point>
			<coordinates>-1.088866132572827,53.51823637106484,7.360046154689506</coordinates>
		</Point>
	</Placemark>
	<Placemark id="0DF1E4B8E941E9C7BF88">
		<name>20</name>
		<LookAt>
			<longitude>-1.088028723386752</longitude>
			<latitude>53.51899369070599</latitude>
			<altitude>8.118445669881584</altitude>
			<heading>-8.788345089106533</heading>
			<tilt>0.06594242728919693</tilt>
			<gx:fovy>35</gx:fovy>
			<range>433.9488156099105</range>
			<altitudeMode>absolute</altitudeMode>
		</LookAt>
		<styleUrl>#__managed_style_0AF217602F41E9C2A2CB</styleUrl>
		<Point>
			<coordinates>-1.087342483051306,53.51936322771385,6.311921478375062</coordinates>
		</Point>
	</Placemark>
	<Placemark id="0A66C4B35641E9C80E6F">
		<name>21</name>
		<LookAt>
			<longitude>-1.087089291609483</longitude>
			<latitude>53.52029276690943</latitude>
			<altitude>5.582299168127529</altitude>
			<heading>-8.787589753105991</heading>
			<tilt>0.06594244952990246</tilt>
			<gx:fovy>35</gx:fovy>
			<range>436.4849548870552</range>
			<altitudeMode>absolute</altitudeMode>
		</LookAt>
		<styleUrl>#__managed_style_0AF217602F41E9C2A2CB</styleUrl>
		<Point>
			<coordinates>-1.086586974199246,53.52074244648892,5.69391783952419</coordinates>
		</Point>
	</Placemark>
	<Placemark id="0A655625E541E9C83039">
		<name>22</name>
		<LookAt>
			<longitude>-1.087089291609483</longitude>
			<latitude>53.52029276690943</latitude>
			<altitude>5.582299168127529</altitude>
			<heading>-8.787589753105991</heading>
			<tilt>0.06594244952990246</tilt>
			<gx:fovy>35</gx:fovy>
			<range>436.4849548870552</range>
			<altitudeMode>absolute</altitudeMode>
		</LookAt>
		<styleUrl>#__managed_style_0AF217602F41E9C2A2CB</styleUrl>
		<Point>
			<coordinates>-1.085204882725469,53.52008232653319,5.582410686275425</coordinates>
		</Point>
	</Placemark>
	<Placemark id="0E12503ED141E9C84948">
		<name>23</name>
		<LookAt>
			<longitude>-1.087089291609483</longitude>
			<latitude>53.52029276690943</latitude>
			<altitude>5.582299168127529</altitude>
			<heading>-8.787589753105991</heading>
			<tilt>0.06594244952990246</tilt>
			<gx:fovy>35</gx:fovy>
			<range>436.4849548870552</range>
			<altitudeMode>absolute</altitudeMode>
		</LookAt>
		<styleUrl>#__managed_style_0AF217602F41E9C2A2CB</styleUrl>
		<Point>
			<coordinates>-1.085900900682298,53.52088149488591,5.377536099309639</coordinates>
		</Point>
	</Placemark>
	<Placemark id="03B01229B041E9C8821E">
		<name>24</name>
		<LookAt>
			<longitude>-1.087149249192791</longitude>
			<latitude>53.52137084930902</latitude>
			<altitude>5.281506508089395</altitude>
			<heading>-8.787555889267681</heading>
			<tilt>0.06594250997329293</tilt>
			<gx:fovy>35</gx:fovy>
			<range>442.5163225028518</range>
			<altitudeMode>absolute</altitudeMode>
		</LookAt>
		<styleUrl>#__managed_style_0AF217602F41E9C2A2CB</styleUrl>
		<Point>
			<coordinates>-1.086912073401445,53.52200355891933,5.582430697891669</coordinates>
		</Point>
	</Placemark>
	<Placemark id="0F9522AFF141E9C8B218">
		<name>25</name>
		<LookAt>
			<longitude>-1.088179701421407</longitude>
			<latitude>53.52274834235441</latitude>
			<altitude>5.217691394882031</altitude>
			<heading>-8.788384506493143</heading>
			<tilt>0.06594250753035523</tilt>
			<gx:fovy>35</gx:fovy>
			<range>442.5801072562899</range>
			<altitudeMode>absolute</altitudeMode>
		</LookAt>
		<styleUrl>#__managed_style_0AF217602F41E9C2A2CB</styleUrl>
		<Point>
			<coordinates>-1.088336407821713,53.52308131116721,5.217637549120042</coordinates>
		</Point>
	</Placemark>
	<Placemark id="0B60C572D741E9C8E9DE">
		<name>26</name>
		<LookAt>
			<longitude>-1.089844042633056</longitude>
			<latitude>53.52350645086722</latitude>
			<altitude>5.582415155149716</altitude>
			<heading>-8.78972277483982</heading>
			<tilt>0.06594250225758889</tilt>
			<gx:fovy>35</gx:fovy>
			<range>442.2153381975659</range>
			<altitudeMode>absolute</altitudeMode>
		</LookAt>
		<styleUrl>#__managed_style_0AF217602F41E9C2A2CB</styleUrl>
		<Point>
			<coordinates>-1.09026546806152,53.52366425381714,5.582488129787349</coordinates>
		</Point>
	</Placemark>
	<Placemark id="0CAF9CCDBC41E9C94944">
		<name>40</name>
		<LookAt>
			<longitude>-1.097269574909607</longitude>
			<latitude>53.52217861711411</latitude>
			<altitude>7.041461959700637</altitude>
			<heading>-8.795698231696123</heading>
			<tilt>0.06594251249360866</tilt>
			<gx:fovy>35</gx:fovy>
			<range>443.6592099272821</range>
			<altitudeMode>absolute</altitudeMode>
		</LookAt>
		<styleUrl>#__managed_style_0AF217602F41E9C2A2CB</styleUrl>
		<Point>
			<coordinates>-1.098167662718038,53.52207920654919,7.041350386381453</coordinates>
		</Point>
	</Placemark>
	<Placemark id="00E0B9B1DA41E9C964A9">
		<name>39</name>
		<LookAt>
			<longitude>-1.097269574909607</longitude>
			<latitude>53.52217861711411</latitude>
			<altitude>7.041461959700637</altitude>
			<heading>-8.795698231696123</heading>
			<tilt>0.06594251249360866</tilt>
			<gx:fovy>35</gx:fovy>
			<range>443.6592099272821</range>
			<altitudeMode>absolute</altitudeMode>
		</LookAt>
		<styleUrl>#__managed_style_0AF217602F41E9C2A2CB</styleUrl>
		<Point>
			<coordinates>-1.097119346833278,53.52236846509048,7.041405492595166</coordinates>
		</Point>
	</Placemark>
	<Placemark id="016A7840AE41E9C980DC">
		<name>38</name>
		<LookAt>
			<longitude>-1.096595286033153</longitude>
			<latitude>53.52239666122365</latitude>
			<altitude>7.041300462024824</altitude>
			<heading>-8.795156027443308</heading>
			<tilt>0.06594251191879984</tilt>
			<gx:fovy>35</gx:fovy>
			<range>443.6593953480769</range>
			<altitudeMode>absolute</altitudeMode>
		</LookAt>
		<styleUrl>#__managed_style_0AF217602F41E9C2A2CB</styleUrl>
		<Point>
			<coordinates>-1.095931963845945,53.52270185881302,7.041564475026125</coordinates>
		</Point>
	</Placemark>
	<Placemark id="0934390A8A41E9C9AC68">
		<name>37</name>
		<LookAt>
			<longitude>-1.095154328690916</longitude>
			<latitude>53.52325160621487</latitude>
			<altitude>6.870251537157685</altitude>
			<heading>-8.794210703150174</heading>
			<tilt>0.06594168526111925</tilt>
			<gx:fovy>35</gx:fovy>
			<range>363.9214539154636</range>
			<altitudeMode>absolute</altitudeMode>
		</LookAt>
		<styleUrl>#__managed_style_0AF217602F41E9C2A2CB</styleUrl>
		<Point>
			<coordinates>-1.094776418864803,53.5230257719608,6.674953498818579</coordinates>
		</Point>
	</Placemark>
	<Placemark id="006C4B3E1241E9C9E049">
		<name>36</name>
		<LookAt>
			<longitude>-1.09453772403756</longitude>
			<latitude>53.52339758821523</latitude>
			<altitude>6.503256352347666</altitude>
			<heading>-8.793714899329112</heading>
			<tilt>0.06594168865474469</tilt>
			<gx:fovy>35</gx:fovy>
			<range>364.2884712013256</range>
			<altitudeMode>absolute</altitudeMode>
		</LookAt>
		<styleUrl>#__managed_style_0AF217602F41E9C2A2CB</styleUrl>
		<Point>
			<coordinates>-1.093672088185231,53.52333990363938,6.323174652722421</coordinates>
		</Point>
	</Placemark>
	<Placemark id="06CE76231141E9CA0C09">
		<name>35</name>
		<LookAt>
			<longitude>-1.093321888187011</longitude>
			<latitude>53.52356535178691</latitude>
			<altitude>6.140759233097968</altitude>
			<heading>-8.792968086452609</heading>
			<tilt>0.0659406406683746</tilt>
			<gx:fovy>35</gx:fovy>
			<range>263.2089439422271</range>
			<altitudeMode>absolute</altitudeMode>
		</LookAt>
		<styleUrl>#__managed_style_0AF217602F41E9C2A2CB</styleUrl>
		<Point>
			<coordinates>-1.09258414220014,53.52364807267612,6.007189711481089</coordinates>
		</Point>
	</Placemark>
	<Placemark id="04C34AA8D641E9CA34BB">
		<name>34</name>
		<LookAt>
			<longitude>-1.090823717849926</longitude>
			<latitude>53.52409252649579</latitude>
			<altitude>5.447225735212935</altitude>
			<heading>-8.790959268032827</heading>
			<tilt>0.06594064625633815</tilt>
			<gx:fovy>35</gx:fovy>
			<range>263.9024408926707</range>
			<altitudeMode>absolute</altitudeMode>
		</LookAt>
		<styleUrl>#__managed_style_0AF217602F41E9C2A2CB</styleUrl>
		<Point>
			<coordinates>-1.091435304410791,53.52397005998039,5.593796969134537</coordinates>
		</Point>
	</Placemark>
	<Placemark id="09BE3A26CC41E9CA97F0">
		<name>33</name>
		<LookAt>
			<longitude>-1.090037915290634</longitude>
			<latitude>53.52453640626949</latitude>
			<altitude>4.864207482973793</altitude>
			<heading>-8.790329118962614</heading>
			<tilt>0.06594066912774095</tilt>
			<gx:fovy>35</gx:fovy>
			<range>266.2238397117471</range>
			<altitudeMode>absolute</altitudeMode>
		</LookAt>
		<styleUrl>#__managed_style_0AF217602F41E9C2A2CB</styleUrl>
		<Point>
			<coordinates>-1.09036683130275,53.52426932911116,5.41132405112593</coordinates>
		</Point>
	</Placemark>
	<Placemark id="0BD9D2E5C041E9CAC04F">
		<name>32</name>
		<LookAt>
			<longitude>-1.090037915290634</longitude>
			<latitude>53.52453640626949</latitude>
			<altitude>4.864207482973793</altitude>
			<heading>-8.790329118962614</heading>
			<tilt>0.06594066912774095</tilt>
			<gx:fovy>35</gx:fovy>
			<range>266.2238397117471</range>
			<altitudeMode>absolute</altitudeMode>
		</LookAt>
		<styleUrl>#__managed_style_0AF217602F41E9C2A2CB</styleUrl>
		<Point>
			<coordinates>-1.089333343739431,53.52455778500488,5.314117306924335</coordinates>
		</Point>
	</Placemark>
	<Placemark id="00B311862E41E9CAF1C8">
		<name>31</name>
		<LookAt>
			<longitude>-1.088935477022269</longitude>
			<latitude>53.52477794772198</latitude>
			<altitude>5.228979187090347</altitude>
			<heading>-8.789442633364688</heading>
			<tilt>0.06594066408144131</tilt>
			<gx:fovy>35</gx:fovy>
			<range>265.8590474754237</range>
			<altitudeMode>absolute</altitudeMode>
		</LookAt>
		<styleUrl>#__managed_style_0AF217602F41E9C2A2CB</styleUrl>
		<Point>
			<coordinates>-1.088201417849752,53.52487045613881,5.228985381835685</coordinates>
		</Point>
	</Placemark>
	<Placemark id="0D75A6501E41E9CB3F80">
		<name>30</name>
		<LookAt>
			<longitude>-1.086847266438609</longitude>
			<latitude>53.52543700507657</latitude>
			<altitude>4.864253599096933</altitude>
			<heading>-8.787763487335521</heading>
			<tilt>0.06594066324131252</tilt>
			<gx:fovy>35</gx:fovy>
			<range>266.2237933565485</range>
			<altitudeMode>absolute</altitudeMode>
		</LookAt>
		<styleUrl>#__managed_style_0AF217602F41E9C2A2CB</styleUrl>
		<Point>
			<coordinates>-1.087119536088864,53.52516658679171,5.170105270980869</coordinates>
		</Point>
	</Placemark>
	<Placemark id="0F44B37FAA41E9CB999B">
		<name>29</name>
		<LookAt>
			<longitude>-1.085813392029245</longitude>
			<latitude>53.52556708409634</latitude>
			<altitude>5.168920768901089</altitude>
			<heading>-8.786932133550851</heading>
			<tilt>0.06594065869798429</tilt>
			<gx:fovy>35</gx:fovy>
			<range>265.9190774577655</range>
			<altitudeMode>absolute</altitudeMode>
		</LookAt>
		<styleUrl>#__managed_style_0AF217602F41E9C2A2CB</styleUrl>
		<Point>
			<coordinates>-1.08584141734778,53.52553445826805,5.175553462503617</coordinates>
		</Point>
	</Placemark>
	<Placemark id="0EC46FD61941E9CBC954">
		<name>28</name>
		<LookAt>
			<longitude>-1.085257967338055</longitude>
			<latitude>53.52600017425449</latitude>
			<altitude>4.86423385201994</altitude>
			<heading>-8.786485498481353</heading>
			<tilt>0.06594066166607102</tilt>
			<gx:fovy>35</gx:fovy>
			<range>266.2238165341478</range>
			<altitudeMode>absolute</altitudeMode>
		</LookAt>
		<styleUrl>#__managed_style_0AF217602F41E9C2A2CB</styleUrl>
		<Point>
			<coordinates>-1.084732026659376,53.52584470740505,5.411342877266816</coordinates>
		</Point>
	</Placemark>
	<Placemark id="0C445BA45F41E9CC02AE">
		<name>27</name>
		<LookAt>
			<longitude>-1.083527478384272</longitude>
			<latitude>53.52630312508116</latitude>
			<altitude>6.472302234105635</altitude>
			<heading>-8.785093964553841</heading>
			<tilt>0.0659406437359511</tilt>
			<gx:fovy>35</gx:fovy>
			<range>264.6157083353683</range>
			<altitudeMode>absolute</altitudeMode>
		</LookAt>
		<styleUrl>#__managed_style_0AF217602F41E9C2A2CB</styleUrl>
		<Point>
			<coordinates>-1.083525743926235,53.52617191289863,5.518676346662314</coordinates>
		</Point>
	</Placemark>
</Document>
</kml>
