<?xml version="1.0" encoding="UTF-8"?>
<kml xmlns="http://www.opengis.net/kml/2.2" xmlns:gx="http://www.google.com/kml/ext/2.2" xmlns:kml="http://www.opengis.net/kml/2.2" xmlns:atom="http://www.w3.org/2005/Atom">
<Document id="1SYZSXBoaEaF1VOe2EqdZ-1e0jhofPsu1">
	<name>Hurlingham Park Polo</name>
	<gx:CascadingStyle kml:id="__managed_style_042EEC61083F615109AB_highlight">
		<Style>
			<IconStyle>
				<scale>1.2</scale>
				<Icon>
					<href>https://earth.google.com/earth/document/icon?color=1976d2&amp;id=2000&amp;scale=4</href>
				</Icon>
				<hotSpot x="64" y="128" xunits="pixels" yunits="insetPixels"/>
			</IconStyle>
			<LabelStyle>
			</LabelStyle>
			<LineStyle>
				<color>ff2dc0fb</color>
				<width>6</width>
			</LineStyle>
			<PolyStyle>
				<color>40ffffff</color>
			</PolyStyle>
			<BalloonStyle>
			</BalloonStyle>
		</Style>
	</gx:CascadingStyle>
	<gx:CascadingStyle kml:id="__managed_style_042EEC61083F615109AB_normal">
		<Style>
			<IconStyle>
				<Icon>
					<href>https://earth.google.com/earth/document/icon?color=1976d2&amp;id=2000&amp;scale=4</href>
				</Icon>
				<hotSpot x="64" y="128" xunits="pixels" yunits="insetPixels"/>
			</IconStyle>
			<LabelStyle>
			</LabelStyle>
			<LineStyle>
				<color>ff2dc0fb</color>
				<width>4</width>
			</LineStyle>
			<PolyStyle>
				<color>40ffffff</color>
			</PolyStyle>
			<BalloonStyle>
			</BalloonStyle>
		</Style>
	</gx:CascadingStyle>
	<StyleMap id="__managed_style_042EEC61083F615109AB">
		<Pair>
			<key>normal</key>
			<styleUrl>#__managed_style_042EEC61083F615109AB_normal</styleUrl>
		</Pair>
		<Pair>
			<key>highlight</key>
			<styleUrl>#__managed_style_042EEC61083F615109AB_highlight</styleUrl>
		</Pair>
	</StyleMap>
	<gx:CascadingStyle kml:id="__managed_style_06D72D5F8D3F615109A9_highlight">
		<Style>
			<IconStyle>
				<scale>1.2</scale>
				<Icon>
					<href>https://earth.google.com/earth/document/icon?color=1976d2&amp;id=2000&amp;scale=4</href>
				</Icon>
				<hotSpot x="64" y="128" xunits="pixels" yunits="insetPixels"/>
			</IconStyle>
			<LabelStyle>
			</LabelStyle>
			<LineStyle>
				<color>ff2dc0fb</color>
				<width>6</width>
			</LineStyle>
			<PolyStyle>
				<color>40ffffff</color>
			</PolyStyle>
			<BalloonStyle>
			</BalloonStyle>
		</Style>
	</gx:CascadingStyle>
	<gx:CascadingStyle kml:id="__managed_style_06D72D5F8D3F615109A9_normal">
		<Style>
			<IconStyle>
				<Icon>
					<href>https://earth.google.com/earth/document/icon?color=1976d2&amp;id=2000&amp;scale=4</href>
				</Icon>
				<hotSpot x="64" y="128" xunits="pixels" yunits="insetPixels"/>
			</IconStyle>
			<LabelStyle>
			</LabelStyle>
			<LineStyle>
				<color>ff2dc0fb</color>
				<width>4</width>
			</LineStyle>
			<PolyStyle>
				<color>40ffffff</color>
			</PolyStyle>
			<BalloonStyle>
			</BalloonStyle>
		</Style>
	</gx:CascadingStyle>
	<StyleMap id="__managed_style_06D72D5F8D3F615109A9">
		<Pair>
			<key>normal</key>
			<styleUrl>#__managed_style_06D72D5F8D3F615109A9_normal</styleUrl>
		</Pair>
		<Pair>
			<key>highlight</key>
			<styleUrl>#__managed_style_06D72D5F8D3F615109A9_highlight</styleUrl>
		</Pair>
	</StyleMap>
	<Placemark id="08CDB93D513F6069A1A4">
		<name>1</name>
		<LookAt>
			<longitude>-0.2016138168644943</longitude>
			<latitude>51.46968072056658</latitude>
			<altitude>5.134857014403744</altitude>
			<heading>70.44484745364265</heading>
			<tilt>0</tilt>
			<gx:fovy>35</gx:fovy>
			<range>139.2441332064845</range>
			<altitudeMode>absolute</altitudeMode>
		</LookAt>
		<styleUrl>#__managed_style_06D72D5F8D3F615109A9</styleUrl>
		<Point>
			<coordinates>-0.2021415788594505,51.46988010702462,5.226977967465354</coordinates>
		</Point>
	</Placemark>
	<Placemark id="0C1C7A24803F6069C338">
		<name>2</name>
		<LookAt>
			<longitude>-0.2016138168644943</longitude>
			<latitude>51.46968072056658</latitude>
			<altitude>5.134857014403744</altitude>
			<heading>70.44484745364265</heading>
			<tilt>0</tilt>
			<gx:fovy>35</gx:fovy>
			<range>139.2441332064845</range>
			<altitudeMode>absolute</altitudeMode>
		</LookAt>
		<styleUrl>#__managed_style_06D72D5F8D3F615109A9</styleUrl>
		<Point>
			<coordinates>-0.2020185926932394,51.46991608399977,5.161082886815249</coordinates>
		</Point>
	</Placemark>
	<Placemark id="0D9151F4773F6069DD94">
		<name>3</name>
		<LookAt>
			<longitude>-0.2016138168644943</longitude>
			<latitude>51.46968072056658</latitude>
			<altitude>5.134857014403744</altitude>
			<heading>70.44484745364265</heading>
			<tilt>0</tilt>
			<gx:fovy>35</gx:fovy>
			<range>139.2441332064845</range>
			<altitudeMode>absolute</altitudeMode>
		</LookAt>
		<styleUrl>#__managed_style_06D72D5F8D3F615109A9</styleUrl>
		<Point>
			<coordinates>-0.2018825590616802,51.46994780736654,5.375908546327253</coordinates>
		</Point>
	</Placemark>
	<Placemark id="0146C95E623F6069F74C">
		<name>4</name>
		<LookAt>
			<longitude>-0.2016138168644943</longitude>
			<latitude>51.46968072056658</latitude>
			<altitude>5.134857014403744</altitude>
			<heading>70.44484745364265</heading>
			<tilt>0</tilt>
			<gx:fovy>35</gx:fovy>
			<range>139.2441332064845</range>
			<altitudeMode>absolute</altitudeMode>
		</LookAt>
		<styleUrl>#__managed_style_06D72D5F8D3F615109A9</styleUrl>
		<Point>
			<coordinates>-0.20175351106692,51.46997717237607,5.358851894341178</coordinates>
		</Point>
	</Placemark>
	<Placemark id="034894135B3F606A0A60">
		<name>5</name>
		<LookAt>
			<longitude>-0.2016138168644943</longitude>
			<latitude>51.46968072056658</latitude>
			<altitude>5.134857014403744</altitude>
			<heading>70.44484745364265</heading>
			<tilt>0</tilt>
			<gx:fovy>35</gx:fovy>
			<range>139.2441332064845</range>
			<altitudeMode>absolute</altitudeMode>
		</LookAt>
		<styleUrl>#__managed_style_06D72D5F8D3F615109A9</styleUrl>
		<Point>
			<coordinates>-0.2016193630374852,51.4700087621726,5.090415008812608</coordinates>
		</Point>
	</Placemark>
	<Placemark id="0A57C31AC53F606A1F14">
		<name>6</name>
		<LookAt>
			<longitude>-0.2016138168644943</longitude>
			<latitude>51.46968072056658</latitude>
			<altitude>5.134857014403744</altitude>
			<heading>70.44484745364265</heading>
			<tilt>0</tilt>
			<gx:fovy>35</gx:fovy>
			<range>139.2441332064845</range>
			<altitudeMode>absolute</altitudeMode>
		</LookAt>
		<styleUrl>#__managed_style_06D72D5F8D3F615109A9</styleUrl>
		<Point>
			<coordinates>-0.2015323965917704,51.47002899580516,4.907043064771022</coordinates>
		</Point>
	</Placemark>
	<Placemark id="083F864EBA3F606E0800">
		<name>7</name>
		<LookAt>
			<longitude>-0.2013518780131751</longitude>
			<latitude>51.46979732093174</latitude>
			<altitude>4.957917751071578</altitude>
			<heading>63.94868023655522</heading>
			<tilt>10.69698284640344</tilt>
			<gx:fovy>35</gx:fovy>
			<range>120.5876143218302</range>
			<altitudeMode>absolute</altitudeMode>
		</LookAt>
		<styleUrl>#__managed_style_042EEC61083F615109AB</styleUrl>
		<Point>
			<coordinates>-0.201389423035786,51.46986554970415,4.884640107069151</coordinates>
		</Point>
	</Placemark>
	<Placemark id="0E860B85663F606E34A9">
		<name>8</name>
		<LookAt>
			<longitude>-0.2013518780131751</longitude>
			<latitude>51.46979732093174</latitude>
			<altitude>4.957917751071578</altitude>
			<heading>63.94868023655522</heading>
			<tilt>10.69698284640344</tilt>
			<gx:fovy>35</gx:fovy>
			<range>120.5876143218302</range>
			<altitudeMode>absolute</altitudeMode>
		</LookAt>
		<styleUrl>#__managed_style_042EEC61083F615109AB</styleUrl>
		<Point>
			<coordinates>-0.2015173405306625,51.46983672613333,5.071838554783358</coordinates>
		</Point>
	</Placemark>
	<Placemark id="00A9EEEEC13F606E5490">
		<name>9</name>
		<LookAt>
			<longitude>-0.2013518780131751</longitude>
			<latitude>51.46979732093174</latitude>
			<altitude>4.957917751071578</altitude>
			<heading>63.94868023655522</heading>
			<tilt>10.69698284640344</tilt>
			<gx:fovy>35</gx:fovy>
			<range>120.5876143218302</range>
			<altitudeMode>absolute</altitudeMode>
		</LookAt>
		<styleUrl>#__managed_style_042EEC61083F615109AB</styleUrl>
		<Point>
			<coordinates>-0.2016489552261247,51.46980405665965,5.149900478839373</coordinates>
		</Point>
	</Placemark>
	<Placemark id="05337BF8BB3F614AC2D7">
		<name>10</name>
		<LookAt>
			<longitude>-0.2014165272944535</longitude>
			<latitude>51.46976461890476</latitude>
			<altitude>4.957922245409541</altitude>
			<heading>63.94841709195002</heading>
			<tilt>1.442575121642145</tilt>
			<gx:fovy>35</gx:fovy>
			<range>114.6608008567455</range>
			<altitudeMode>absolute</altitudeMode>
		</LookAt>
		<styleUrl>#__managed_style_042EEC61083F615109AB</styleUrl>
		<Point>
			<coordinates>-0.2017725530185555,51.46977298711643,5.189273139992805</coordinates>
		</Point>
	</Placemark>
	<Placemark id="003E40ECAE3F614AFDBE">
		<name>11</name>
		<LookAt>
			<longitude>-0.2016796627802742</longitude>
			<latitude>51.46963436435525</latitude>
			<altitude>5.149887256120794</altitude>
			<heading>63.94821124623889</heading>
			<tilt>1.44257507814256</tilt>
			<gx:fovy>35</gx:fovy>
			<range>114.4687628572501</range>
			<altitudeMode>absolute</altitudeMode>
		</LookAt>
		<styleUrl>#__managed_style_042EEC61083F615109AB</styleUrl>
		<Point>
			<coordinates>-0.2019213470453352,51.46973858462194,5.245894849558441</coordinates>
		</Point>
	</Placemark>
	<Placemark id="02C58455EA3F614B153C">
		<name>12</name>
		<LookAt>
			<longitude>-0.2016796627802742</longitude>
			<latitude>51.46963436435525</latitude>
			<altitude>5.149887256120794</altitude>
			<heading>63.94821124623889</heading>
			<tilt>1.44257507814256</tilt>
			<gx:fovy>35</gx:fovy>
			<range>114.4687628572501</range>
			<altitudeMode>absolute</altitudeMode>
		</LookAt>
		<styleUrl>#__managed_style_042EEC61083F615109AB</styleUrl>
		<Point>
			<coordinates>-0.2020607176215949,51.46970255733819,5.245873155925251</coordinates>
		</Point>
	</Placemark>
	<Placemark id="024E0D54E63F614B5968">
		<name>13</name>
		<LookAt>
			<longitude>-0.2018559494494265</longitude>
			<latitude>51.46948326518183</latitude>
			<altitude>5.235697124576069</altitude>
			<heading>63.94807334092763</heading>
			<tilt>1.44257505868807</tilt>
			<gx:fovy>35</gx:fovy>
			<range>114.3829130292215</range>
			<altitudeMode>absolute</altitudeMode>
		</LookAt>
		<styleUrl>#__managed_style_042EEC61083F615109AB</styleUrl>
		<Point>
			<coordinates>-0.2021079173264895,51.46954171260865,5.245874891698836</coordinates>
		</Point>
	</Placemark>
	<Placemark id="0EF9C4F7C73F614B7129">
		<name>14</name>
		<LookAt>
			<longitude>-0.2018559494494265</longitude>
			<latitude>51.46948326518183</latitude>
			<altitude>5.235697124576069</altitude>
			<heading>63.94807334092763</heading>
			<tilt>1.44257505868807</tilt>
			<gx:fovy>35</gx:fovy>
			<range>114.3829130292215</range>
			<altitudeMode>absolute</altitudeMode>
		</LookAt>
		<styleUrl>#__managed_style_042EEC61083F615109AB</styleUrl>
		<Point>
			<coordinates>-0.2019650911697679,51.4695398150527,5.245875658438268</coordinates>
		</Point>
	</Placemark>
	<Placemark id="0A33735D213F614B8F0B">
		<name>15</name>
		<LookAt>
			<longitude>-0.2018559494494265</longitude>
			<latitude>51.46948326518183</latitude>
			<altitude>5.235697124576069</altitude>
			<heading>63.94807334092763</heading>
			<tilt>1.44257505868807</tilt>
			<gx:fovy>35</gx:fovy>
			<range>114.3829130292215</range>
			<altitudeMode>absolute</altitudeMode>
		</LookAt>
		<styleUrl>#__managed_style_042EEC61083F615109AB</styleUrl>
		<Point>
			<coordinates>-0.2018241265915277,51.46957379664074,5.245870943415156</coordinates>
		</Point>
	</Placemark>
	<Placemark id="0A2ED6AAFD3F614BAD51">
		<name>16</name>
		<LookAt>
			<longitude>-0.2016112886623367</longitude>
			<latitude>51.46954602892557</latitude>
			<altitude>5.12093844442298</altitude>
			<heading>63.94826473398436</heading>
			<tilt>1.442575084645414</tilt>
			<gx:fovy>35</gx:fovy>
			<range>114.4977232676501</range>
			<altitudeMode>absolute</altitudeMode>
		</LookAt>
		<styleUrl>#__managed_style_042EEC61083F615109AB</styleUrl>
		<Point>
			<coordinates>-0.201688565410697,51.46960706820708,5.149900877770222</coordinates>
		</Point>
	</Placemark>
	<Placemark id="0982B6BC0E3F614BC708">
		<name>17</name>
		<LookAt>
			<longitude>-0.2016112886623367</longitude>
			<latitude>51.46954602892557</latitude>
			<altitude>5.12093844442298</altitude>
			<heading>63.94826473398436</heading>
			<tilt>1.442575084645414</tilt>
			<gx:fovy>35</gx:fovy>
			<range>114.4977232676501</range>
			<altitudeMode>absolute</altitudeMode>
		</LookAt>
		<styleUrl>#__managed_style_042EEC61083F615109AB</styleUrl>
		<Point>
			<coordinates>-0.2015546331887641,51.46964276200998,5.053909590984662</coordinates>
		</Point>
	</Placemark>
	<Placemark id="0F44A5834B3F614BE6C4">
		<name>18</name>
		<LookAt>
			<longitude>-0.2012579864884301</longitude>
			<latitude>51.46959800099779</latitude>
			<altitude>4.975287524163456</altitude>
			<heading>63.94854111258006</heading>
			<tilt>1.442575117613994</tilt>
			<gx:fovy>35</gx:fovy>
			<range>114.6434176572257</range>
			<altitudeMode>absolute</altitudeMode>
		</LookAt>
		<styleUrl>#__managed_style_042EEC61083F615109AB</styleUrl>
		<Point>
			<coordinates>-0.2014133069909896,51.46966958892328,5.013314358148399</coordinates>
		</Point>
	</Placemark>
	<Placemark id="05D354A9063F614BFB68">
		<name>19</name>
		<LookAt>
			<longitude>-0.2012579864884301</longitude>
			<latitude>51.46959800099779</latitude>
			<altitude>4.975287524163456</altitude>
			<heading>63.94854111258006</heading>
			<tilt>1.442575117613994</tilt>
			<gx:fovy>35</gx:fovy>
			<range>114.6434176572257</range>
			<altitudeMode>absolute</altitudeMode>
		</LookAt>
		<styleUrl>#__managed_style_042EEC61083F615109AB</styleUrl>
		<Point>
			<coordinates>-0.2012890033901171,51.46970159115921,4.997276115788296</coordinates>
		</Point>
	</Placemark>
	<Placemark id="0A953648D33F614C1878">
		<name>20</name>
		<LookAt>
			<longitude>-0.2012579864884301</longitude>
			<latitude>51.46959800099779</latitude>
			<altitude>4.975287524163456</altitude>
			<heading>63.94854111258006</heading>
			<tilt>1.442575117613994</tilt>
			<gx:fovy>35</gx:fovy>
			<range>114.6434176572257</range>
			<altitudeMode>absolute</altitudeMode>
		</LookAt>
		<styleUrl>#__managed_style_042EEC61083F615109AB</styleUrl>
		<Point>
			<coordinates>-0.2011836918519072,51.46975657252662,4.581853440698207</coordinates>
		</Point>
	</Placemark>
	<Placemark id="046C41D6923F614C352F">
		<name>21</name>
		<LookAt>
			<longitude>-0.2012579864884301</longitude>
			<latitude>51.46959800099779</latitude>
			<altitude>4.975287524163456</altitude>
			<heading>63.94854111258006</heading>
			<tilt>1.442575117613994</tilt>
			<gx:fovy>35</gx:fovy>
			<range>114.6434176572257</range>
			<altitudeMode>absolute</altitudeMode>
		</LookAt>
		<styleUrl>#__managed_style_042EEC61083F615109AB</styleUrl>
		<Point>
			<coordinates>-0.2010531689103123,51.4695578212614,4.957919929630112</coordinates>
		</Point>
	</Placemark>
	<Placemark id="0398135D2D3F614C4FDF">
		<name>22</name>
		<LookAt>
			<longitude>-0.2011787327039649</longitude>
			<latitude>51.46946579346187</latitude>
			<altitude>4.957925291147543</altitude>
			<heading>63.94860311167654</heading>
			<tilt>1.442575121500647</tilt>
			<gx:fovy>35</gx:fovy>
			<range>114.6607776791462</range>
			<altitudeMode>absolute</altitudeMode>
		</LookAt>
		<styleUrl>#__managed_style_042EEC61083F615109AB</styleUrl>
		<Point>
			<coordinates>-0.2011946275424803,51.46952509547619,4.989538492663749</coordinates>
		</Point>
	</Placemark>
	<Placemark id="026DF1AE3E3F614C66DC">
		<name>23</name>
		<LookAt>
			<longitude>-0.2011787327039649</longitude>
			<latitude>51.46946579346187</latitude>
			<altitude>4.957925291147543</altitude>
			<heading>63.94860311167654</heading>
			<tilt>1.442575121500647</tilt>
			<gx:fovy>35</gx:fovy>
			<range>114.6607776791462</range>
			<altitudeMode>absolute</altitudeMode>
		</LookAt>
		<styleUrl>#__managed_style_042EEC61083F615109AB</styleUrl>
		<Point>
			<coordinates>-0.2013186956150859,51.46949292357464,4.981606986317606</coordinates>
		</Point>
	</Placemark>
	<Placemark id="012F0B3F993F614C7ECE">
		<name>24</name>
		<LookAt>
			<longitude>-0.2011787327039649</longitude>
			<latitude>51.46946579346187</latitude>
			<altitude>4.957925291147543</altitude>
			<heading>63.94860311167654</heading>
			<tilt>1.442575121500647</tilt>
			<gx:fovy>35</gx:fovy>
			<range>114.6607776791462</range>
			<altitudeMode>absolute</altitudeMode>
		</LookAt>
		<styleUrl>#__managed_style_042EEC61083F615109AB</styleUrl>
		<Point>
			<coordinates>-0.2014529548459887,51.46946057608107,5.034254867897112</coordinates>
		</Point>
	</Placemark>
	<Placemark id="088E9203023F614CB184">
		<name>25</name>
		<LookAt>
			<longitude>-0.2012995294851028</longitude>
			<latitude>51.46942314836661</latitude>
			<altitude>5.030542014247523</altitude>
			<heading>63.94850861481091</heading>
			<tilt>1.442575105038087</tilt>
			<gx:fovy>35</gx:fovy>
			<range>114.5881390827526</range>
			<altitudeMode>absolute</altitudeMode>
		</LookAt>
		<styleUrl>#__managed_style_042EEC61083F615109AB</styleUrl>
		<Point>
			<coordinates>-0.2015877455935822,51.46942656392973,5.056275177353693</coordinates>
		</Point>
	</Placemark>
	<Placemark id="0C67B527D23F614CCBD1">
		<name>26</name>
		<LookAt>
			<longitude>-0.2014680333289309</longitude>
			<latitude>51.46936608649902</latitude>
			<altitude>4.992016196991598</altitude>
			<heading>63.94837679926416</heading>
			<tilt>1.442575113721782</tilt>
			<gx:fovy>35</gx:fovy>
			<range>114.6266718416882</range>
			<altitudeMode>absolute</altitudeMode>
		</LookAt>
		<styleUrl>#__managed_style_042EEC61083F615109AB</styleUrl>
		<Point>
			<coordinates>-0.2017288877786216,51.4693937520381,5.170242667291918</coordinates>
		</Point>
	</Placemark>
	<Placemark id="0133A3E1B93F614CE526">
		<name>27</name>
		<LookAt>
			<longitude>-0.2014680333289309</longitude>
			<latitude>51.46936608649902</latitude>
			<altitude>4.992016196991598</altitude>
			<heading>63.94837679926416</heading>
			<tilt>1.442575113721782</tilt>
			<gx:fovy>35</gx:fovy>
			<range>114.6266718416882</range>
			<altitudeMode>absolute</altitudeMode>
		</LookAt>
		<styleUrl>#__managed_style_042EEC61083F615109AB</styleUrl>
		<Point>
			<coordinates>-0.2018703445654657,51.46935792792279,5.245893576374883</coordinates>
		</Point>
	</Placemark>
	<Placemark id="0FB75CBFA63F614CFE69">
		<name>28</name>
		<LookAt>
			<longitude>-0.2019502997640676</longitude>
			<latitude>51.46932866540686</latitude>
			<altitude>5.24587303426549</altitude>
			<heading>63.947999535275</heading>
			<tilt>1.44257505620225</tilt>
			<gx:fovy>35</gx:fovy>
			<range>114.3727380631026</range>
			<altitudeMode>absolute</altitudeMode>
		</LookAt>
		<styleUrl>#__managed_style_042EEC61083F615109AB</styleUrl>
		<Point>
			<coordinates>-0.2020038209731922,51.46932834814093,5.245870271457167</coordinates>
		</Point>
	</Placemark>
	<Placemark id="0C931687DA3F614D15D1">
		<name>29</name>
		<LookAt>
			<longitude>-0.2017592525333523</longitude>
			<latitude>51.46906982893614</latitude>
			<altitude>5.149901278115719</altitude>
			<heading>63.94814898492884</heading>
			<tilt>1.442575077876745</tilt>
			<gx:fovy>35</gx:fovy>
			<range>114.4687396796508</range>
			<altitudeMode>absolute</altitudeMode>
		</LookAt>
		<styleUrl>#__managed_style_042EEC61083F615109AB</styleUrl>
		<Point>
			<coordinates>-0.2019082324511845,51.46916151465673,5.14987862110697</coordinates>
		</Point>
	</Placemark>
	<Placemark id="0B615557483F614D30FC">
		<name>30</name>
		<LookAt>
			<longitude>-0.2017592525333523</longitude>
			<latitude>51.46906982893614</latitude>
			<altitude>5.149901278115719</altitude>
			<heading>63.94814898492884</heading>
			<tilt>1.442575077876745</tilt>
			<gx:fovy>35</gx:fovy>
			<range>114.4687396796508</range>
			<altitudeMode>absolute</altitudeMode>
		</LookAt>
		<styleUrl>#__managed_style_042EEC61083F615109AB</styleUrl>
		<Point>
			<coordinates>-0.2017717046645884,51.46919500232613,5.149863888958548</coordinates>
		</Point>
	</Placemark>
	<Placemark id="0E9CCC19823F614D4B61">
		<name>31</name>
		<LookAt>
			<longitude>-0.2015185102887329</longitude>
			<latitude>51.46911322608254</latitude>
			<altitude>5.149893481988395</altitude>
			<heading>63.94833730885186</heading>
			<tilt>1.442575077856784</tilt>
			<gx:fovy>35</gx:fovy>
			<range>114.4687512684504</range>
			<altitudeMode>absolute</altitudeMode>
		</LookAt>
		<styleUrl>#__managed_style_042EEC61083F615109AB</styleUrl>
		<Point>
			<coordinates>-0.2016362730432109,51.4692289891229,5.149879895705176</coordinates>
		</Point>
	</Placemark>
	<Placemark id="03593CC5853F614D5DE7">
		<name>32</name>
		<LookAt>
			<longitude>-0.2015185102887329</longitude>
			<latitude>51.46911322608254</latitude>
			<altitude>5.149893481988395</altitude>
			<heading>63.94833730885186</heading>
			<tilt>1.442575077856784</tilt>
			<gx:fovy>35</gx:fovy>
			<range>114.4687512684504</range>
			<altitudeMode>absolute</altitudeMode>
		</LookAt>
		<styleUrl>#__managed_style_042EEC61083F615109AB</styleUrl>
		<Point>
			<coordinates>-0.2014876639293262,51.46926480045008,5.053919040835964</coordinates>
		</Point>
	</Placemark>
	<Placemark id="0586F5C2233F614D73F3">
		<name>33</name>
		<LookAt>
			<longitude>-0.2013214632134863</longitude>
			<latitude>51.46914095367058</latitude>
			<altitude>5.149895236152409</altitude>
			<heading>63.94849145419838</heading>
			<tilt>1.442575077810545</tilt>
			<gx:fovy>35</gx:fovy>
			<range>114.4687512684504</range>
			<altitudeMode>absolute</altitudeMode>
		</LookAt>
		<styleUrl>#__managed_style_042EEC61083F615109AB</styleUrl>
		<Point>
			<coordinates>-0.2013558460201881,51.4692903215437,4.987143187361164</coordinates>
		</Point>
	</Placemark>
	<Placemark id="0561BC7AB63F614D89C0">
		<name>34</name>
		<LookAt>
			<longitude>-0.2011371391696382</longitude>
			<latitude>51.46918825327003</latitude>
			<altitude>5.083982669033452</altitude>
			<heading>63.94863564473383</heading>
			<tilt>1.442575092708538</tilt>
			<gx:fovy>35</gx:fovy>
			<range>114.5346799498293</range>
			<altitudeMode>absolute</altitudeMode>
		</LookAt>
		<styleUrl>#__managed_style_042EEC61083F615109AB</styleUrl>
		<Point>
			<coordinates>-0.2012179660927726,51.46932174405797,4.963814169695421</coordinates>
		</Point>
	</Placemark>
	<Placemark id="05D9A3D1263F614D9CEB">
		<name>35</name>
		<LookAt>
			<longitude>-0.2011371391696382</longitude>
			<latitude>51.46918825327003</latitude>
			<altitude>5.083982669033452</altitude>
			<heading>63.94863564473383</heading>
			<tilt>1.442575092708538</tilt>
			<gx:fovy>35</gx:fovy>
			<range>114.5346799498293</range>
			<altitudeMode>absolute</altitudeMode>
		</LookAt>
		<styleUrl>#__managed_style_042EEC61083F615109AB</styleUrl>
		<Point>
			<coordinates>-0.2010927087800407,51.46935407967701,4.957917173895032</coordinates>
		</Point>
	</Placemark>
	<Placemark id="079D3C86563F614DB49F">
		<name>36</name>
		<LookAt>
			<longitude>-0.2010077600265292</longitude>
			<latitude>51.46922002250699</latitude>
			<altitude>5.053915177431188</altitude>
			<heading>63.94873685623232</heading>
			<tilt>1.442575099475185</tilt>
			<gx:fovy>35</gx:fovy>
			<range>114.5647644737983</range>
			<altitudeMode>absolute</altitudeMode>
		</LookAt>
		<styleUrl>#__managed_style_042EEC61083F615109AB</styleUrl>
		<Point>
			<coordinates>-0.2009568802389161,51.46938465985244,5.053904673666829</coordinates>
		</Point>
	</Placemark>
	<Placemark id="0673022ACC3F614DC8CC">
		<name>37</name>
		<LookAt>
			<longitude>-0.2010077600265292</longitude>
			<latitude>51.46922002250699</latitude>
			<altitude>5.053915177431188</altitude>
			<heading>63.94873685623232</heading>
			<tilt>1.442575099475185</tilt>
			<gx:fovy>35</gx:fovy>
			<range>114.5647644737983</range>
			<altitudeMode>absolute</altitudeMode>
		</LookAt>
		<styleUrl>#__managed_style_042EEC61083F615109AB</styleUrl>
		<Point>
			<coordinates>-0.2008521656800721,51.46920718815337,5.376784247637438</coordinates>
		</Point>
	</Placemark>
	<Placemark id="03824855423F614DE2B6">
		<name>38</name>
		<LookAt>
			<longitude>-0.2010077600265292</longitude>
			<latitude>51.46922002250699</latitude>
			<altitude>5.053915177431188</altitude>
			<heading>63.94873685623232</heading>
			<tilt>1.442575099475185</tilt>
			<gx:fovy>35</gx:fovy>
			<range>114.5647644737983</range>
			<altitudeMode>absolute</altitudeMode>
		</LookAt>
		<styleUrl>#__managed_style_042EEC61083F615109AB</styleUrl>
		<Point>
			<coordinates>-0.200990592368544,51.4691825379737,5.053899422491974</coordinates>
		</Point>
	</Placemark>
	<Placemark id="0CC7A6313B3F614DF6E3">
		<name>39</name>
		<LookAt>
			<longitude>-0.2010077600265292</longitude>
			<latitude>51.46922002250699</latitude>
			<altitude>5.053915177431188</altitude>
			<heading>63.94873685623232</heading>
			<tilt>1.442575099475185</tilt>
			<gx:fovy>35</gx:fovy>
			<range>114.5647644737983</range>
			<altitudeMode>absolute</altitudeMode>
		</LookAt>
		<styleUrl>#__managed_style_042EEC61083F615109AB</styleUrl>
		<Point>
			<coordinates>-0.2011211605023289,51.46915126356254,5.130905795328317</coordinates>
		</Point>
	</Placemark>
	<Placemark id="0CBD0A12623F614E0AB0">
		<name>40</name>
		<LookAt>
			<longitude>-0.2010077600265292</longitude>
			<latitude>51.46922002250699</latitude>
			<altitude>5.053915177431188</altitude>
			<heading>63.94873685623232</heading>
			<tilt>1.442575099475185</tilt>
			<gx:fovy>35</gx:fovy>
			<range>114.5647644737983</range>
			<altitudeMode>absolute</altitudeMode>
		</LookAt>
		<styleUrl>#__managed_style_042EEC61083F615109AB</styleUrl>
		<Point>
			<coordinates>-0.2012608799231819,51.46911866334312,5.149875479172876</coordinates>
		</Point>
	</Placemark>
	<Placemark id="093AEC2B923F614E253F">
		<name>41</name>
		<LookAt>
			<longitude>-0.2012341592251976</longitude>
			<latitude>51.46913548500891</latitude>
			<altitude>5.149900616060268</altitude>
			<heading>63.9485597489265</heading>
			<tilt>1.442575077722108</tilt>
			<gx:fovy>35</gx:fovy>
			<range>114.4687512684505</range>
			<altitudeMode>absolute</altitudeMode>
		</LookAt>
		<styleUrl>#__managed_style_042EEC61083F615109AB</styleUrl>
		<Point>
			<coordinates>-0.2013971736079401,51.46908812425226,5.149886516259681</coordinates>
		</Point>
	</Placemark>
	<Placemark id="0A825BECBD3F614E3A03">
		<name>42</name>
		<LookAt>
			<longitude>-0.2012341592251976</longitude>
			<latitude>51.46913548500891</latitude>
			<altitude>5.149900616060268</altitude>
			<heading>63.9485597489265</heading>
			<tilt>1.442575077722108</tilt>
			<gx:fovy>35</gx:fovy>
			<range>114.4687512684505</range>
			<altitudeMode>absolute</altitudeMode>
		</LookAt>
		<styleUrl>#__managed_style_042EEC61083F615109AB</styleUrl>
		<Point>
			<coordinates>-0.2015377076030611,51.4690551824216,5.149910838309594</coordinates>
		</Point>
	</Placemark>
	<Placemark id="029ADEE0033F614E5151">
		<name>43</name>
		<LookAt>
			<longitude>-0.2016265062373768</longitude>
			<latitude>51.46901458068801</latitude>
			<altitude>5.149897921155069</altitude>
			<heading>63.94825282917635</heading>
			<tilt>1.44257507769204</tilt>
			<gx:fovy>35</gx:fovy>
			<range>114.4687396796508</range>
			<altitudeMode>absolute</altitudeMode>
		</LookAt>
		<styleUrl>#__managed_style_042EEC61083F615109AB</styleUrl>
		<Point>
			<coordinates>-0.2016741107803843,51.46901912777303,5.149884736631996</coordinates>
		</Point>
	</Placemark>
	<Placemark id="064AE201443F614E688E">
		<name>44</name>
		<LookAt>
			<longitude>-0.2016265062373768</longitude>
			<latitude>51.46901458068801</latitude>
			<altitude>5.149897921155069</altitude>
			<heading>63.94825282917635</heading>
			<tilt>1.44257507769204</tilt>
			<gx:fovy>35</gx:fovy>
			<range>114.4687396796508</range>
			<altitudeMode>absolute</altitudeMode>
		</LookAt>
		<styleUrl>#__managed_style_042EEC61083F615109AB</styleUrl>
		<Point>
			<coordinates>-0.2018058506996478,51.46899113200123,5.149886736944831</coordinates>
		</Point>
	</Placemark>
	<Placemark id="06A9E4D7933F614E83C3">
		<name>45</name>
		<LookAt>
			<longitude>-0.2016265062373768</longitude>
			<latitude>51.46901458068801</latitude>
			<altitude>5.149897921155069</altitude>
			<heading>63.94825282917635</heading>
			<tilt>1.44257507769204</tilt>
			<gx:fovy>35</gx:fovy>
			<range>114.4687396796508</range>
			<altitudeMode>absolute</altitudeMode>
		</LookAt>
		<styleUrl>#__managed_style_042EEC61083F615109AB</styleUrl>
		<Point>
			<coordinates>-0.2017089088861412,51.46880867538678,5.143155200444056</coordinates>
		</Point>
	</Placemark>
	<Placemark id="01A8716D5D3F614E9B74">
		<name>46</name>
		<LookAt>
			<longitude>-0.2016265062373768</longitude>
			<latitude>51.46901458068801</latitude>
			<altitude>5.149897921155069</altitude>
			<heading>63.94825282917635</heading>
			<tilt>1.44257507769204</tilt>
			<gx:fovy>35</gx:fovy>
			<range>114.4687396796508</range>
			<altitudeMode>absolute</altitudeMode>
		</LookAt>
		<styleUrl>#__managed_style_042EEC61083F615109AB</styleUrl>
		<Point>
			<coordinates>-0.2015724976941291,51.4688444885697,5.14988882213657</coordinates>
		</Point>
	</Placemark>
	<Placemark id="0070351DC83F614EB144">
		<name>47</name>
		<LookAt>
			<longitude>-0.2016265062373768</longitude>
			<latitude>51.46901458068801</latitude>
			<altitude>5.149897921155069</altitude>
			<heading>63.94825282917635</heading>
			<tilt>1.44257507769204</tilt>
			<gx:fovy>35</gx:fovy>
			<range>114.4687396796508</range>
			<altitudeMode>absolute</altitudeMode>
		</LookAt>
		<styleUrl>#__managed_style_042EEC61083F615109AB</styleUrl>
		<Point>
			<coordinates>-0.2014429433225484,51.46887403205756,5.38290429812405</coordinates>
		</Point>
	</Placemark>
	<Placemark id="0FD55CEE053F614EC7E8">
		<name>48</name>
		<LookAt>
			<longitude>-0.2012991370406558</longitude>
			<latitude>51.4689969537799</latitude>
			<altitude>5.219271589679984</altitude>
			<heading>63.94850892009959</heading>
			<tilt>1.442575061915999</tilt>
			<gx:fovy>35</gx:fovy>
			<range>114.3993459471676</range>
			<altitudeMode>absolute</altitudeMode>
		</LookAt>
		<styleUrl>#__managed_style_042EEC61083F615109AB</styleUrl>
		<Point>
			<coordinates>-0.2012963579408256,51.46891092037499,5.43474268959701</coordinates>
		</Point>
	</Placemark>
	<Placemark id="04CDF5A02E3F614EDC8F">
		<name>49</name>
		<LookAt>
			<longitude>-0.2012991370406558</longitude>
			<latitude>51.4689969537799</latitude>
			<altitude>5.219271589679984</altitude>
			<heading>63.94850892009959</heading>
			<tilt>1.442575061915999</tilt>
			<gx:fovy>35</gx:fovy>
			<range>114.3993459471676</range>
			<altitudeMode>absolute</altitudeMode>
		</LookAt>
		<styleUrl>#__managed_style_042EEC61083F615109AB</styleUrl>
		<Point>
			<coordinates>-0.2011578987723051,51.46894319769693,5.346301865123588</coordinates>
		</Point>
	</Placemark>
	<Placemark id="0FF364706B3F614EF4AF">
		<name>50</name>
		<LookAt>
			<longitude>-0.2010213058452559</longitude>
			<latitude>51.46902663829461</latitude>
			<altitude>5.149884654582388</altitude>
			<heading>63.94872625840105</heading>
			<tilt>1.442575077604361</tilt>
			<gx:fovy>35</gx:fovy>
			<range>114.4687628572501</range>
			<altitudeMode>absolute</altitudeMode>
		</LookAt>
		<styleUrl>#__managed_style_042EEC61083F615109AB</styleUrl>
		<Point>
			<coordinates>-0.2010153478425647,51.46897303988893,5.246517550905107</coordinates>
		</Point>
	</Placemark>
	<Placemark id="0A67DDA59C3F614F0D61">
		<name>51</name>
		<LookAt>
			<longitude>-0.2010213058452559</longitude>
			<latitude>51.46902663829461</latitude>
			<altitude>5.149884654582388</altitude>
			<heading>63.94872625840105</heading>
			<tilt>1.442575077604361</tilt>
			<gx:fovy>35</gx:fovy>
			<range>114.4687628572501</range>
			<altitudeMode>absolute</altitudeMode>
		</LookAt>
		<styleUrl>#__managed_style_042EEC61083F615109AB</styleUrl>
		<Point>
			<coordinates>-0.2008843437888097,51.46900503109693,5.245546609806146</coordinates>
		</Point>
	</Placemark>
	<Placemark id="0E48C228D43F614F211C">
		<name>52</name>
		<LookAt>
			<longitude>-0.2008694242676012</longitude>
			<latitude>51.46905795455293</latitude>
			<altitude>5.149896840363692</altitude>
			<heading>63.94884507062907</heading>
			<tilt>1.442575077592991</tilt>
			<gx:fovy>35</gx:fovy>
			<range>114.4687512684504</range>
			<altitudeMode>absolute</altitudeMode>
		</LookAt>
		<styleUrl>#__managed_style_042EEC61083F615109AB</styleUrl>
		<Point>
			<coordinates>-0.2007487230983318,51.46903450468026,5.228176122316828</coordinates>
		</Point>
	</Placemark>
	<Placemark id="07BA81637C3F614F3687">
		<name>53</name>
		<LookAt>
			<longitude>-0.2008694242676012</longitude>
			<latitude>51.46905795455293</latitude>
			<altitude>5.149896840363692</altitude>
			<heading>63.94884507062907</heading>
			<tilt>1.442575077592991</tilt>
			<gx:fovy>35</gx:fovy>
			<range>114.4687512684504</range>
			<altitudeMode>absolute</altitudeMode>
		</LookAt>
		<styleUrl>#__managed_style_042EEC61083F615109AB</styleUrl>
		<Point>
			<coordinates>-0.2006507251479273,51.46885662171179,5.725795894342847</coordinates>
		</Point>
	</Placemark>
	<Placemark id="080DBFAD523F614F4E26">
		<name>54</name>
		<LookAt>
			<longitude>-0.2008558266994498</longitude>
			<latitude>51.46887340471874</latitude>
			<altitude>5.673972218042527</altitude>
			<heading>63.94885570797653</heading>
			<tilt>1.442574958888106</tilt>
			<gx:fovy>35</gx:fovy>
			<range>113.9445203261312</range>
			<altitudeMode>absolute</altitudeMode>
		</LookAt>
		<styleUrl>#__managed_style_042EEC61083F615109AB</styleUrl>
		<Point>
			<coordinates>-0.2007759099544881,51.4688211537678,5.7998132226266</coordinates>
		</Point>
	</Placemark>
	<Placemark id="0F958A1F103F614F6191">
		<name>55</name>
		<LookAt>
			<longitude>-0.2008558266994498</longitude>
			<latitude>51.46887340471874</latitude>
			<altitude>5.673972218042527</altitude>
			<heading>63.94885570797653</heading>
			<tilt>1.442574958888106</tilt>
			<gx:fovy>35</gx:fovy>
			<range>113.9445203261312</range>
			<altitudeMode>absolute</altitudeMode>
		</LookAt>
		<styleUrl>#__managed_style_042EEC61083F615109AB</styleUrl>
		<Point>
			<coordinates>-0.200913210561432,51.4687915763995,5.725808916181354</coordinates>
		</Point>
	</Placemark>
	<Placemark id="01AA8E246B3F614F742C">
		<name>56</name>
		<LookAt>
			<longitude>-0.2008558266994498</longitude>
			<latitude>51.46887340471874</latitude>
			<altitude>5.673972218042527</altitude>
			<heading>63.94885570797653</heading>
			<tilt>1.442574958888106</tilt>
			<gx:fovy>35</gx:fovy>
			<range>113.9445203261312</range>
			<altitudeMode>absolute</altitudeMode>
		</LookAt>
		<styleUrl>#__managed_style_042EEC61083F615109AB</styleUrl>
		<Point>
			<coordinates>-0.2010514553050446,51.46876095338303,5.725783431290457</coordinates>
		</Point>
	</Placemark>
	<Placemark id="05D77D35F33F614F88BF">
		<name>57</name>
		<LookAt>
			<longitude>-0.2010882822379978</longitude>
			<latitude>51.46883194379812</latitude>
			<altitude>5.663110459931231</altitude>
			<heading>63.94867386554471</heading>
			<tilt>1.44257496129585</tilt>
			<gx:fovy>35</gx:fovy>
			<range>113.9553674426315</range>
			<altitudeMode>absolute</altitudeMode>
		</LookAt>
		<styleUrl>#__managed_style_042EEC61083F615109AB</styleUrl>
		<Point>
			<coordinates>-0.2011991804883206,51.4687285281093,5.629822468907966</coordinates>
		</Point>
	</Placemark>
	<Placemark id="01BA1C0B883F614F9BB0">
		<name>58</name>
		<LookAt>
			<longitude>-0.2010882822379978</longitude>
			<latitude>51.46883194379812</latitude>
			<altitude>5.663110459931231</altitude>
			<heading>63.94867386554471</heading>
			<tilt>1.44257496129585</tilt>
			<gx:fovy>35</gx:fovy>
			<range>113.9553674426315</range>
			<altitudeMode>absolute</altitudeMode>
		</LookAt>
		<styleUrl>#__managed_style_042EEC61083F615109AB</styleUrl>
		<Point>
			<coordinates>-0.2013404471315838,51.46869241616951,5.533812295151639</coordinates>
		</Point>
	</Placemark>
	<Placemark id="0BA66AF3973F614FB0D4">
		<name>59</name>
		<LookAt>
			<longitude>-0.2013616531177809</longitude>
			<latitude>51.46872216507418</latitude>
			<altitude>5.533840187774111</altitude>
			<heading>63.94846001726115</heading>
			<tilt>1.442574990542019</tilt>
			<gx:fovy>35</gx:fovy>
			<range>114.0846868582594</range>
			<altitudeMode>absolute</altitudeMode>
		</LookAt>
		<styleUrl>#__managed_style_042EEC61083F615109AB</styleUrl>
		<Point>
			<coordinates>-0.2014716750287726,51.46866360755052,5.359348829201281</coordinates>
		</Point>
	</Placemark>
	<Placemark id="0DAB79027E3F614FC5B7">
		<name>60</name>
		<LookAt>
			<longitude>-0.2013616531177809</longitude>
			<latitude>51.46872216507418</latitude>
			<altitude>5.533840187774111</altitude>
			<heading>63.94846001726086</heading>
			<tilt>1.442574990541008</tilt>
			<gx:fovy>35</gx:fovy>
			<range>114.0846868582594</range>
			<altitudeMode>absolute</altitudeMode>
		</LookAt>
		<styleUrl>#__managed_style_042EEC61083F615109AB</styleUrl>
		<Point>
			<coordinates>-0.2015969131194106,51.46863230578852,5.14766904782191</coordinates>
		</Point>
	</Placemark>
	<Placemark id="0FAD5A22623F614FE447">
		<name>61</name>
		<LookAt>
			<longitude>-0.2013616531177809</longitude>
			<latitude>51.46872216507418</latitude>
			<altitude>5.533840187774111</altitude>
			<heading>63.94846001726086</heading>
			<tilt>1.442574990541008</tilt>
			<gx:fovy>35</gx:fovy>
			<range>114.0846868582594</range>
			<altitudeMode>absolute</altitudeMode>
		</LookAt>
		<styleUrl>#__managed_style_042EEC61083F615109AB</styleUrl>
		<Point>
			<coordinates>-0.2013785595807704,51.46850014293683,5.437836797256854</coordinates>
		</Point>
	</Placemark>
	<Placemark id="0A27DDBE873F614FF514">
		<name>62</name>
		<LookAt>
			<longitude>-0.2013616531177809</longitude>
			<latitude>51.46872216507418</latitude>
			<altitude>5.533840187774111</altitude>
			<heading>63.94846001726086</heading>
			<tilt>1.442574990541008</tilt>
			<gx:fovy>35</gx:fovy>
			<range>114.0846868582594</range>
			<altitudeMode>absolute</altitudeMode>
		</LookAt>
		<styleUrl>#__managed_style_042EEC61083F615109AB</styleUrl>
		<Point>
			<coordinates>-0.2012473055359676,51.46853294870054,5.510958928960843</coordinates>
		</Point>
	</Placemark>
	<Placemark id="02451293553F61500368">
		<name>63</name>
		<LookAt>
			<longitude>-0.2013616531177809</longitude>
			<latitude>51.46872216507418</latitude>
			<altitude>5.533840187774111</altitude>
			<heading>63.94846001726086</heading>
			<tilt>1.442574990541008</tilt>
			<gx:fovy>35</gx:fovy>
			<range>114.0846868582594</range>
			<altitudeMode>absolute</altitudeMode>
		</LookAt>
		<styleUrl>#__managed_style_042EEC61083F615109AB</styleUrl>
		<Point>
			<coordinates>-0.2011034601690698,51.46856581816245,5.629813125155295</coordinates>
		</Point>
	</Placemark>
	<Placemark id="05CA34E9513F61501857">
		<name>64</name>
		<LookAt>
			<longitude>-0.2009368291700209</longitude>
			<latitude>51.46867634223354</latitude>
			<altitude>5.725807534069869</altitude>
			<heading>63.94879234193323</heading>
			<tilt>1.442574947029291</tilt>
			<gx:fovy>35</gx:fovy>
			<range>113.892648858764</range>
			<altitudeMode>absolute</altitudeMode>
		</LookAt>
		<styleUrl>#__managed_style_042EEC61083F615109AB</styleUrl>
		<Point>
			<coordinates>-0.2009582753250527,51.46859896124313,5.686437866312448</coordinates>
		</Point>
	</Placemark>
	<Placemark id="0FFD89B9CE3F61502AFB">
		<name>65</name>
		<LookAt>
			<longitude>-0.2009368291700209</longitude>
			<latitude>51.46867634223354</latitude>
			<altitude>5.725807534069869</altitude>
			<heading>63.94879234193323</heading>
			<tilt>1.442574947029291</tilt>
			<gx:fovy>35</gx:fovy>
			<range>113.892648858764</range>
			<altitudeMode>absolute</altitudeMode>
		</LookAt>
		<styleUrl>#__managed_style_042EEC61083F615109AB</styleUrl>
		<Point>
			<coordinates>-0.2008204328136975,51.4686305513167,5.725788028897751</coordinates>
		</Point>
	</Placemark>
	<Placemark id="0698ED217C3F61503EA4">
		<name>66</name>
		<LookAt>
			<longitude>-0.200792641879074</longitude>
			<latitude>51.46868014767823</latitude>
			<altitude>5.748459966431449</altitude>
			<heading>63.94890513525329</heading>
			<tilt>1.442574941850961</tilt>
			<gx:fovy>35</gx:fovy>
			<range>113.8699811665902</range>
			<altitudeMode>absolute</altitudeMode>
		</LookAt>
		<styleUrl>#__managed_style_042EEC61083F615109AB</styleUrl>
		<Point>
			<coordinates>-0.2006832206216791,51.46866125535144,5.760922829258675</coordinates>
		</Point>
	</Placemark>
	<Placemark id="05534E60423F61505346">
		<name>67</name>
		<LookAt>
			<longitude>-0.200792641879074</longitude>
			<latitude>51.46868014767823</latitude>
			<altitude>5.748459966431449</altitude>
			<heading>63.94890513525329</heading>
			<tilt>1.442574941850961</tilt>
			<gx:fovy>35</gx:fovy>
			<range>113.8699811665902</range>
			<altitudeMode>absolute</altitudeMode>
		</LookAt>
		<styleUrl>#__managed_style_042EEC61083F615109AB</styleUrl>
		<Point>
			<coordinates>-0.2006387389054687,51.46852595413859,5.725795844830152</coordinates>
		</Point>
	</Placemark>
	<Placemark id="027158AD473F615065C4">
		<name>68</name>
		<LookAt>
			<longitude>-0.200792641879074</longitude>
			<latitude>51.46868014767823</latitude>
			<altitude>5.748459966431449</altitude>
			<heading>63.94890513525329</heading>
			<tilt>1.442574941850961</tilt>
			<gx:fovy>35</gx:fovy>
			<range>113.8699811665902</range>
			<altitudeMode>absolute</altitudeMode>
		</LookAt>
		<styleUrl>#__managed_style_042EEC61083F615109AB</styleUrl>
		<Point>
			<coordinates>-0.2007268461675349,51.46846768652193,5.72579219079334</coordinates>
		</Point>
	</Placemark>
	<Placemark id="0B0E7563163F61507810">
		<name>69</name>
		<LookAt>
			<longitude>-0.200792641879074</longitude>
			<latitude>51.46868014767823</latitude>
			<altitude>5.748459966431449</altitude>
			<heading>63.94890513525329</heading>
			<tilt>1.442574941850961</tilt>
			<gx:fovy>35</gx:fovy>
			<range>113.8699811665902</range>
			<altitudeMode>absolute</altitudeMode>
		</LookAt>
		<styleUrl>#__managed_style_042EEC61083F615109AB</styleUrl>
		<Point>
			<coordinates>-0.2008683193724459,51.46844075066127,5.597931719034581</coordinates>
		</Point>
	</Placemark>
	<Placemark id="0F31099CA93F61508F6C">
		<name>70</name>
		<LookAt>
			<longitude>-0.200792641879074</longitude>
			<latitude>51.46868014767823</latitude>
			<altitude>5.748459966431449</altitude>
			<heading>63.94890513525329</heading>
			<tilt>1.442574941850961</tilt>
			<gx:fovy>35</gx:fovy>
			<range>113.8699811665902</range>
			<altitudeMode>absolute</altitudeMode>
		</LookAt>
		<styleUrl>#__managed_style_042EEC61083F615109AB</styleUrl>
		<Point>
			<coordinates>-0.2010192998831595,51.46840489349903,5.474277002622929</coordinates>
		</Point>
	</Placemark>
	<Placemark id="0038710FA53F6150AB84">
		<name>71</name>
		<LookAt>
			<longitude>-0.2011791394516804</longitude>
			<latitude>51.46853836397646</latitude>
			<altitude>5.535171718505884</altitude>
			<heading>63.94860279139134</heading>
			<tilt>1.442574990100848</tilt>
			<gx:fovy>35</gx:fovy>
			<range>114.0833541462962</range>
			<altitudeMode>absolute</altitudeMode>
		</LookAt>
		<styleUrl>#__managed_style_042EEC61083F615109AB</styleUrl>
		<Point>
			<coordinates>-0.2011599557414201,51.46837415976641,5.439923151837114</coordinates>
		</Point>
	</Placemark>
	<Placemark id="0295368B383F6150BEC0">
		<name>72</name>
		<LookAt>
			<longitude>-0.2011791394516804</longitude>
			<latitude>51.46853836397646</latitude>
			<altitude>5.535171718505884</altitude>
			<heading>63.94860279139134</heading>
			<tilt>1.442574990100848</tilt>
			<gx:fovy>35</gx:fovy>
			<range>114.0833541462962</range>
			<altitudeMode>absolute</altitudeMode>
		</LookAt>
		<styleUrl>#__managed_style_042EEC61083F615109AB</styleUrl>
		<Point>
			<coordinates>-0.2012929623564019,51.46836966105447,5.351884185119584</coordinates>
		</Point>
	</Placemark>
</Document>
</kml>
