<?xml version="1.0" encoding="UTF-8"?>
<kml xmlns="http://www.opengis.net/kml/2.2" xmlns:gx="http://www.google.com/kml/ext/2.2" xmlns:kml="http://www.opengis.net/kml/2.2" xmlns:atom="http://www.w3.org/2005/Atom">
<Document>
	<name>Cheltenham - All Maps</name>
	<gx:CascadingStyle kml:id="__managed_style_1994543C1E3097116463">
		<Style>
			<IconStyle>
				<scale>1.2</scale>
				<Icon>
					<href>https://earth.google.com/earth/rpc/cc/icon?color=f57c00&amp;id=2000&amp;scale=4</href>
				</Icon>
				<hotSpot x="64" y="128" xunits="pixels" yunits="insetPixels"/>
			</IconStyle>
			<LabelStyle>
			</LabelStyle>
			<LineStyle>
				<color>ff2dc0fb</color>
				<width>4.8</width>
			</LineStyle>
			<PolyStyle>
				<color>40ffffff</color>
			</PolyStyle>
			<BalloonStyle>
				<displayMode>hide</displayMode>
			</BalloonStyle>
		</Style>
	</gx:CascadingStyle>
	<gx:CascadingStyle kml:id="__managed_style_1BFF5CBAF9309713256B">
		<Style>
			<IconStyle>
				<scale>1.2</scale>
				<Icon>
					<href>https://earth.google.com/earth/rpc/cc/icon?color=fbc02d&amp;id=2000&amp;scale=4</href>
				</Icon>
				<hotSpot x="64" y="128" xunits="pixels" yunits="insetPixels"/>
			</IconStyle>
			<LabelStyle>
			</LabelStyle>
			<LineStyle>
				<color>ff2dc0fb</color>
				<width>4.8</width>
			</LineStyle>
			<PolyStyle>
				<color>40ffffff</color>
			</PolyStyle>
			<BalloonStyle>
				<displayMode>hide</displayMode>
			</BalloonStyle>
		</Style>
	</gx:CascadingStyle>
	<gx:CascadingStyle kml:id="__managed_style_133C456EF33096DC14CB">
		<Style>
			<IconStyle>
				<scale>1.2</scale>
				<Icon>
					<href>https://earth.google.com/earth/rpc/cc/icon?color=1976d2&amp;id=2000&amp;scale=4</href>
				</Icon>
				<hotSpot x="64" y="128" xunits="pixels" yunits="insetPixels"/>
			</IconStyle>
			<LabelStyle>
			</LabelStyle>
			<LineStyle>
				<color>ff2dc0fb</color>
				<width>4.8</width>
			</LineStyle>
			<PolyStyle>
				<color>40ffffff</color>
			</PolyStyle>
			<BalloonStyle>
				<displayMode>hide</displayMode>
			</BalloonStyle>
		</Style>
	</gx:CascadingStyle>
	<StyleMap id="__managed_style_0ADB6114F73096DC14CA">
		<Pair>
			<key>normal</key>
			<styleUrl>#__managed_style_0EAD77105B3096DC14CB</styleUrl>
		</Pair>
		<Pair>
			<key>highlight</key>
			<styleUrl>#__managed_style_133C456EF33096DC14CB</styleUrl>
		</Pair>
	</StyleMap>
	<StyleMap id="__managed_style_04174964C8309715D526">
		<Pair>
			<key>normal</key>
			<styleUrl>#__managed_style_1590AA3AB2309715D526</styleUrl>
		</Pair>
		<Pair>
			<key>highlight</key>
			<styleUrl>#__managed_style_07587F50CF309715D527</styleUrl>
		</Pair>
	</StyleMap>
	<gx:CascadingStyle kml:id="__managed_style_003DD244E93097116463">
		<Style>
			<IconStyle>
				<Icon>
					<href>https://earth.google.com/earth/rpc/cc/icon?color=f57c00&amp;id=2000&amp;scale=4</href>
				</Icon>
				<hotSpot x="64" y="128" xunits="pixels" yunits="insetPixels"/>
			</IconStyle>
			<LabelStyle>
			</LabelStyle>
			<LineStyle>
				<color>ff2dc0fb</color>
				<width>3.2</width>
			</LineStyle>
			<PolyStyle>
				<color>40ffffff</color>
			</PolyStyle>
			<BalloonStyle>
				<displayMode>hide</displayMode>
			</BalloonStyle>
		</Style>
	</gx:CascadingStyle>
	<StyleMap id="__managed_style_023AB98A643097116462">
		<Pair>
			<key>normal</key>
			<styleUrl>#__managed_style_003DD244E93097116463</styleUrl>
		</Pair>
		<Pair>
			<key>highlight</key>
			<styleUrl>#__managed_style_1994543C1E3097116463</styleUrl>
		</Pair>
	</StyleMap>
	<gx:CascadingStyle kml:id="__managed_style_0EAD77105B3096DC14CB">
		<Style>
			<IconStyle>
				<Icon>
					<href>https://earth.google.com/earth/rpc/cc/icon?color=1976d2&amp;id=2000&amp;scale=4</href>
				</Icon>
				<hotSpot x="64" y="128" xunits="pixels" yunits="insetPixels"/>
			</IconStyle>
			<LabelStyle>
			</LabelStyle>
			<LineStyle>
				<color>ff2dc0fb</color>
				<width>3.2</width>
			</LineStyle>
			<PolyStyle>
				<color>40ffffff</color>
			</PolyStyle>
			<BalloonStyle>
				<displayMode>hide</displayMode>
			</BalloonStyle>
		</Style>
	</gx:CascadingStyle>
	<gx:CascadingStyle kml:id="__managed_style_0CE7C7F767309713256B">
		<Style>
			<IconStyle>
				<Icon>
					<href>https://earth.google.com/earth/rpc/cc/icon?color=fbc02d&amp;id=2000&amp;scale=4</href>
				</Icon>
				<hotSpot x="64" y="128" xunits="pixels" yunits="insetPixels"/>
			</IconStyle>
			<LabelStyle>
			</LabelStyle>
			<LineStyle>
				<color>ff2dc0fb</color>
				<width>3.2</width>
			</LineStyle>
			<PolyStyle>
				<color>40ffffff</color>
			</PolyStyle>
			<BalloonStyle>
				<displayMode>hide</displayMode>
			</BalloonStyle>
		</Style>
	</gx:CascadingStyle>
	<StyleMap id="__managed_style_0C5BB2F06A309713256A">
		<Pair>
			<key>normal</key>
			<styleUrl>#__managed_style_0CE7C7F767309713256B</styleUrl>
		</Pair>
		<Pair>
			<key>highlight</key>
			<styleUrl>#__managed_style_1BFF5CBAF9309713256B</styleUrl>
		</Pair>
	</StyleMap>
	<gx:CascadingStyle kml:id="__managed_style_07587F50CF309715D527">
		<Style>
			<IconStyle>
				<scale>1.2</scale>
				<Icon>
					<href>https://earth.google.com/earth/rpc/cc/icon?color=388e3c&amp;id=2000&amp;scale=4</href>
				</Icon>
				<hotSpot x="64" y="128" xunits="pixels" yunits="insetPixels"/>
			</IconStyle>
			<LabelStyle>
			</LabelStyle>
			<LineStyle>
				<color>ff2dc0fb</color>
				<width>4.8</width>
			</LineStyle>
			<PolyStyle>
				<color>40ffffff</color>
			</PolyStyle>
			<BalloonStyle>
				<displayMode>hide</displayMode>
			</BalloonStyle>
		</Style>
	</gx:CascadingStyle>
	<gx:CascadingStyle kml:id="__managed_style_1590AA3AB2309715D526">
		<Style>
			<IconStyle>
				<Icon>
					<href>https://earth.google.com/earth/rpc/cc/icon?color=388e3c&amp;id=2000&amp;scale=4</href>
				</Icon>
				<hotSpot x="64" y="128" xunits="pixels" yunits="insetPixels"/>
			</IconStyle>
			<LabelStyle>
			</LabelStyle>
			<LineStyle>
				<color>ff2dc0fb</color>
				<width>3.2</width>
			</LineStyle>
			<PolyStyle>
				<color>40ffffff</color>
			</PolyStyle>
			<BalloonStyle>
				<displayMode>hide</displayMode>
			</BalloonStyle>
		</Style>
	</gx:CascadingStyle>
	<Placemark id="04074315733096DC14CA">
		<name>1</name>
		<LookAt>
			<longitude>-2.060360654869335</longitude>
			<latitude>51.92099851341842</latitude>
			<altitude>56.20848341511442</altitude>
			<heading>0</heading>
			<tilt>0</tilt>
			<gx:fovy>34.99999999969647</gx:fovy>
			<range>1467.985982221289</range>
			<altitudeMode>absolute</altitudeMode>
		</LookAt>
		<styleUrl>#__managed_style_04174964C8309715D526</styleUrl>
		<Point>
			<coordinates>-2.06481849004816,51.91863460187989,61.75891366674262</coordinates>
		</Point>
	</Placemark>
	<Placemark id="0B9B72290E3096DC553C">
		<name>2</name>
		<LookAt>
			<longitude>-2.062207117145064</longitude>
			<latitude>51.91862435397042</latitude>
			<altitude>61.94351429688675</altitude>
			<heading>0</heading>
			<tilt>0</tilt>
			<gx:fovy>34.99999999969647</gx:fovy>
			<range>691.3589559683169</range>
			<altitudeMode>absolute</altitudeMode>
		</LookAt>
		<styleUrl>#__managed_style_0C5BB2F06A309713256A</styleUrl>
		<Point>
			<coordinates>-2.065162318043525,51.9186462480618,62.49710801542544</coordinates>
		</Point>
	</Placemark>
	<Placemark id="018EE343243096DC987D">
		<name>3</name>
		<LookAt>
			<longitude>-2.057946171133469</longitude>
			<latitude>51.9187347981963</latitude>
			<altitude>59.24663401955288</altitude>
			<heading>0</heading>
			<tilt>0</tilt>
			<gx:fovy>34.99999999969647</gx:fovy>
			<range>1803.571940170659</range>
			<altitudeMode>absolute</altitudeMode>
		</LookAt>
		<styleUrl>#__managed_style_04174964C8309715D526</styleUrl>
		<Point>
			<coordinates>-2.06459748521059,51.9179967344654,65.16028025641735</coordinates>
		</Point>
	</Placemark>
	<Placemark id="0D8FC34A0C3096DCB9AE">
		<name>4</name>
		<LookAt>
			<longitude>-2.057994008507611</longitude>
			<latitude>51.918729701046</latitude>
			<altitude>59.24685977904684</altitude>
			<heading>0</heading>
			<tilt>0</tilt>
			<gx:fovy>34.99999999969647</gx:fovy>
			<range>1791.362722511112</range>
			<altitudeMode>absolute</altitudeMode>
		</LookAt>
		<styleUrl>#__managed_style_0C5BB2F06A309713256A</styleUrl>
		<Point>
			<coordinates>-2.064877413110939,51.91778829203558,66.29605840950735</coordinates>
		</Point>
	</Placemark>
	<Placemark id="0E121FB3253096DCDB25">
		<name>5</name>
		<LookAt>
			<longitude>-2.057994008507611</longitude>
			<latitude>51.918729701046</latitude>
			<altitude>59.24685977904684</altitude>
			<heading>0</heading>
			<tilt>0</tilt>
			<gx:fovy>34.99999999969647</gx:fovy>
			<range>1791.362722511112</range>
			<altitudeMode>absolute</altitudeMode>
		</LookAt>
		<styleUrl>#__managed_style_04174964C8309715D526</styleUrl>
		<Point>
			<coordinates>-2.063863764656586,51.91760538368595,65.78344744541943</coordinates>
		</Point>
	</Placemark>
	<Placemark id="01E27C32FD3096DCEF96">
		<name>6</name>
		<LookAt>
			<longitude>-2.057994008507611</longitude>
			<latitude>51.918729701046</latitude>
			<altitude>59.24685977904684</altitude>
			<heading>0</heading>
			<tilt>0</tilt>
			<gx:fovy>34.99999999969647</gx:fovy>
			<range>1791.362722511112</range>
			<altitudeMode>absolute</altitudeMode>
		</LookAt>
		<styleUrl>#__managed_style_0C5BB2F06A309713256A</styleUrl>
		<Point>
			<coordinates>-2.06399273072576,51.9172635521346,67.9427251080684</coordinates>
		</Point>
	</Placemark>
	<Placemark id="0127515CB63096DD0288">
		<name>7</name>
		<LookAt>
			<longitude>-2.057994008507611</longitude>
			<latitude>51.918729701046</latitude>
			<altitude>59.24685977904684</altitude>
			<heading>0</heading>
			<tilt>0</tilt>
			<gx:fovy>34.99999999969647</gx:fovy>
			<range>1791.362722511112</range>
			<altitudeMode>absolute</altitudeMode>
		</LookAt>
		<styleUrl>#__managed_style_04174964C8309715D526</styleUrl>
		<Point>
			<coordinates>-2.062839203918037,51.91754306439496,62.35431339269199</coordinates>
		</Point>
	</Placemark>
	<Placemark id="05BDFE8F093096DD1664">
		<name>8</name>
		<LookAt>
			<longitude>-2.057994008507611</longitude>
			<latitude>51.918729701046</latitude>
			<altitude>59.24685977904684</altitude>
			<heading>0</heading>
			<tilt>0</tilt>
			<gx:fovy>34.99999999969647</gx:fovy>
			<range>1791.362722511112</range>
			<altitudeMode>absolute</altitudeMode>
		</LookAt>
		<styleUrl>#__managed_style_0C5BB2F06A309713256A</styleUrl>
		<Point>
			<coordinates>-2.062861237162156,51.91723105620583,65.27829714044769</coordinates>
		</Point>
	</Placemark>
	<Placemark id="0923EDE1173096DD32D7">
		<name>9</name>
		<LookAt>
			<longitude>-2.057003693218478</longitude>
			<latitude>51.91894870920953</latitude>
			<altitude>61.34640981619725</altitude>
			<heading>0</heading>
			<tilt>0</tilt>
			<gx:fovy>34.99999999969647</gx:fovy>
			<range>1789.263202850707</range>
			<altitudeMode>absolute</altitudeMode>
		</LookAt>
		<styleUrl>#__managed_style_04174964C8309715D526</styleUrl>
		<Point>
			<coordinates>-2.061873649090495,51.91756963679024,62.35430719668176</coordinates>
		</Point>
	</Placemark>
	<Placemark id="0DE66F99BE3096DD50AA">
		<name>10</name>
		<LookAt>
			<longitude>-2.057003693218478</longitude>
			<latitude>51.91894870920953</latitude>
			<altitude>61.34640981619725</altitude>
			<heading>0</heading>
			<tilt>0</tilt>
			<gx:fovy>34.99999999969647</gx:fovy>
			<range>1789.263202850707</range>
			<altitudeMode>absolute</altitudeMode>
		</LookAt>
		<styleUrl>#__managed_style_0C5BB2F06A309713256A</styleUrl>
		<Point>
			<coordinates>-2.061919860740042,51.91720612558822,64.07595278660264</coordinates>
		</Point>
	</Placemark>
	<Placemark id="0068BD27373096DE6E94">
		<name>11</name>
		<LookAt>
			<longitude>-2.058190613751676</longitude>
			<latitude>51.91856031532132</latitude>
			<altitude>59.56534577197318</altitude>
			<heading>0</heading>
			<tilt>0</tilt>
			<gx:fovy>34.99999999969647</gx:fovy>
			<range>1236.89910500776</range>
			<altitudeMode>absolute</altitudeMode>
		</LookAt>
		<styleUrl>#__managed_style_04174964C8309715D526</styleUrl>
		<Point>
			<coordinates>-2.06088395131674,51.91752166599223,61.41353743180976</coordinates>
		</Point>
	</Placemark>
	<Placemark id="0979C26FEA3096DE82D2">
		<name>12</name>
		<LookAt>
			<longitude>-2.058190613751676</longitude>
			<latitude>51.91856031532132</latitude>
			<altitude>59.56534577197318</altitude>
			<heading>0</heading>
			<tilt>0</tilt>
			<gx:fovy>34.99999999969647</gx:fovy>
			<range>1236.89910500776</range>
			<altitudeMode>absolute</altitudeMode>
		</LookAt>
		<styleUrl>#__managed_style_0C5BB2F06A309713256A</styleUrl>
		<Point>
			<coordinates>-2.060889605912462,51.9171977914948,62.2017868021953</coordinates>
		</Point>
	</Placemark>
	<Placemark id="038D34738C3096DEA2EA">
		<name>13</name>
		<LookAt>
			<longitude>-2.058190613751676</longitude>
			<latitude>51.91856031532132</latitude>
			<altitude>59.56534577197318</altitude>
			<heading>0</heading>
			<tilt>0</tilt>
			<gx:fovy>34.99999999969647</gx:fovy>
			<range>1236.89910500776</range>
			<altitudeMode>absolute</altitudeMode>
		</LookAt>
		<styleUrl>#__managed_style_04174964C8309715D526</styleUrl>
		<Point>
			<coordinates>-2.060067846911076,51.91752063570538,60.83647475778137</coordinates>
		</Point>
	</Placemark>
	<Placemark id="03FED930823096DEB60E">
		<name>14</name>
		<LookAt>
			<longitude>-2.058190613751676</longitude>
			<latitude>51.91856031532132</latitude>
			<altitude>59.56534577197318</altitude>
			<heading>0</heading>
			<tilt>0</tilt>
			<gx:fovy>34.99999999969647</gx:fovy>
			<range>1236.89910500776</range>
			<altitudeMode>absolute</altitudeMode>
		</LookAt>
		<styleUrl>#__managed_style_0C5BB2F06A309713256A</styleUrl>
		<Point>
			<coordinates>-2.060087842098092,51.91717314004001,61.85498621851654</coordinates>
		</Point>
	</Placemark>
	<Placemark id="0C6AC1CCC03096DEC507">
		<name>15</name>
		<LookAt>
			<longitude>-2.058190613751676</longitude>
			<latitude>51.91856031532132</latitude>
			<altitude>59.56534577197318</altitude>
			<heading>0</heading>
			<tilt>0</tilt>
			<gx:fovy>34.99999999969647</gx:fovy>
			<range>1236.89910500776</range>
			<altitudeMode>absolute</altitudeMode>
		</LookAt>
		<styleUrl>#__managed_style_04174964C8309715D526</styleUrl>
		<Point>
			<coordinates>-2.059188264118035,51.9175609006507,60.93506694579508</coordinates>
		</Point>
	</Placemark>
	<Placemark id="0B585A580A3096DED443">
		<name>16</name>
		<LookAt>
			<longitude>-2.058190613751676</longitude>
			<latitude>51.91856031532132</latitude>
			<altitude>59.56534577197318</altitude>
			<heading>0</heading>
			<tilt>0</tilt>
			<gx:fovy>34.99999999969647</gx:fovy>
			<range>1236.89910500776</range>
			<altitudeMode>absolute</altitudeMode>
		</LookAt>
		<styleUrl>#__managed_style_0C5BB2F06A309713256A</styleUrl>
		<Point>
			<coordinates>-2.059187390779363,51.91720654674763,61.41020314697705</coordinates>
		</Point>
	</Placemark>
	<Placemark id="05B6C1BE9F3096DEE5E8">
		<name>17</name>
		<LookAt>
			<longitude>-2.058190613751676</longitude>
			<latitude>51.91856031532132</latitude>
			<altitude>59.56534577197318</altitude>
			<heading>0</heading>
			<tilt>0</tilt>
			<gx:fovy>34.99999999969647</gx:fovy>
			<range>1236.89910500776</range>
			<altitudeMode>absolute</altitudeMode>
		</LookAt>
		<styleUrl>#__managed_style_04174964C8309715D526</styleUrl>
		<Point>
			<coordinates>-2.058209186410846,51.91761476362576,60.79466356380708</coordinates>
		</Point>
	</Placemark>
	<Placemark id="04A3C557C43096DEF554">
		<name>18</name>
		<LookAt>
			<longitude>-2.058190613751676</longitude>
			<latitude>51.91856031532132</latitude>
			<altitude>59.56534577197318</altitude>
			<heading>0</heading>
			<tilt>0</tilt>
			<gx:fovy>34.99999999969647</gx:fovy>
			<range>1236.89910500776</range>
			<altitudeMode>absolute</altitudeMode>
		</LookAt>
		<styleUrl>#__managed_style_0C5BB2F06A309713256A</styleUrl>
		<Point>
			<coordinates>-2.058240110476025,51.91726706296994,62.06172325897655</coordinates>
		</Point>
	</Placemark>
	<Placemark id="01D608E9C63096DF0EFB">
		<name>19</name>
		<LookAt>
			<longitude>-2.058190613751676</longitude>
			<latitude>51.91856031532132</latitude>
			<altitude>59.56534577197318</altitude>
			<heading>0</heading>
			<tilt>0</tilt>
			<gx:fovy>34.99999999969647</gx:fovy>
			<range>1236.89910500776</range>
			<altitudeMode>absolute</altitudeMode>
		</LookAt>
		<styleUrl>#__managed_style_04174964C8309715D526</styleUrl>
		<Point>
			<coordinates>-2.057166699304637,51.91772550750555,61.14939619197939</coordinates>
		</Point>
	</Placemark>
	<Placemark id="0DA1E7E7843096DF1F64">
		<name>20</name>
		<LookAt>
			<longitude>-2.058190613751676</longitude>
			<latitude>51.91856031532132</latitude>
			<altitude>59.56534577197318</altitude>
			<heading>0</heading>
			<tilt>0</tilt>
			<gx:fovy>34.99999999969647</gx:fovy>
			<range>1236.89910500776</range>
			<altitudeMode>absolute</altitudeMode>
		</LookAt>
		<styleUrl>#__managed_style_0C5BB2F06A309713256A</styleUrl>
		<Point>
			<coordinates>-2.057136463830772,51.91739446727854,61.55598746998419</coordinates>
		</Point>
	</Placemark>
	<Placemark id="0BFAD72B4D3096DF2E2B">
		<name>21</name>
		<LookAt>
			<longitude>-2.058190613751676</longitude>
			<latitude>51.91856031532132</latitude>
			<altitude>59.56534577197318</altitude>
			<heading>0</heading>
			<tilt>0</tilt>
			<gx:fovy>34.99999999969647</gx:fovy>
			<range>1236.89910500776</range>
			<altitudeMode>absolute</altitudeMode>
		</LookAt>
		<styleUrl>#__managed_style_04174964C8309715D526</styleUrl>
		<Point>
			<coordinates>-2.055878662974822,51.9178648267681,61.96605694454188</coordinates>
		</Point>
	</Placemark>
	<Placemark id="01E467B41B3096DF3A25">
		<name>22</name>
		<LookAt>
			<longitude>-2.058190613751676</longitude>
			<latitude>51.91856031532132</latitude>
			<altitude>59.56534577197318</altitude>
			<heading>0</heading>
			<tilt>0</tilt>
			<gx:fovy>34.99999999969647</gx:fovy>
			<range>1236.89910500776</range>
			<altitudeMode>absolute</altitudeMode>
		</LookAt>
		<styleUrl>#__managed_style_0C5BB2F06A309713256A</styleUrl>
		<Point>
			<coordinates>-2.055794950465159,51.91752942231967,62.82308666241752</coordinates>
		</Point>
	</Placemark>
	<Placemark id="038A473F2C3096DF4888">
		<name>23</name>
		<LookAt>
			<longitude>-2.058190613751676</longitude>
			<latitude>51.91856031532132</latitude>
			<altitude>59.56534577197318</altitude>
			<heading>0</heading>
			<tilt>0</tilt>
			<gx:fovy>34.99999999969647</gx:fovy>
			<range>1236.89910500776</range>
			<altitudeMode>absolute</altitudeMode>
		</LookAt>
		<styleUrl>#__managed_style_04174964C8309715D526</styleUrl>
		<Point>
			<coordinates>-2.054905560131688,51.9179914656632,61.91250098728275</coordinates>
		</Point>
	</Placemark>
	<Placemark id="05A6AE20C23096DF5817">
		<name>24</name>
		<LookAt>
			<longitude>-2.058190613751676</longitude>
			<latitude>51.91856031532132</latitude>
			<altitude>59.56534577197318</altitude>
			<heading>0</heading>
			<tilt>0</tilt>
			<gx:fovy>34.99999999969647</gx:fovy>
			<range>1236.89910500776</range>
			<altitudeMode>absolute</altitudeMode>
		</LookAt>
		<styleUrl>#__managed_style_0C5BB2F06A309713256A</styleUrl>
		<Point>
			<coordinates>-2.054704197440207,51.91768969026685,62.81600120960509</coordinates>
		</Point>
	</Placemark>
	<Placemark id="0828B37B733096DF6486">
		<name>25</name>
		<LookAt>
			<longitude>-2.058190613751676</longitude>
			<latitude>51.91856031532132</latitude>
			<altitude>59.56534577197318</altitude>
			<heading>0</heading>
			<tilt>0</tilt>
			<gx:fovy>34.99999999969647</gx:fovy>
			<range>1236.89910500776</range>
			<altitudeMode>absolute</altitudeMode>
		</LookAt>
		<styleUrl>#__managed_style_04174964C8309715D526</styleUrl>
		<Point>
			<coordinates>-2.053534956187548,51.9183921216534,63.31465089856751</coordinates>
		</Point>
	</Placemark>
	<Placemark id="0C003E6E803096DF730B">
		<name>26</name>
		<LookAt>
			<longitude>-2.058190613751676</longitude>
			<latitude>51.91856031532132</latitude>
			<altitude>59.56534577197318</altitude>
			<heading>0</heading>
			<tilt>0</tilt>
			<gx:fovy>34.99999999969647</gx:fovy>
			<range>1236.89910500776</range>
			<altitudeMode>absolute</altitudeMode>
		</LookAt>
		<styleUrl>#__managed_style_0C5BB2F06A309713256A</styleUrl>
		<Point>
			<coordinates>-2.053328603037571,51.91818231513017,63.07713599798256</coordinates>
		</Point>
	</Placemark>
	<Placemark id="0E35440AE93096DF815E">
		<name>27</name>
		<LookAt>
			<longitude>-2.058190613751676</longitude>
			<latitude>51.91856031532132</latitude>
			<altitude>59.56534577197318</altitude>
			<heading>0</heading>
			<tilt>0</tilt>
			<gx:fovy>34.99999999969647</gx:fovy>
			<range>1236.89910500776</range>
			<altitudeMode>absolute</altitudeMode>
		</LookAt>
		<styleUrl>#__managed_style_04174964C8309715D526</styleUrl>
		<Point>
			<coordinates>-2.052827294449969,51.91894304083797,64.59908353513592</coordinates>
		</Point>
	</Placemark>
	<Placemark id="04ADB75F293096DF8E84">
		<name>28</name>
		<LookAt>
			<longitude>-2.058190613751676</longitude>
			<latitude>51.91856031532132</latitude>
			<altitude>59.56534577197318</altitude>
			<heading>0</heading>
			<tilt>0</tilt>
			<gx:fovy>34.99999999969647</gx:fovy>
			<range>1236.89910500776</range>
			<altitudeMode>absolute</altitudeMode>
		</LookAt>
		<styleUrl>#__managed_style_0C5BB2F06A309713256A</styleUrl>
		<Point>
			<coordinates>-2.052391609492038,51.91878885380758,65.00165839360888</coordinates>
		</Point>
	</Placemark>
	<Placemark id="0E8E3676353096DFB92C">
		<name>29</name>
		<LookAt>
			<longitude>-2.055905243928961</longitude>
			<latitude>51.91963897358469</latitude>
			<altitude>61.69384349617593</altitude>
			<heading>0</heading>
			<tilt>0</tilt>
			<gx:fovy>34.99999999969647</gx:fovy>
			<range>1234.770752413751</range>
			<altitudeMode>absolute</altitudeMode>
		</LookAt>
		<styleUrl>#__managed_style_04174964C8309715D526</styleUrl>
		<Point>
			<coordinates>-2.052158823909008,51.91976638240616,67.98493721435369</coordinates>
		</Point>
	</Placemark>
	<Placemark id="0FA547595A3096DFC875">
		<name>30</name>
		<LookAt>
			<longitude>-2.055905243928961</longitude>
			<latitude>51.91963897358469</latitude>
			<altitude>61.69384349617593</altitude>
			<heading>0</heading>
			<tilt>0</tilt>
			<gx:fovy>34.99999999969647</gx:fovy>
			<range>1234.770752413751</range>
			<altitudeMode>absolute</altitudeMode>
		</LookAt>
		<styleUrl>#__managed_style_0C5BB2F06A309713256A</styleUrl>
		<Point>
			<coordinates>-2.05164927300145,51.91964317057974,69.28449324264569</coordinates>
		</Point>
	</Placemark>
	<Placemark id="03E0C3ED5A3096DFE420">
		<name>31</name>
		<LookAt>
			<longitude>-2.055905243928961</longitude>
			<latitude>51.91963897358469</latitude>
			<altitude>61.69384349617593</altitude>
			<heading>0</heading>
			<tilt>0</tilt>
			<gx:fovy>34.99999999969647</gx:fovy>
			<range>1234.770752413751</range>
			<altitudeMode>absolute</altitudeMode>
		</LookAt>
		<styleUrl>#__managed_style_0ADB6114F73096DC14CA</styleUrl>
		<Point>
			<coordinates>-2.051656953809929,51.92036355947923,70.951303568434</coordinates>
		</Point>
	</Placemark>
	<Placemark id="0BCF2DA18B3096DFFBC1">
		<name>32</name>
		<LookAt>
			<longitude>-2.055905243928961</longitude>
			<latitude>51.91963897358469</latitude>
			<altitude>61.69384349617593</altitude>
			<heading>0</heading>
			<tilt>0</tilt>
			<gx:fovy>34.99999999969647</gx:fovy>
			<range>1234.770752413751</range>
			<altitudeMode>absolute</altitudeMode>
		</LookAt>
		<styleUrl>#__managed_style_0C5BB2F06A309713256A</styleUrl>
		<Point>
			<coordinates>-2.052432957737346,51.92096103489917,70.68479549093298</coordinates>
		</Point>
	</Placemark>
	<Placemark id="0C483BE8423096E00A89">
		<name>33</name>
		<LookAt>
			<longitude>-2.055905243928961</longitude>
			<latitude>51.91963897358469</latitude>
			<altitude>61.69384349617593</altitude>
			<heading>0</heading>
			<tilt>0</tilt>
			<gx:fovy>34.99999999969647</gx:fovy>
			<range>1234.770752413751</range>
			<altitudeMode>absolute</altitudeMode>
		</LookAt>
		<styleUrl>#__managed_style_0C5BB2F06A309713256A</styleUrl>
		<Point>
			<coordinates>-2.053342336036589,51.92108337344294,68.54150141458662</coordinates>
		</Point>
	</Placemark>
	<Placemark id="0CACFB852B3096E017E1">
		<name>34</name>
		<LookAt>
			<longitude>-2.055905243928961</longitude>
			<latitude>51.91963897358469</latitude>
			<altitude>61.69384349617593</altitude>
			<heading>0</heading>
			<tilt>0</tilt>
			<gx:fovy>34.99999999969647</gx:fovy>
			<range>1234.770752413751</range>
			<altitudeMode>absolute</altitudeMode>
		</LookAt>
		<styleUrl>#__managed_style_0C5BB2F06A309713256A</styleUrl>
		<Point>
			<coordinates>-2.054704667695212,51.92114536618226,65.48215251072786</coordinates>
		</Point>
	</Placemark>
	<Placemark id="0A223C52333096E0257C">
		<name>35</name>
		<LookAt>
			<longitude>-2.055905243928961</longitude>
			<latitude>51.91963897358469</latitude>
			<altitude>61.69384349617593</altitude>
			<heading>0</heading>
			<tilt>0</tilt>
			<gx:fovy>34.99999999969647</gx:fovy>
			<range>1234.770752413751</range>
			<altitudeMode>absolute</altitudeMode>
		</LookAt>
		<styleUrl>#__managed_style_0C5BB2F06A309713256A</styleUrl>
		<Point>
			<coordinates>-2.055566811776878,51.92116575234647,63.83862493188271</coordinates>
		</Point>
	</Placemark>
	<Placemark id="01BA9B7FC33096E0336A">
		<name>36</name>
		<LookAt>
			<longitude>-2.055905243928961</longitude>
			<latitude>51.91963897358469</latitude>
			<altitude>61.69384349617593</altitude>
			<heading>0</heading>
			<tilt>0</tilt>
			<gx:fovy>34.99999999969647</gx:fovy>
			<range>1234.770752413751</range>
			<altitudeMode>absolute</altitudeMode>
		</LookAt>
		<styleUrl>#__managed_style_0C5BB2F06A309713256A</styleUrl>
		<Point>
			<coordinates>-2.056385625830768,51.92118581570418,62.3167133131777</coordinates>
		</Point>
	</Placemark>
	<Placemark id="0D90B6A9DB3096E04129">
		<name>37</name>
		<LookAt>
			<longitude>-2.055905243928961</longitude>
			<latitude>51.91963897358469</latitude>
			<altitude>61.69384349617593</altitude>
			<heading>0</heading>
			<tilt>0</tilt>
			<gx:fovy>34.99999999969647</gx:fovy>
			<range>1234.770752413751</range>
			<altitudeMode>absolute</altitudeMode>
		</LookAt>
		<styleUrl>#__managed_style_0C5BB2F06A309713256A</styleUrl>
		<Point>
			<coordinates>-2.057254694989395,51.9212319115808,60.79532472271019</coordinates>
		</Point>
	</Placemark>
	<Placemark id="04888094803096E04FBD">
		<name>38</name>
		<LookAt>
			<longitude>-2.055905243928961</longitude>
			<latitude>51.91963897358469</latitude>
			<altitude>61.69384349617593</altitude>
			<heading>0</heading>
			<tilt>0</tilt>
			<gx:fovy>34.99999999969647</gx:fovy>
			<range>1234.770752413751</range>
			<altitudeMode>absolute</altitudeMode>
		</LookAt>
		<styleUrl>#__managed_style_0C5BB2F06A309713256A</styleUrl>
		<Point>
			<coordinates>-2.058106616309654,51.92126688415104,60.37663910748003</coordinates>
		</Point>
	</Placemark>
	<Placemark id="01B88BB1933096E071EA">
		<name>39</name>
		<LookAt>
			<longitude>-2.055905243928961</longitude>
			<latitude>51.91963897358469</latitude>
			<altitude>61.69384349617593</altitude>
			<heading>0</heading>
			<tilt>0</tilt>
			<gx:fovy>34.99999999969647</gx:fovy>
			<range>1234.770752413751</range>
			<altitudeMode>absolute</altitudeMode>
		</LookAt>
		<styleUrl>#__managed_style_0C5BB2F06A309713256A</styleUrl>
		<Point>
			<coordinates>-2.05891894220998,51.92130796461356,55.47087787259904</coordinates>
		</Point>
	</Placemark>
	<Placemark id="05517CEC3C3096E0899C">
		<name>40</name>
		<LookAt>
			<longitude>-2.055905243928961</longitude>
			<latitude>51.91963897358469</latitude>
			<altitude>61.69384349617593</altitude>
			<heading>0</heading>
			<tilt>0</tilt>
			<gx:fovy>34.99999999969647</gx:fovy>
			<range>1234.770752413751</range>
			<altitudeMode>absolute</altitudeMode>
		</LookAt>
		<styleUrl>#__managed_style_0C5BB2F06A309713256A</styleUrl>
		<Point>
			<coordinates>-2.059857482997867,51.92133048685581,56.23094828554349</coordinates>
		</Point>
	</Placemark>
	<Placemark id="00E15A4CED3096E114ED">
		<name>41</name>
		<LookAt>
			<longitude>-2.05836595293261</longitude>
			<latitude>51.92011815548303</latitude>
			<altitude>57.87553088675943</altitude>
			<heading>0</heading>
			<tilt>0</tilt>
			<gx:fovy>34.99999999969647</gx:fovy>
			<range>1238.58903013228</range>
			<altitudeMode>absolute</altitudeMode>
		</LookAt>
		<styleUrl>#__managed_style_04174964C8309715D526</styleUrl>
		<Point>
			<coordinates>-2.05109960374395,51.92098141994927,72.74389086540529</coordinates>
		</Point>
	</Placemark>
	<Placemark id="0AD72EB0763096E12CB2">
		<name>42</name>
		<LookAt>
			<longitude>-2.05836595293261</longitude>
			<latitude>51.92011815548303</latitude>
			<altitude>57.87553088675943</altitude>
			<heading>0</heading>
			<tilt>0</tilt>
			<gx:fovy>34.99999999969647</gx:fovy>
			<range>1238.58903013228</range>
			<altitudeMode>absolute</altitudeMode>
		</LookAt>
		<styleUrl>#__managed_style_04174964C8309715D526</styleUrl>
		<Point>
			<coordinates>-2.051117710070868,51.92184329089706,70.8668171960725</coordinates>
		</Point>
	</Placemark>
	<Placemark id="0C52E02FB83096E13A8E">
		<name>43</name>
		<LookAt>
			<longitude>-2.05836595293261</longitude>
			<latitude>51.92011815548303</latitude>
			<altitude>57.87553088675943</altitude>
			<heading>0</heading>
			<tilt>0</tilt>
			<gx:fovy>34.99999999969647</gx:fovy>
			<range>1238.58903013228</range>
			<altitudeMode>absolute</altitudeMode>
		</LookAt>
		<styleUrl>#__managed_style_04174964C8309715D526</styleUrl>
		<Point>
			<coordinates>-2.051994835268941,51.92222764078618,69.08575049569265</coordinates>
		</Point>
	</Placemark>
	<Placemark id="04E4D9F7B13096E14F63">
		<name>44</name>
		<LookAt>
			<longitude>-2.05836595293261</longitude>
			<latitude>51.92011815548303</latitude>
			<altitude>57.87553088675943</altitude>
			<heading>0</heading>
			<tilt>0</tilt>
			<gx:fovy>34.99999999969647</gx:fovy>
			<range>1238.58903013228</range>
			<altitudeMode>absolute</altitudeMode>
		</LookAt>
		<styleUrl>#__managed_style_04174964C8309715D526</styleUrl>
		<Point>
			<coordinates>-2.052963468950045,51.92237475942386,67.93264187255247</coordinates>
		</Point>
	</Placemark>
	<Placemark id="0B9D76A05E3096E16779">
		<name>45</name>
		<LookAt>
			<longitude>-2.05836595293261</longitude>
			<latitude>51.92011815548303</latitude>
			<altitude>57.87553088675943</altitude>
			<heading>0</heading>
			<tilt>0</tilt>
			<gx:fovy>34.99999999969647</gx:fovy>
			<range>1238.58903013228</range>
			<altitudeMode>absolute</altitudeMode>
		</LookAt>
		<styleUrl>#__managed_style_04174964C8309715D526</styleUrl>
		<Point>
			<coordinates>-2.054115582593293,51.92246336542154,63.93617247257118</coordinates>
		</Point>
	</Placemark>
	<Placemark id="069359EBD23096E174D2">
		<name>46</name>
		<LookAt>
			<longitude>-2.05836595293261</longitude>
			<latitude>51.92011815548303</latitude>
			<altitude>57.87553088675943</altitude>
			<heading>0</heading>
			<tilt>0</tilt>
			<gx:fovy>34.99999999969647</gx:fovy>
			<range>1238.58903013228</range>
			<altitudeMode>absolute</altitudeMode>
		</LookAt>
		<styleUrl>#__managed_style_04174964C8309715D526</styleUrl>
		<Point>
			<coordinates>-2.055052214214945,51.92243520981955,61.34003568203546</coordinates>
		</Point>
	</Placemark>
	<Placemark id="01629BD1573096E18655">
		<name>47</name>
		<LookAt>
			<longitude>-2.05836595293261</longitude>
			<latitude>51.92011815548303</latitude>
			<altitude>57.87553088675943</altitude>
			<heading>0</heading>
			<tilt>0</tilt>
			<gx:fovy>34.99999999969647</gx:fovy>
			<range>1238.58903013228</range>
			<altitudeMode>absolute</altitudeMode>
		</LookAt>
		<styleUrl>#__managed_style_04174964C8309715D526</styleUrl>
		<Point>
			<coordinates>-2.056010738925599,51.92239994982687,59.16200921249064</coordinates>
		</Point>
	</Placemark>
	<Placemark id="096A0E4A723096E1939D">
		<name>48</name>
		<LookAt>
			<longitude>-2.05836595293261</longitude>
			<latitude>51.92011815548303</latitude>
			<altitude>57.87553088675943</altitude>
			<heading>0</heading>
			<tilt>0</tilt>
			<gx:fovy>34.99999999969647</gx:fovy>
			<range>1238.58903013228</range>
			<altitudeMode>absolute</altitudeMode>
		</LookAt>
		<styleUrl>#__managed_style_04174964C8309715D526</styleUrl>
		<Point>
			<coordinates>-2.057097343835629,51.92235820816008,57.89824557383292</coordinates>
		</Point>
	</Placemark>
	<Placemark id="0C72BA32B33096E1A0B2">
		<name>49</name>
		<LookAt>
			<longitude>-2.05836595293261</longitude>
			<latitude>51.92011815548303</latitude>
			<altitude>57.87553088675943</altitude>
			<heading>0</heading>
			<tilt>0</tilt>
			<gx:fovy>34.99999999969647</gx:fovy>
			<range>1238.58903013228</range>
			<altitudeMode>absolute</altitudeMode>
		</LookAt>
		<styleUrl>#__managed_style_04174964C8309715D526</styleUrl>
		<Point>
			<coordinates>-2.05802728586641,51.92229772487713,56.56458361925321</coordinates>
		</Point>
	</Placemark>
	<Placemark id="0A042B31693096E1B47D">
		<name>50</name>
		<LookAt>
			<longitude>-2.05836595293261</longitude>
			<latitude>51.92011815548303</latitude>
			<altitude>57.87553088675943</altitude>
			<heading>0</heading>
			<tilt>0</tilt>
			<gx:fovy>34.99999999969647</gx:fovy>
			<range>1238.58903013228</range>
			<altitudeMode>absolute</altitudeMode>
		</LookAt>
		<styleUrl>#__managed_style_04174964C8309715D526</styleUrl>
		<Point>
			<coordinates>-2.059012346511483,51.92218224662516,54.14588801963998</coordinates>
		</Point>
	</Placemark>
	<Placemark id="04825E02563096E1D495">
		<name>51</name>
		<LookAt>
			<longitude>-2.057783500739794</longitude>
			<latitude>51.92221757204096</latitude>
			<altitude>57.63534819227208</altitude>
			<heading>0</heading>
			<tilt>0</tilt>
			<gx:fovy>34.99999999969647</gx:fovy>
			<range>1238.829242772045</range>
			<altitudeMode>absolute</altitudeMode>
		</LookAt>
		<styleUrl>#__managed_style_0ADB6114F73096DC14CA</styleUrl>
		<Point>
			<coordinates>-2.059743379326016,51.92238449593575,53.94872882986308</coordinates>
		</Point>
	</Placemark>
	<Placemark id="03A3E787043096E1E391">
		<name>52</name>
		<LookAt>
			<longitude>-2.057783500739794</longitude>
			<latitude>51.92221757204096</latitude>
			<altitude>57.63534819227208</altitude>
			<heading>0</heading>
			<tilt>0</tilt>
			<gx:fovy>34.99999999969647</gx:fovy>
			<range>1238.829242772045</range>
			<altitudeMode>absolute</altitudeMode>
		</LookAt>
		<styleUrl>#__managed_style_0ADB6114F73096DC14CA</styleUrl>
		<Point>
			<coordinates>-2.058947915411617,51.92286521051033,54.34847738711986</coordinates>
		</Point>
	</Placemark>
	<Placemark id="0B005274603096E1F224">
		<name>53</name>
		<LookAt>
			<longitude>-2.057783500739794</longitude>
			<latitude>51.92221757204096</latitude>
			<altitude>57.63534819227208</altitude>
			<heading>0</heading>
			<tilt>0</tilt>
			<gx:fovy>34.99999999969647</gx:fovy>
			<range>1238.829242772045</range>
			<altitudeMode>absolute</altitudeMode>
		</LookAt>
		<styleUrl>#__managed_style_0ADB6114F73096DC14CA</styleUrl>
		<Point>
			<coordinates>-2.058107328272972,51.92338878476287,55.13977157890236</coordinates>
		</Point>
	</Placemark>
	<Placemark id="0497B865223096E1FF9E">
		<name>54</name>
		<LookAt>
			<longitude>-2.057783500739794</longitude>
			<latitude>51.92221757204096</latitude>
			<altitude>57.63534819227208</altitude>
			<heading>0</heading>
			<tilt>0</tilt>
			<gx:fovy>34.99999999969647</gx:fovy>
			<range>1238.829242772045</range>
			<altitudeMode>absolute</altitudeMode>
		</LookAt>
		<styleUrl>#__managed_style_0ADB6114F73096DC14CA</styleUrl>
		<Point>
			<coordinates>-2.057171744793903,51.92384152629429,55.21334228779214</coordinates>
		</Point>
	</Placemark>
	<Placemark id="0B99DDCBF33096E21B9D">
		<name>55</name>
		<LookAt>
			<longitude>-2.057783500739794</longitude>
			<latitude>51.92221757204096</latitude>
			<altitude>57.63534819227208</altitude>
			<heading>0</heading>
			<tilt>0</tilt>
			<gx:fovy>34.99999999969647</gx:fovy>
			<range>1238.829242772045</range>
			<altitudeMode>absolute</altitudeMode>
		</LookAt>
		<styleUrl>#__managed_style_0ADB6114F73096DC14CA</styleUrl>
		<Point>
			<coordinates>-2.056164342570512,51.92428555502003,57.813962473094</coordinates>
		</Point>
	</Placemark>
	<Placemark id="0FDB214CCA3096E22B3B">
		<name>56</name>
		<LookAt>
			<longitude>-2.057783500739794</longitude>
			<latitude>51.92221757204096</latitude>
			<altitude>57.63534819227208</altitude>
			<heading>0</heading>
			<tilt>0</tilt>
			<gx:fovy>34.99999999969647</gx:fovy>
			<range>1238.829242772045</range>
			<altitudeMode>absolute</altitudeMode>
		</LookAt>
		<styleUrl>#__managed_style_0ADB6114F73096DC14CA</styleUrl>
		<Point>
			<coordinates>-2.055003359048463,51.9242211375912,59.09586120347996</coordinates>
		</Point>
	</Placemark>
	<Placemark id="0F987604113096E237FD">
		<name>57</name>
		<LookAt>
			<longitude>-2.057783500739794</longitude>
			<latitude>51.92221757204096</latitude>
			<altitude>57.63534819227208</altitude>
			<heading>0</heading>
			<tilt>0</tilt>
			<gx:fovy>34.99999999969647</gx:fovy>
			<range>1238.829242772045</range>
			<altitudeMode>absolute</altitudeMode>
		</LookAt>
		<styleUrl>#__managed_style_0ADB6114F73096DC14CA</styleUrl>
		<Point>
			<coordinates>-2.054229623935573,51.92372784209024,59.78102741425032</coordinates>
		</Point>
	</Placemark>
	<Placemark id="0F33F631E83096E24577">
		<name>58</name>
		<LookAt>
			<longitude>-2.057783500739794</longitude>
			<latitude>51.92221757204096</latitude>
			<altitude>57.63534819227208</altitude>
			<heading>0</heading>
			<tilt>0</tilt>
			<gx:fovy>34.99999999969647</gx:fovy>
			<range>1238.829242772045</range>
			<altitudeMode>absolute</altitudeMode>
		</LookAt>
		<styleUrl>#__managed_style_0ADB6114F73096DC14CA</styleUrl>
		<Point>
			<coordinates>-2.053756605791279,51.92313475989388,60.08369329445262</coordinates>
		</Point>
	</Placemark>
	<Placemark id="085ECF8FE53096E253EB">
		<name>59</name>
		<LookAt>
			<longitude>-2.057783500739794</longitude>
			<latitude>51.92221757204096</latitude>
			<altitude>57.63534819227208</altitude>
			<heading>0</heading>
			<tilt>0</tilt>
			<gx:fovy>34.99999999969647</gx:fovy>
			<range>1238.829242772045</range>
			<altitudeMode>absolute</altitudeMode>
		</LookAt>
		<styleUrl>#__managed_style_0ADB6114F73096DC14CA</styleUrl>
		<Point>
			<coordinates>-2.05349812436058,51.9220586579027,60.69182036894111</coordinates>
		</Point>
	</Placemark>
	<Placemark id="04435965973096E26DA2">
		<name>60</name>
		<LookAt>
			<longitude>-2.057783500739794</longitude>
			<latitude>51.92221757204096</latitude>
			<altitude>57.63534819227208</altitude>
			<heading>0</heading>
			<tilt>0</tilt>
			<gx:fovy>34.99999999969647</gx:fovy>
			<range>1238.829242772045</range>
			<altitudeMode>absolute</altitudeMode>
		</LookAt>
		<styleUrl>#__managed_style_0ADB6114F73096DC14CA</styleUrl>
		<Point>
			<coordinates>-2.05393197590504,51.92140741930324,62.50473693693609</coordinates>
		</Point>
	</Placemark>
	<Placemark id="0A2624B0E33096E29EC9">
		<name>61</name>
		<LookAt>
			<longitude>-2.057783500739794</longitude>
			<latitude>51.92221757204096</latitude>
			<altitude>57.63534819227208</altitude>
			<heading>0</heading>
			<tilt>0</tilt>
			<gx:fovy>34.99999999969647</gx:fovy>
			<range>1238.829242772045</range>
			<altitudeMode>absolute</altitudeMode>
		</LookAt>
		<styleUrl>#__managed_style_0ADB6114F73096DC14CA</styleUrl>
		<Point>
			<coordinates>-2.054603226262159,51.92081995633449,63.15183791423081</coordinates>
		</Point>
	</Placemark>
	<Placemark id="022CF7DD663096E2DBD9">
		<name>62</name>
		<LookAt>
			<longitude>-2.058156787374546</longitude>
			<latitude>51.91912940475672</latitude>
			<altitude>58.91402789754196</altitude>
			<heading>0</heading>
			<tilt>0</tilt>
			<gx:fovy>34.99999999969647</gx:fovy>
			<range>1237.550580970565</range>
			<altitudeMode>absolute</altitudeMode>
		</LookAt>
		<styleUrl>#__managed_style_0ADB6114F73096DC14CA</styleUrl>
		<Point>
			<coordinates>-2.055253074622302,51.92032471760159,62.35173275797066</coordinates>
		</Point>
	</Placemark>
	<Placemark id="06FA5972C63096E2ECC7">
		<name>63</name>
		<LookAt>
			<longitude>-2.058156787374546</longitude>
			<latitude>51.91912940475672</latitude>
			<altitude>58.91402789754196</altitude>
			<heading>0</heading>
			<tilt>0</tilt>
			<gx:fovy>34.99999999969647</gx:fovy>
			<range>1237.550580970565</range>
			<altitudeMode>absolute</altitudeMode>
		</LookAt>
		<styleUrl>#__managed_style_0ADB6114F73096DC14CA</styleUrl>
		<Point>
			<coordinates>-2.056313124944404,51.91952659020832,61.04246708029835</coordinates>
		</Point>
	</Placemark>
	<Placemark id="0915627A7D3096E3036E">
		<name>64</name>
		<LookAt>
			<longitude>-2.058156787374546</longitude>
			<latitude>51.91912940475672</latitude>
			<altitude>58.91402789754196</altitude>
			<heading>0</heading>
			<tilt>0</tilt>
			<gx:fovy>34.99999999969647</gx:fovy>
			<range>1237.550580970565</range>
			<altitudeMode>absolute</altitudeMode>
		</LookAt>
		<styleUrl>#__managed_style_0ADB6114F73096DC14CA</styleUrl>
		<Point>
			<coordinates>-2.057337613435315,51.91870480871813,60.31689585405703</coordinates>
		</Point>
	</Placemark>
	<Placemark id="0D282AD5DF3096E36D19">
		<name>65</name>
		<LookAt>
			<longitude>-2.0615864170154</longitude>
			<latitude>51.92043309435357</latitude>
			<altitude>57.35852034098798</altitude>
			<heading>0</heading>
			<tilt>0</tilt>
			<gx:fovy>34.99999999969647</gx:fovy>
			<range>1239.106076018797</range>
			<altitudeMode>absolute</altitudeMode>
		</LookAt>
		<styleUrl>#__managed_style_04174964C8309715D526</styleUrl>
		<Point>
			<coordinates>-2.06053952266498,51.9218391790909,54.86331469310719</coordinates>
		</Point>
	</Placemark>
	<Placemark id="06C7BEB5393096E4D110">
		<name>66</name>
		<LookAt>
			<longitude>-2.06174182823796</longitude>
			<latitude>51.92118391935094</latitude>
			<altitude>56.70021666964074</altitude>
			<heading>0</heading>
			<tilt>0</tilt>
			<gx:fovy>34.99999999969647</gx:fovy>
			<range>1239.764412551012</range>
			<altitudeMode>absolute</altitudeMode>
		</LookAt>
		<styleUrl>#__managed_style_0C5BB2F06A309713256A</styleUrl>
		<Point>
			<coordinates>-2.060720547591309,51.92202999517556,54.78349383714197</coordinates>
		</Point>
	</Placemark>
	<Placemark id="03B50631C13096E53E8F">
		<name>67</name>
		<LookAt>
			<longitude>-2.061154387100497</longitude>
			<latitude>51.92148445329246</latitude>
			<altitude>55.40815739806426</altitude>
			<heading>0</heading>
			<tilt>0</tilt>
			<gx:fovy>34.99999999969647</gx:fovy>
			<range>729.9760350104043</range>
			<altitudeMode>absolute</altitudeMode>
		</LookAt>
		<styleUrl>#__managed_style_0ADB6114F73096DC14CA</styleUrl>
		<Point>
			<coordinates>-2.061281841648972,51.9213478300505,55.47004253712121</coordinates>
		</Point>
	</Placemark>
	<Placemark id="09573EB34F3096E5B669">
		<name>68</name>
		<LookAt>
			<longitude>-2.061154387100497</longitude>
			<latitude>51.92148445329246</latitude>
			<altitude>55.40815739806426</altitude>
			<heading>0</heading>
			<tilt>0</tilt>
			<gx:fovy>34.99999999969647</gx:fovy>
			<range>729.9760350104043</range>
			<altitudeMode>absolute</altitudeMode>
		</LookAt>
		<styleUrl>#__managed_style_0C5BB2F06A309713256A</styleUrl>
		<Point>
			<coordinates>-2.061610148827845,51.92158004601063,55.46979989003066</coordinates>
		</Point>
	</Placemark>
	<Placemark id="06A71AA0503096E5CC8C">
		<name>69</name>
		<LookAt>
			<longitude>-2.061154387100497</longitude>
			<latitude>51.92148445329246</latitude>
			<altitude>55.40815739806426</altitude>
			<heading>0</heading>
			<tilt>0</tilt>
			<gx:fovy>34.99999999969647</gx:fovy>
			<range>729.9760350104043</range>
			<altitudeMode>absolute</altitudeMode>
		</LookAt>
		<styleUrl>#__managed_style_04174964C8309715D526</styleUrl>
		<Point>
			<coordinates>-2.062012997375206,51.92093647894497,56.23105892716713</coordinates>
		</Point>
	</Placemark>
	<Placemark id="01067F72223096E5E24B">
		<name>70</name>
		<LookAt>
			<longitude>-2.061169219424166</longitude>
			<latitude>51.92148721046411</latitude>
			<altitude>55.40815263494311</altitude>
			<heading>0</heading>
			<tilt>0</tilt>
			<gx:fovy>34.99999999969647</gx:fovy>
			<range>716.7098724648531</range>
			<altitudeMode>absolute</altitudeMode>
		</LookAt>
		<styleUrl>#__managed_style_0C5BB2F06A309713256A</styleUrl>
		<Point>
			<coordinates>-2.06238942027018,51.92115904083845,56.23103650115067</coordinates>
		</Point>
	</Placemark>
	<Placemark id="03D0AEAA7F3096E5FA92">
		<name>71</name>
		<LookAt>
			<longitude>-2.061842353972817</longitude>
			<latitude>51.92115509247846</latitude>
			<altitude>56.70676586362155</altitude>
			<heading>0</heading>
			<tilt>0</tilt>
			<gx:fovy>34.99999999969647</gx:fovy>
			<range>715.4112779279239</range>
			<altitudeMode>absolute</altitudeMode>
		</LookAt>
		<styleUrl>#__managed_style_04174964C8309715D526</styleUrl>
		<Point>
			<coordinates>-2.063035481224285,51.92037943242914,56.23105811991551</coordinates>
		</Point>
	</Placemark>
	<Placemark id="083A2EED5F3096E62170">
		<name>72</name>
		<LookAt>
			<longitude>-2.061842353972817</longitude>
			<latitude>51.92115509247846</latitude>
			<altitude>56.70676586362155</altitude>
			<heading>0</heading>
			<tilt>0</tilt>
			<gx:fovy>34.99999999969647</gx:fovy>
			<range>715.4112779279239</range>
			<altitudeMode>absolute</altitudeMode>
		</LookAt>
		<styleUrl>#__managed_style_0C5BB2F06A309713256A</styleUrl>
		<Point>
			<coordinates>-2.06337999537702,51.92075283308594,56.0613879593619</coordinates>
		</Point>
	</Placemark>
	<Placemark id="0F4CA9AA493096E638E0">
		<name>73</name>
		<LookAt>
			<longitude>-2.066750345400469</longitude>
			<latitude>51.91953138258857</latitude>
			<altitude>87.65798641909285</altitude>
			<heading>0</heading>
			<tilt>0</tilt>
			<gx:fovy>34.99999999969647</gx:fovy>
			<range>1039.801899124141</range>
			<altitudeMode>absolute</altitudeMode>
		</LookAt>
		<styleUrl>#__managed_style_04174964C8309715D526</styleUrl>
		<Point>
			<coordinates>-2.063981017070015,51.91985995524279,57.52276361063532</coordinates>
		</Point>
	</Placemark>
	<Placemark id="0B98DF63BB3096E65B42">
		<name>74</name>
		<LookAt>
			<longitude>-2.066750345400469</longitude>
			<latitude>51.91953138258857</latitude>
			<altitude>87.65798641909285</altitude>
			<heading>0</heading>
			<tilt>0</tilt>
			<gx:fovy>34.99999999969647</gx:fovy>
			<range>1039.801899124141</range>
			<altitudeMode>absolute</altitudeMode>
		</LookAt>
		<styleUrl>#__managed_style_0C5BB2F06A309713256A</styleUrl>
		<Point>
			<coordinates>-2.064316322950036,51.92005703902912,57.11092727330229</coordinates>
		</Point>
	</Placemark>
	<Placemark id="055A27C68C3096E66DDE">
		<name>75</name>
		<LookAt>
			<longitude>-2.066750345400469</longitude>
			<latitude>51.91953138258857</latitude>
			<altitude>87.65798641909285</altitude>
			<heading>0</heading>
			<tilt>0</tilt>
			<gx:fovy>34.99999999969647</gx:fovy>
			<range>1039.801899124141</range>
			<altitudeMode>absolute</altitudeMode>
		</LookAt>
		<styleUrl>#__managed_style_04174964C8309715D526</styleUrl>
		<Point>
			<coordinates>-2.06488519281478,51.91944016299645,57.85354291644204</coordinates>
		</Point>
	</Placemark>
	<Placemark id="07C20B20593096E67EFD">
		<name>76</name>
		<LookAt>
			<longitude>-2.066750345400469</longitude>
			<latitude>51.91953138258857</latitude>
			<altitude>87.65798641909285</altitude>
			<heading>0</heading>
			<tilt>0</tilt>
			<gx:fovy>34.99999999969647</gx:fovy>
			<range>1039.801899124141</range>
			<altitudeMode>absolute</altitudeMode>
		</LookAt>
		<styleUrl>#__managed_style_0C5BB2F06A309713256A</styleUrl>
		<Point>
			<coordinates>-2.065180150576376,51.91970550407185,57.69745455902267</coordinates>
		</Point>
	</Placemark>
	<Placemark id="0BD352A5403096E69FFE">
		<name>77</name>
		<LookAt>
			<longitude>-2.066750345400469</longitude>
			<latitude>51.91953138258857</latitude>
			<altitude>87.65798641909285</altitude>
			<heading>0</heading>
			<tilt>0</tilt>
			<gx:fovy>34.99999999969647</gx:fovy>
			<range>1039.801899124141</range>
			<altitudeMode>absolute</altitudeMode>
		</LookAt>
		<styleUrl>#__managed_style_04174964C8309715D526</styleUrl>
		<Point>
			<coordinates>-2.065915941645438,51.91894692873532,59.59412280551849</coordinates>
		</Point>
	</Placemark>
	<Placemark id="042A4648013096E6B2BE">
		<name>78</name>
		<LookAt>
			<longitude>-2.066750345400469</longitude>
			<latitude>51.91953138258857</latitude>
			<altitude>87.65798641909285</altitude>
			<heading>0</heading>
			<tilt>0</tilt>
			<gx:fovy>34.99999999969647</gx:fovy>
			<range>1039.801899124141</range>
			<altitudeMode>absolute</altitudeMode>
		</LookAt>
		<styleUrl>#__managed_style_0C5BB2F06A309713256A</styleUrl>
		<Point>
			<coordinates>-2.066083133253926,51.91912306425946,59.31635700512646</coordinates>
		</Point>
	</Placemark>
	<Placemark id="0BF8506CD13096E6CE79">
		<name>79</name>
		<LookAt>
			<longitude>-2.066750345400469</longitude>
			<latitude>51.91953138258857</latitude>
			<altitude>87.65798641909285</altitude>
			<heading>0</heading>
			<tilt>0</tilt>
			<gx:fovy>34.99999999969647</gx:fovy>
			<range>1039.801899124141</range>
			<altitudeMode>absolute</altitudeMode>
		</LookAt>
		<styleUrl>#__managed_style_04174964C8309715D526</styleUrl>
		<Point>
			<coordinates>-2.066814392512883,51.91839282061122,65.22414889417841</coordinates>
		</Point>
	</Placemark>
	<Placemark id="090A25CDAC3096E6E6D3">
		<name>80</name>
		<LookAt>
			<longitude>-2.066750345400469</longitude>
			<latitude>51.91953138258857</latitude>
			<altitude>87.65798641909285</altitude>
			<heading>0</heading>
			<tilt>0</tilt>
			<gx:fovy>34.99999999969647</gx:fovy>
			<range>1039.801899124141</range>
			<altitudeMode>absolute</altitudeMode>
		</LookAt>
		<styleUrl>#__managed_style_0C5BB2F06A309713256A</styleUrl>
		<Point>
			<coordinates>-2.067029768578235,51.91853538624662,63.85940544098281</coordinates>
		</Point>
	</Placemark>
	<Placemark id="0BB5C9EF813096E76457">
		<name>101</name>
		<LookAt>
			<longitude>-2.059440707090151</longitude>
			<latitude>51.91965299284464</latitude>
			<altitude>57.55362804828762</altitude>
			<heading>0</heading>
			<tilt>0</tilt>
			<gx:fovy>34.99999999969647</gx:fovy>
			<range>1206.647238771402</range>
			<altitudeMode>absolute</altitudeMode>
		</LookAt>
		<styleUrl>#__managed_style_023AB98A643097116462</styleUrl>
		<Point>
			<coordinates>-2.064049531683597,51.91891206964378,61.35599162067822</coordinates>
		</Point>
	</Placemark>
	<Placemark id="0C625B04EA3096E783FD">
		<name>102</name>
		<LookAt>
			<longitude>-2.059440707090151</longitude>
			<latitude>51.91965299284464</latitude>
			<altitude>57.55362804828762</altitude>
			<heading>0</heading>
			<tilt>0</tilt>
			<gx:fovy>34.99999999969647</gx:fovy>
			<range>1206.647238771402</range>
			<altitudeMode>absolute</altitudeMode>
		</LookAt>
		<styleUrl>#__managed_style_023AB98A643097116462</styleUrl>
		<Point>
			<coordinates>-2.063645962149526,51.9179837927612,63.79710446603839</coordinates>
		</Point>
	</Placemark>
	<Placemark id="0336BFDC243096E7B2C8">
		<name>103</name>
		<LookAt>
			<longitude>-2.062218713109053</longitude>
			<latitude>51.91818487064451</latitude>
			<altitude>61.49493192240735</altitude>
			<heading>0</heading>
			<tilt>0</tilt>
			<gx:fovy>34.99999999969647</gx:fovy>
			<range>446.1312863197963</range>
			<altitudeMode>absolute</altitudeMode>
		</LookAt>
		<styleUrl>#__managed_style_023AB98A643097116462</styleUrl>
		<Point>
			<coordinates>-2.062031938311275,51.91796292576605,62.08029150634496</coordinates>
		</Point>
	</Placemark>
	<Placemark id="09C63473C43096E7F9AE">
		<name>104</name>
		<LookAt>
			<longitude>-2.060619053254584</longitude>
			<latitude>51.91736171861568</latitude>
			<altitude>61.86114505138721</altitude>
			<heading>0</heading>
			<tilt>0</tilt>
			<gx:fovy>34.99999999969647</gx:fovy>
			<range>1435.867484842893</range>
			<altitudeMode>absolute</altitudeMode>
		</LookAt>
		<styleUrl>#__managed_style_023AB98A643097116462</styleUrl>
		<Point>
			<coordinates>-2.060065186011115,51.91802235825684,60.83535166259356</coordinates>
		</Point>
	</Placemark>
	<Placemark id="0A99EFACF73096E82E79">
		<name>105</name>
		<LookAt>
			<longitude>-2.059764360653721</longitude>
			<latitude>51.91837013346638</latitude>
			<altitude>59.85280031348816</altitude>
			<heading>0</heading>
			<tilt>0</tilt>
			<gx:fovy>34.99999999969647</gx:fovy>
			<range>1437.875777472218</range>
			<altitudeMode>absolute</altitudeMode>
		</LookAt>
		<styleUrl>#__managed_style_023AB98A643097116462</styleUrl>
		<Point>
			<coordinates>-2.059418658579584,51.91866929962961,58.67324748487755</coordinates>
		</Point>
	</Placemark>
	<Placemark id="0BA13795563096E85E42">
		<name>106</name>
		<LookAt>
			<longitude>-2.059764360653721</longitude>
			<latitude>51.91837013346638</latitude>
			<altitude>59.85280031348816</altitude>
			<heading>0</heading>
			<tilt>0</tilt>
			<gx:fovy>34.99999999969647</gx:fovy>
			<range>1437.875777472218</range>
			<altitudeMode>absolute</altitudeMode>
		</LookAt>
		<styleUrl>#__managed_style_023AB98A643097116462</styleUrl>
		<Point>
			<coordinates>-2.059840209206399,51.91980962948663,56.28952114874743</coordinates>
		</Point>
	</Placemark>
	<Placemark id="0F418FA3CE3096E88CF0">
		<name>107</name>
		<LookAt>
			<longitude>-2.059764360653721</longitude>
			<latitude>51.91837013346638</latitude>
			<altitude>59.85280031348816</altitude>
			<heading>0</heading>
			<tilt>0</tilt>
			<gx:fovy>34.99999999969647</gx:fovy>
			<range>1437.875777472218</range>
			<altitudeMode>absolute</altitudeMode>
		</LookAt>
		<styleUrl>#__managed_style_023AB98A643097116462</styleUrl>
		<Point>
			<coordinates>-2.058636290552051,51.91910169022871,59.03840739920575</coordinates>
		</Point>
	</Placemark>
	<Placemark id="06B863C9DE3096E8E87A">
		<name>108</name>
		<LookAt>
			<longitude>-2.059736592869039</longitude>
			<latitude>51.9197188987076</latitude>
			<altitude>57.68793525245834</altitude>
			<heading>0</heading>
			<tilt>0</tilt>
			<gx:fovy>34.99999999969647</gx:fovy>
			<range>853.2159199709715</range>
			<altitudeMode>absolute</altitudeMode>
		</LookAt>
		<styleUrl>#__managed_style_023AB98A643097116462</styleUrl>
		<Point>
			<coordinates>-2.057754234838871,51.91959314132671,57.77541384177044</coordinates>
		</Point>
	</Placemark>
	<Placemark id="0D43A7C1AE3096E9275B">
		<name>109</name>
		<LookAt>
			<longitude>-2.059736592890173</longitude>
			<latitude>51.91971889860382</latitude>
			<altitude>57.68793525104369</altitude>
			<heading>0</heading>
			<tilt>0</tilt>
			<gx:fovy>34.99999999969647</gx:fovy>
			<range>853.2159199709713</range>
			<altitudeMode>absolute</altitudeMode>
		</LookAt>
		<styleUrl>#__managed_style_023AB98A643097116462</styleUrl>
		<Point>
			<coordinates>-2.057761016522126,51.92085604540866,56.94482162007817</coordinates>
		</Point>
	</Placemark>
	<Placemark id="071E1D25DF3096E949BB">
		<name>110</name>
		<LookAt>
			<longitude>-2.059736592890173</longitude>
			<latitude>51.91971889860382</latitude>
			<altitude>57.68793525104369</altitude>
			<heading>0</heading>
			<tilt>0</tilt>
			<gx:fovy>34.99999999969647</gx:fovy>
			<range>853.2159199709713</range>
			<altitudeMode>absolute</altitudeMode>
		</LookAt>
		<styleUrl>#__managed_style_023AB98A643097116462</styleUrl>
		<Point>
			<coordinates>-2.056801936817921,51.92002992315651,60.32152513760169</coordinates>
		</Point>
	</Placemark>
	<Placemark id="09736622AD3096E97162">
		<name>111</name>
		<LookAt>
			<longitude>-2.059736592890173</longitude>
			<latitude>51.91971889860382</latitude>
			<altitude>57.68793525104369</altitude>
			<heading>0</heading>
			<tilt>0</tilt>
			<gx:fovy>34.99999999969647</gx:fovy>
			<range>853.2159199709713</range>
			<altitudeMode>absolute</altitudeMode>
		</LookAt>
		<styleUrl>#__managed_style_023AB98A643097116462</styleUrl>
		<Point>
			<coordinates>-2.052702984626444,51.91976857201317,65.98210487720621</coordinates>
		</Point>
	</Placemark>
	<Placemark id="02C6B9B3CD3096E98B49">
		<name>112</name>
		<LookAt>
			<longitude>-2.059736592890173</longitude>
			<latitude>51.91971889860382</latitude>
			<altitude>57.68793525104369</altitude>
			<heading>0</heading>
			<tilt>0</tilt>
			<gx:fovy>34.99999999969647</gx:fovy>
			<range>853.2159199709713</range>
			<altitudeMode>absolute</altitudeMode>
		</LookAt>
		<styleUrl>#__managed_style_023AB98A643097116462</styleUrl>
		<Point>
			<coordinates>-2.054790774295532,51.91843786818183,63.32694312715419</coordinates>
		</Point>
	</Placemark>
	<Placemark id="0325E9F58C3096E9A4BE">
		<name>113</name>
		<LookAt>
			<longitude>-2.059736592890173</longitude>
			<latitude>51.91971889860382</latitude>
			<altitude>57.68793525104369</altitude>
			<heading>0</heading>
			<tilt>0</tilt>
			<gx:fovy>34.99999999969647</gx:fovy>
			<range>853.2159199709713</range>
			<altitudeMode>absolute</altitudeMode>
		</LookAt>
		<styleUrl>#__managed_style_023AB98A643097116462</styleUrl>
		<Point>
			<coordinates>-2.052916165890366,51.92148644301324,68.77688584219116</coordinates>
		</Point>
	</Placemark>
	<Placemark id="00D8FAD45B3096E9C6A9">
		<name>114</name>
		<LookAt>
			<longitude>-2.059736592890173</longitude>
			<latitude>51.91971889860382</latitude>
			<altitude>57.68793525104369</altitude>
			<heading>0</heading>
			<tilt>0</tilt>
			<gx:fovy>34.99999999969647</gx:fovy>
			<range>853.2159199709713</range>
			<altitudeMode>absolute</altitudeMode>
		</LookAt>
		<styleUrl>#__managed_style_023AB98A643097116462</styleUrl>
		<Point>
			<coordinates>-2.054795567477683,51.92212397662921,61.55558089133329</coordinates>
		</Point>
	</Placemark>
	<Placemark id="0342D5CFB83096E9F0A5">
		<name>115</name>
		<LookAt>
			<longitude>-2.059736592890173</longitude>
			<latitude>51.91971889860382</latitude>
			<altitude>57.68793525104369</altitude>
			<heading>0</heading>
			<tilt>0</tilt>
			<gx:fovy>34.99999999969647</gx:fovy>
			<range>853.2159199709713</range>
			<altitudeMode>absolute</altitudeMode>
		</LookAt>
		<styleUrl>#__managed_style_023AB98A643097116462</styleUrl>
		<Point>
			<coordinates>-2.056783608474348,51.92197754735488,57.36319195256685</coordinates>
		</Point>
	</Placemark>
	<Placemark id="08F5277498309707C819">
		<name>116</name>
		<LookAt>
			<longitude>-2.060428429034595</longitude>
			<latitude>51.91950764404931</latitude>
			<altitude>58.136183644012</altitude>
			<heading>0</heading>
			<tilt>0</tilt>
			<gx:fovy>34.99999999969647</gx:fovy>
			<range>713.6973408104678</range>
			<altitudeMode>absolute</altitudeMode>
		</LookAt>
		<styleUrl>#__managed_style_023AB98A643097116462</styleUrl>
		<Point>
			<coordinates>-2.062340852695658,51.91994820432463,58.52466618229899</coordinates>
		</Point>
	</Placemark>
</Document>
</kml>
