<?xml version="1.0" encoding="UTF-8"?>
<kml xmlns="http://www.opengis.net/kml/2.2" xmlns:gx="http://www.google.com/kml/ext/2.2" xmlns:kml="http://www.opengis.net/kml/2.2" xmlns:atom="http://www.w3.org/2005/Atom">
<Document>
	<name>Windsor NH</name>
	<gx:CascadingStyle kml:id="__managed_style_28A964F6A23BA3E854C7">
		<Style>
			<IconStyle>
				<scale>1.2</scale>
				<Icon>
					<href>https://earth.google.com/earth/document/icon?color=1976d2&amp;id=2000&amp;scale=4</href>
				</Icon>
				<hotSpot x="64" y="128" xunits="pixels" yunits="insetPixels"/>
			</IconStyle>
			<LabelStyle>
			</LabelStyle>
			<LineStyle>
				<color>ff2dc0fb</color>
				<width>6</width>
			</LineStyle>
			<PolyStyle>
				<color>40ffffff</color>
			</PolyStyle>
			<BalloonStyle>
				<displayMode>hide</displayMode>
			</BalloonStyle>
		</Style>
	</gx:CascadingStyle>
	<gx:CascadingStyle kml:id="__managed_style_12A55606F33BA3E854C7">
		<Style>
			<IconStyle>
				<Icon>
					<href>https://earth.google.com/earth/document/icon?color=1976d2&amp;id=2000&amp;scale=4</href>
				</Icon>
				<hotSpot x="64" y="128" xunits="pixels" yunits="insetPixels"/>
			</IconStyle>
			<LabelStyle>
			</LabelStyle>
			<LineStyle>
				<color>ff2dc0fb</color>
				<width>4</width>
			</LineStyle>
			<PolyStyle>
				<color>40ffffff</color>
			</PolyStyle>
			<BalloonStyle>
				<displayMode>hide</displayMode>
			</BalloonStyle>
		</Style>
	</gx:CascadingStyle>
	<StyleMap id="__managed_style_09365BA5903BA3E854C7">
		<Pair>
			<key>normal</key>
			<styleUrl>#__managed_style_12A55606F33BA3E854C7</styleUrl>
		</Pair>
		<Pair>
			<key>highlight</key>
			<styleUrl>#__managed_style_28A964F6A23BA3E854C7</styleUrl>
		</Pair>
	</StyleMap>
	<gx:CascadingStyle kml:id="__managed_style_1D243BDF083BA3E80E28">
		<Style>
			<IconStyle>
				<Icon>
					<href>https://earth.google.com/earth/document/icon?color=fbc02d&amp;id=2000&amp;scale=4</href>
				</Icon>
				<hotSpot x="64" y="128" xunits="pixels" yunits="insetPixels"/>
			</IconStyle>
			<LabelStyle>
			</LabelStyle>
			<LineStyle>
				<color>ff2dc0fb</color>
				<width>4</width>
			</LineStyle>
			<PolyStyle>
				<color>40ffffff</color>
			</PolyStyle>
			<BalloonStyle>
				<gx:displayMode>card</gx:displayMode>
			</BalloonStyle>
		</Style>
	</gx:CascadingStyle>
	<gx:CascadingStyle kml:id="__managed_style_226C2F9A8F3BA3E80E28">
		<Style>
			<IconStyle>
				<scale>1.2</scale>
				<Icon>
					<href>https://earth.google.com/earth/document/icon?color=fbc02d&amp;id=2000&amp;scale=4</href>
				</Icon>
				<hotSpot x="64" y="128" xunits="pixels" yunits="insetPixels"/>
			</IconStyle>
			<LabelStyle>
			</LabelStyle>
			<LineStyle>
				<color>ff2dc0fb</color>
				<width>6</width>
			</LineStyle>
			<PolyStyle>
				<color>40ffffff</color>
			</PolyStyle>
			<BalloonStyle>
				<gx:displayMode>card</gx:displayMode>
			</BalloonStyle>
		</Style>
	</gx:CascadingStyle>
	<StyleMap id="__managed_style_0CFC6104753BA3E80E28">
		<Pair>
			<key>normal</key>
			<styleUrl>#__managed_style_1D243BDF083BA3E80E28</styleUrl>
		</Pair>
		<Pair>
			<key>highlight</key>
			<styleUrl>#__managed_style_226C2F9A8F3BA3E80E28</styleUrl>
		</Pair>
	</StyleMap>
	<Placemark id="0799C7899E3BA3E80E0F">
		<gx:mid>/m/027lk5g</gx:mid>
		<gx:fid>0x48767b6b29675ea3:0x58bcdc27d767d93d</gx:fid>
		<LookAt>
			<longitude>-0.6341675000000001</longitude>
			<latitude>51.4850655</latitude>
			<altitude>0</altitude>
			<heading>0</heading>
			<tilt>0</tilt>
			<gx:fovy>35</gx:fovy>
			<range>628.170629237364</range>
			<altitudeMode>relativeToGround</altitudeMode>
		</LookAt>
		<styleUrl>#__managed_style_0CFC6104753BA3E80E28</styleUrl>
		<Point>
			<altitudeMode>relativeToGround</altitudeMode>
			<coordinates>-0.6341675,51.4850655,0</coordinates>
		</Point>
	</Placemark>
	<Placemark id="06BD02A2453BA3E854C0">
		<name>1</name>
		<LookAt>
			<longitude>-0.6301407549213189</longitude>
			<latitude>51.49043925840255</latitude>
			<altitude>14.07305041061209</altitude>
			<heading>0</heading>
			<tilt>0</tilt>
			<gx:fovy>35</gx:fovy>
			<range>588.5353838901938</range>
			<altitudeMode>absolute</altitudeMode>
		</LookAt>
		<styleUrl>#__managed_style_09365BA5903BA3E854C7</styleUrl>
		<Point>
			<coordinates>-0.6281886981808382,51.48983331784331,14.96483821822938</coordinates>
		</Point>
	</Placemark>
	<Placemark id="068A07CF683BA3E8789C">
		<name>2</name>
		<LookAt>
			<longitude>-0.6301235241960623</longitude>
			<latitude>51.49043923475545</latitude>
			<altitude>14.07304421445211</altitude>
			<heading>0</heading>
			<tilt>0</tilt>
			<gx:fovy>35</gx:fovy>
			<range>584.7352774095634</range>
			<altitudeMode>absolute</altitudeMode>
		</LookAt>
		<styleUrl>#__managed_style_09365BA5903BA3E854C7</styleUrl>
		<Point>
			<coordinates>-0.6274780735052743,51.49043204324454,15.38070199342193</coordinates>
		</Point>
	</Placemark>
	<Placemark id="0CA2FC66EF3BA3E89788">
		<name>3</name>
		<LookAt>
			<longitude>-0.6301235241960623</longitude>
			<latitude>51.49043923475545</latitude>
			<altitude>14.07304421445211</altitude>
			<heading>0</heading>
			<tilt>0</tilt>
			<gx:fovy>35</gx:fovy>
			<range>584.7352774095634</range>
			<altitudeMode>absolute</altitudeMode>
		</LookAt>
		<styleUrl>#__managed_style_09365BA5903BA3E854C7</styleUrl>
		<Point>
			<coordinates>-0.6279841503936501,51.49092978458894,15.38388066168979</coordinates>
		</Point>
	</Placemark>
	<Placemark id="0765272A253BA3E8ED13">
		<name>4</name>
		<LookAt>
			<longitude>-0.629303249738894</longitude>
			<latitude>51.49103035427189</latitude>
			<altitude>14.25456765440726</altitude>
			<heading>0</heading>
			<tilt>0</tilt>
			<gx:fovy>35</gx:fovy>
			<range>254.2715920963019</range>
			<altitudeMode>absolute</altitudeMode>
		</LookAt>
		<styleUrl>#__managed_style_09365BA5903BA3E854C7</styleUrl>
		<Point>
			<coordinates>-0.6289061825327091,51.49121694064696,15.18462583763381</coordinates>
		</Point>
	</Placemark>
	<Placemark id="05754542953BA3E94A3E">
		<name>5</name>
		<LookAt>
			<longitude>-0.6304475235915552</longitude>
			<latitude>51.49107935335486</latitude>
			<altitude>14.31657394724505</altitude>
			<heading>0</heading>
			<tilt>0</tilt>
			<gx:fovy>35</gx:fovy>
			<range>366.3706771950092</range>
			<altitudeMode>absolute</altitudeMode>
		</LookAt>
		<styleUrl>#__managed_style_09365BA5903BA3E854C7</styleUrl>
		<Point>
			<coordinates>-0.6302166053164737,51.49103666894386,14.65479056763342</coordinates>
		</Point>
	</Placemark>
	<Placemark id="003A36BA693BA3E964DC">
		<name>6</name>
		<LookAt>
			<longitude>-0.6304475235915552</longitude>
			<latitude>51.49107935335486</latitude>
			<altitude>14.31657394724505</altitude>
			<heading>0</heading>
			<tilt>0</tilt>
			<gx:fovy>35</gx:fovy>
			<range>366.3706771950092</range>
			<altitudeMode>absolute</altitudeMode>
		</LookAt>
		<styleUrl>#__managed_style_09365BA5903BA3E854C7</styleUrl>
		<Point>
			<coordinates>-0.6302277868296891,51.4913148551155,15.25112404514069</coordinates>
		</Point>
	</Placemark>
	<Placemark id="0FD8FFBC1E3BA3E9E3C0">
		<name>7</name>
		<LookAt>
			<longitude>-0.6315932923368361</longitude>
			<latitude>51.49127719222989</latitude>
			<altitude>14.25464744765017</altitude>
			<heading>0</heading>
			<tilt>0</tilt>
			<gx:fovy>35</gx:fovy>
			<range>366.4326077404985</range>
			<altitudeMode>absolute</altitudeMode>
		</LookAt>
		<styleUrl>#__managed_style_09365BA5903BA3E854C7</styleUrl>
		<Point>
			<coordinates>-0.6318396198890219,51.49109786266092,15.26497808452011</coordinates>
		</Point>
	</Placemark>
	<Placemark id="0A82639AE43BA3E9F633">
		<name>8</name>
		<LookAt>
			<longitude>-0.6315932923368361</longitude>
			<latitude>51.49127719222989</latitude>
			<altitude>14.25464744765017</altitude>
			<heading>0</heading>
			<tilt>0</tilt>
			<gx:fovy>35</gx:fovy>
			<range>366.4326077404985</range>
			<altitudeMode>absolute</altitudeMode>
		</LookAt>
		<styleUrl>#__managed_style_09365BA5903BA3E854C7</styleUrl>
		<Point>
			<coordinates>-0.6318297546306118,51.49136765271735,15.28902195797314</coordinates>
		</Point>
	</Placemark>
	<Placemark id="014CE95B613BA3EA2188">
		<name>9</name>
		<LookAt>
			<longitude>-0.6324895469190761</longitude>
			<latitude>51.49114668639712</latitude>
			<altitude>14.25458136659418</altitude>
			<heading>0</heading>
			<tilt>0</tilt>
			<gx:fovy>35</gx:fovy>
			<range>366.4326772732966</range>
			<altitudeMode>absolute</altitudeMode>
		</LookAt>
		<styleUrl>#__managed_style_09365BA5903BA3E854C7</styleUrl>
		<Point>
			<coordinates>-0.6332925381696086,51.49106337432285,15.4064411659545</coordinates>
		</Point>
	</Placemark>
	<Placemark id="00ECE6546B3BA3EA4CE3">
		<name>10</name>
		<LookAt>
			<longitude>-0.6324895469190761</longitude>
			<latitude>51.49114668639712</latitude>
			<altitude>14.25458136659418</altitude>
			<heading>0</heading>
			<tilt>0</tilt>
			<gx:fovy>35</gx:fovy>
			<range>366.4326772732966</range>
			<altitudeMode>absolute</altitudeMode>
		</LookAt>
		<styleUrl>#__managed_style_09365BA5903BA3E854C7</styleUrl>
		<Point>
			<coordinates>-0.6334306214898566,51.49135242651372,15.40647692119277</coordinates>
		</Point>
	</Placemark>
	<Placemark id="0A501DE7DF3BA3EA7B80">
		<name>11</name>
		<LookAt>
			<longitude>-0.6342314467979837</longitude>
			<latitude>51.4908249121817</latitude>
			<altitude>14.44660467072199</altitude>
			<heading>0</heading>
			<tilt>0</tilt>
			<gx:fovy>35</gx:fovy>
			<range>366.2406740402002</range>
			<altitudeMode>absolute</altitudeMode>
		</LookAt>
		<styleUrl>#__managed_style_09365BA5903BA3E854C7</styleUrl>
		<Point>
			<coordinates>-0.6348219187143656,51.49063891622306,14.63854093860708</coordinates>
		</Point>
	</Placemark>
	<Placemark id="0865EA35373BA3EA8C3E">
		<name>12</name>
		<LookAt>
			<longitude>-0.6342314467979837</longitude>
			<latitude>51.4908249121817</latitude>
			<altitude>14.44660467072199</altitude>
			<heading>0</heading>
			<tilt>0</tilt>
			<gx:fovy>35</gx:fovy>
			<range>366.2406740402002</range>
			<altitudeMode>absolute</altitudeMode>
		</LookAt>
		<styleUrl>#__managed_style_09365BA5903BA3E854C7</styleUrl>
		<Point>
			<coordinates>-0.635102671272687,51.49109615123944,14.44659600317125</coordinates>
		</Point>
	</Placemark>
	<Placemark id="0FAC26ABBD3BA3EAC4F0">
		<name>13</name>
		<LookAt>
			<longitude>-0.6357865844205413</longitude>
			<latitude>51.49043399165036</latitude>
			<altitude>14.44659475120742</altitude>
			<heading>0</heading>
			<tilt>0</tilt>
			<gx:fovy>35</gx:fovy>
			<range>366.2406972177996</range>
			<altitudeMode>absolute</altitudeMode>
		</LookAt>
		<styleUrl>#__managed_style_09365BA5903BA3E854C7</styleUrl>
		<Point>
			<coordinates>-0.6361678129751658,51.49024851291541,14.63857486611962</coordinates>
		</Point>
	</Placemark>
	<Placemark id="0039CA2D123BA3EADE31">
		<name>14</name>
		<LookAt>
			<longitude>-0.6357865844205413</longitude>
			<latitude>51.49043399165036</latitude>
			<altitude>14.44659475120742</altitude>
			<heading>0</heading>
			<tilt>0</tilt>
			<gx:fovy>35</gx:fovy>
			<range>366.2406972177996</range>
			<altitudeMode>absolute</altitudeMode>
		</LookAt>
		<styleUrl>#__managed_style_09365BA5903BA3E854C7</styleUrl>
		<Point>
			<coordinates>-0.6367444933748889,51.49072080990402,15.47279586586925</coordinates>
		</Point>
	</Placemark>
	<Placemark id="0AAC4C9BAB3BA3EB4574">
		<name>15</name>
		<LookAt>
			<longitude>-0.6375688672966651</longitude>
			<latitude>51.48997980453368</latitude>
			<altitude>14.68878631998225</altitude>
			<heading>0</heading>
			<tilt>0</tilt>
			<gx:fovy>35</gx:fovy>
			<range>365.99849130449</range>
			<altitudeMode>absolute</altitudeMode>
		</LookAt>
		<styleUrl>#__managed_style_09365BA5903BA3E854C7</styleUrl>
		<Point>
			<coordinates>-0.6378068564444339,51.48973595813477,16.1632134733384</coordinates>
		</Point>
	</Placemark>
	<Placemark id="04229AF0933BA3EB5F4B">
		<name>16</name>
		<LookAt>
			<longitude>-0.6375688672966651</longitude>
			<latitude>51.48997980453368</latitude>
			<altitude>14.68878631998225</altitude>
			<heading>0</heading>
			<tilt>0</tilt>
			<gx:fovy>35</gx:fovy>
			<range>365.99849130449</range>
			<altitudeMode>absolute</altitudeMode>
		</LookAt>
		<styleUrl>#__managed_style_09365BA5903BA3E854C7</styleUrl>
		<Point>
			<coordinates>-0.6382196656329364,51.49009405073895,15.57717668678615</coordinates>
		</Point>
	</Placemark>
	<Placemark id="00CE200F643BA3EB9FCE">
		<name>17</name>
		<LookAt>
			<longitude>-0.6387722494839831</longitude>
			<latitude>51.4895333462831</latitude>
			<altitude>15.21442823119945</altitude>
			<heading>0</heading>
			<tilt>0</tilt>
			<gx:fovy>35</gx:fovy>
			<range>365.4728233510104</range>
			<altitudeMode>absolute</altitudeMode>
		</LookAt>
		<styleUrl>#__managed_style_09365BA5903BA3E854C7</styleUrl>
		<Point>
			<coordinates>-0.6393111960680142,51.48921118668736,16.17429830877029</coordinates>
		</Point>
	</Placemark>
	<Placemark id="081FAEE5863BA3EBB0BC">
		<name>18</name>
		<LookAt>
			<longitude>-0.6387722494839831</longitude>
			<latitude>51.4895333462831</latitude>
			<altitude>15.21442823119945</altitude>
			<heading>0</heading>
			<tilt>0</tilt>
			<gx:fovy>35</gx:fovy>
			<range>365.4728233510104</range>
			<altitudeMode>absolute</altitudeMode>
		</LookAt>
		<styleUrl>#__managed_style_09365BA5903BA3E854C7</styleUrl>
		<Point>
			<coordinates>-0.6395937532223184,51.48932694138379,15.14974591730413</coordinates>
		</Point>
	</Placemark>
	<Placemark id="0CDF86AC6A3BA3EC4BD0">
		<name>19</name>
		<LookAt>
			<longitude>-0.63890879140861</longitude>
			<latitude>51.48888706923611</latitude>
			<altitude>15.21442563814894</altitude>
			<heading>0</heading>
			<tilt>0</tilt>
			<gx:fovy>35</gx:fovy>
			<range>450.3904946885451</range>
			<altitudeMode>absolute</altitudeMode>
		</LookAt>
		<styleUrl>#__managed_style_09365BA5903BA3E854C7</styleUrl>
		<Point>
			<coordinates>-0.6403530125804135,51.48837121677207,16.15440210378648</coordinates>
		</Point>
	</Placemark>
	<Placemark id="06EEFFDCA53BA3EC5E2B">
		<name>20</name>
		<LookAt>
			<longitude>-0.63890879140861</longitude>
			<latitude>51.48888706923611</latitude>
			<altitude>15.21442563814894</altitude>
			<heading>0</heading>
			<tilt>0</tilt>
			<gx:fovy>35</gx:fovy>
			<range>450.3904946885451</range>
			<altitudeMode>absolute</altitudeMode>
		</LookAt>
		<styleUrl>#__managed_style_09365BA5903BA3E854C7</styleUrl>
		<Point>
			<coordinates>-0.6405972427375917,51.48849521500633,16.00315885347889</coordinates>
		</Point>
	</Placemark>
	<Placemark id="059A1655BC3BA3ECAC08">
		<name>21</name>
		<LookAt>
			<longitude>-0.6410576975444948</longitude>
			<latitude>51.48774056218445</latitude>
			<altitude>15.18517716431018</altitude>
			<heading>0</heading>
			<tilt>0</tilt>
			<gx:fovy>35</gx:fovy>
			<range>450.419744818937</range>
			<altitudeMode>absolute</altitudeMode>
		</LookAt>
		<styleUrl>#__managed_style_09365BA5903BA3E854C7</styleUrl>
		<Point>
			<coordinates>-0.6415540509041584,51.48747564215508,15.98230451703737</coordinates>
		</Point>
	</Placemark>
	<Placemark id="0A21129CD53BA3ED3DEC">
		<name>22</name>
		<LookAt>
			<longitude>-0.6423825697183239</longitude>
			<latitude>51.48756825362318</latitude>
			<altitude>15.12718189763815</altitude>
			<heading>0</heading>
			<tilt>0</tilt>
			<gx:fovy>35</gx:fovy>
			<range>286.1297586786895</range>
			<altitudeMode>absolute</altitudeMode>
		</LookAt>
		<styleUrl>#__managed_style_09365BA5903BA3E854C7</styleUrl>
		<Point>
			<coordinates>-0.6431351599353496,51.48744060269699,16.35259160989025</coordinates>
		</Point>
	</Placemark>
	<Placemark id="07BB0288453BA3ED91FC">
		<name>23</name>
		<LookAt>
			<longitude>-0.6442318329726016</longitude>
			<latitude>51.48784906470691</latitude>
			<altitude>15.21447445766517</altitude>
			<heading>0</heading>
			<tilt>0</tilt>
			<gx:fovy>35</gx:fovy>
			<range>424.0837339944119</range>
			<altitudeMode>absolute</altitudeMode>
		</LookAt>
		<styleUrl>#__managed_style_09365BA5903BA3E854C7</styleUrl>
		<Point>
			<coordinates>-0.6440859105242369,51.4880333861833,16.31406982438226</coordinates>
		</Point>
	</Placemark>
	<Placemark id="0159C0C26D3BA3EDBCBC">
		<name>24</name>
		<LookAt>
			<longitude>-0.6437720236207878</longitude>
			<latitude>51.4890203361829</latitude>
			<altitude>15.02245096821842</altitude>
			<heading>0</heading>
			<tilt>0</tilt>
			<gx:fovy>35</gx:fovy>
			<range>424.2757372275082</range>
			<altitudeMode>absolute</altitudeMode>
		</LookAt>
		<styleUrl>#__managed_style_09365BA5903BA3E854C7</styleUrl>
		<Point>
			<coordinates>-0.6438220708328524,51.48889568524998,16.18117131152556</coordinates>
		</Point>
	</Placemark>
	<Placemark id="08CCB6E3D43BA3EE0F08">
		<name>25</name>
		<LookAt>
			<longitude>-0.6419436326210248</longitude>
			<latitude>51.4891349622546</latitude>
			<altitude>14.83053029258797</altitude>
			<heading>0</heading>
			<tilt>0</tilt>
			<gx:fovy>35</gx:fovy>
			<range>424.4676941054059</range>
			<altitudeMode>absolute</altitudeMode>
		</LookAt>
		<styleUrl>#__managed_style_09365BA5903BA3E854C7</styleUrl>
		<Point>
			<coordinates>-0.6422650691695431,51.48927532403949,15.78935653505718</coordinates>
		</Point>
	</Placemark>
	<Placemark id="02A8EC0E273BA3EE1ED6">
		<name>26</name>
		<LookAt>
			<longitude>-0.6419436326210248</longitude>
			<latitude>51.4891349622546</latitude>
			<altitude>14.83053029258797</altitude>
			<heading>0</heading>
			<tilt>0</tilt>
			<gx:fovy>35</gx:fovy>
			<range>424.4676941054059</range>
			<altitudeMode>absolute</altitudeMode>
		</LookAt>
		<styleUrl>#__managed_style_09365BA5903BA3E854C7</styleUrl>
		<Point>
			<coordinates>-0.6423487479712808,51.48952763671691,15.59426182413238</coordinates>
		</Point>
	</Placemark>
	<Placemark id="093DDBD4953BA3EE49D0">
		<name>27</name>
		<LookAt>
			<longitude>-0.641303374885096</longitude>
			<latitude>51.48977072524378</latitude>
			<altitude>14.80260421085234</altitude>
			<heading>0</heading>
			<tilt>0</tilt>
			<gx:fovy>35</gx:fovy>
			<range>424.495599935035</range>
			<altitudeMode>absolute</altitudeMode>
		</LookAt>
		<styleUrl>#__managed_style_09365BA5903BA3E854C7</styleUrl>
		<Point>
			<coordinates>-0.6408368741266435,51.48943317249596,14.88102908558934</coordinates>
		</Point>
	</Placemark>
	<Placemark id="0523DB44913BA3EE5F7C">
		<name>28</name>
		<LookAt>
			<longitude>-0.641303374885096</longitude>
			<latitude>51.48977072524378</latitude>
			<altitude>14.80260421085234</altitude>
			<heading>0</heading>
			<tilt>0</tilt>
			<gx:fovy>35</gx:fovy>
			<range>424.495599935035</range>
			<altitudeMode>absolute</altitudeMode>
		</LookAt>
		<styleUrl>#__managed_style_09365BA5903BA3E854C7</styleUrl>
		<Point>
			<coordinates>-0.6409231482985001,51.48971088670184,15.40640319254754</coordinates>
		</Point>
	</Placemark>
	<Placemark id="04F5186A8B3BA3EE98C4">
		<name>29</name>
		<LookAt>
			<longitude>-0.640018994885091</longitude>
			<latitude>51.48991138941403</latitude>
			<altitude>14.32740123744812</altitude>
			<heading>0</heading>
			<tilt>0</tilt>
			<gx:fovy>35</gx:fovy>
			<range>424.970787077109</range>
			<altitudeMode>absolute</altitudeMode>
		</LookAt>
		<styleUrl>#__managed_style_09365BA5903BA3E854C7</styleUrl>
		<Point>
			<coordinates>-0.6394314638693022,51.48960787860185,15.95939779738223</coordinates>
		</Point>
	</Placemark>
	<Placemark id="0094BC948C3BA3EEB708">
		<name>30</name>
		<LookAt>
			<longitude>-0.640018994885091</longitude>
			<latitude>51.48991138941403</latitude>
			<altitude>14.32740123744812</altitude>
			<heading>0</heading>
			<tilt>0</tilt>
			<gx:fovy>35</gx:fovy>
			<range>424.970787077109</range>
			<altitudeMode>absolute</altitudeMode>
		</LookAt>
		<styleUrl>#__managed_style_09365BA5903BA3E854C7</styleUrl>
		<Point>
			<coordinates>-0.6394080278183023,51.48990617648578,14.75983813638952</coordinates>
		</Point>
	</Placemark>
	<Placemark id="0CEB6582463BA3EF397F">
		<name>31</name>
		<LookAt>
			<longitude>-0.6365184042183325</longitude>
			<latitude>51.49003504798807</latitude>
			<altitude>14.84086335132403</altitude>
			<heading>0</heading>
			<tilt>0</tilt>
			<gx:fovy>35</gx:fovy>
			<range>455.0037640651136</range>
			<altitudeMode>absolute</altitudeMode>
		</LookAt>
		<styleUrl>#__managed_style_09365BA5903BA3E854C7</styleUrl>
		<Point>
			<coordinates>-0.6366237147895559,51.48979355188237,15.29915497552312</coordinates>
		</Point>
	</Placemark>
	<Placemark id="0F50F247463BA3EF4EA8">
		<name>32</name>
		<LookAt>
			<longitude>-0.6365184042183325</longitude>
			<latitude>51.49003504798807</latitude>
			<altitude>14.84086335132403</altitude>
			<heading>0</heading>
			<tilt>0</tilt>
			<gx:fovy>35</gx:fovy>
			<range>455.0037640651136</range>
			<altitudeMode>absolute</altitudeMode>
		</LookAt>
		<styleUrl>#__managed_style_09365BA5903BA3E854C7</styleUrl>
		<Point>
			<coordinates>-0.6365340718005241,51.49007246927721,14.77098469434568</coordinates>
		</Point>
	</Placemark>
	<Placemark id="07AEC9AD0E3BA3EFE620">
		<name>33</name>
		<LookAt>
			<longitude>-0.6348925734876376</longitude>
			<latitude>51.48972183795984</latitude>
			<altitude>14.84085718911561</altitude>
			<heading>0</heading>
			<tilt>0</tilt>
			<gx:fovy>35</gx:fovy>
			<range>455.0037640651135</range>
			<altitudeMode>absolute</altitudeMode>
		</LookAt>
		<styleUrl>#__managed_style_09365BA5903BA3E854C7</styleUrl>
		<Point>
			<coordinates>-0.6348028738433154,51.48973580101116,14.84087466426727</coordinates>
		</Point>
	</Placemark>
	<Placemark id="0A7639F35F3BA3EFF5F4">
		<name>34</name>
		<LookAt>
			<longitude>-0.6348925734876376</longitude>
			<latitude>51.48972183795984</latitude>
			<altitude>14.84085718911561</altitude>
			<heading>0</heading>
			<tilt>0</tilt>
			<gx:fovy>35</gx:fovy>
			<range>455.0037640651135</range>
			<altitudeMode>absolute</altitudeMode>
		</LookAt>
		<styleUrl>#__managed_style_09365BA5903BA3E854C7</styleUrl>
		<Point>
			<coordinates>-0.6348298892427329,51.49005080853238,15.60879161558805</coordinates>
		</Point>
	</Placemark>
	<Placemark id="0F2C1D660E3BA3F03450">
		<name>35</name>
		<LookAt>
			<longitude>-0.633171848330446</longitude>
			<latitude>51.4898652941417</latitude>
			<altitude>14.44661575024824</altitude>
			<heading>0</heading>
			<tilt>0</tilt>
			<gx:fovy>35</gx:fovy>
			<range>270.6953317130319</range>
			<altitudeMode>absolute</altitudeMode>
		</LookAt>
		<styleUrl>#__managed_style_09365BA5903BA3E854C7</styleUrl>
		<Point>
			<coordinates>-0.6330866423040216,51.48973431714737,15.01121235201773</coordinates>
		</Point>
	</Placemark>
	<Placemark id="0B4867540D3BA3F044DB">
		<name>36</name>
		<LookAt>
			<longitude>-0.633171848330446</longitude>
			<latitude>51.4898652941417</latitude>
			<altitude>14.44661575024824</altitude>
			<heading>0</heading>
			<tilt>0</tilt>
			<gx:fovy>35</gx:fovy>
			<range>270.6953317130319</range>
			<altitudeMode>absolute</altitudeMode>
		</LookAt>
		<styleUrl>#__managed_style_09365BA5903BA3E854C7</styleUrl>
		<Point>
			<coordinates>-0.6331027168759451,51.49001760624306,15.39716374473166</coordinates>
		</Point>
	</Placemark>
	<Placemark id="0AEC6D1F343BA3F072AE">
		<name>37</name>
		<LookAt>
			<longitude>-0.6321039462104927</longitude>
			<latitude>51.48988523718681</latitude>
			<altitude>14.63853413131899</altitude>
			<heading>0</heading>
			<tilt>0</tilt>
			<gx:fovy>35</gx:fovy>
			<range>270.503421190333</range>
			<altitudeMode>absolute</altitudeMode>
		</LookAt>
		<styleUrl>#__managed_style_09365BA5903BA3E854C7</styleUrl>
		<Point>
			<coordinates>-0.6313929656011863,51.48972937969179,14.99509139940971</coordinates>
		</Point>
	</Placemark>
	<Placemark id="00616589893BA3F0822B">
		<name>38</name>
		<LookAt>
			<longitude>-0.6321039462104927</longitude>
			<latitude>51.48988523718681</latitude>
			<altitude>14.63853413131899</altitude>
			<heading>0</heading>
			<tilt>0</tilt>
			<gx:fovy>35</gx:fovy>
			<range>270.503421190333</range>
			<altitudeMode>absolute</altitudeMode>
		</LookAt>
		<styleUrl>#__managed_style_09365BA5903BA3E854C7</styleUrl>
		<Point>
			<coordinates>-0.6314169491673893,51.48998968813851,15.0036684197226</coordinates>
		</Point>
	</Placemark>
	<Placemark id="06BF737A543BA3F0B300">
		<name>39</name>
		<LookAt>
			<longitude>-0.6298866285111937</longitude>
			<latitude>51.48985698594055</latitude>
			<altitude>14.28099007523794</altitude>
			<heading>0</heading>
			<tilt>0</tilt>
			<gx:fovy>35</gx:fovy>
			<range>270.8609588380568</range>
			<altitudeMode>absolute</altitudeMode>
		</LookAt>
		<styleUrl>#__managed_style_09365BA5903BA3E854C7</styleUrl>
		<Point>
			<coordinates>-0.6297238552800399,51.48972572725457,14.43031439601787</coordinates>
		</Point>
	</Placemark>
	<Placemark id="0D5D49AC7B3BA3F0C2C1">
		<name>40</name>
		<LookAt>
			<longitude>-0.6298866285111937</longitude>
			<latitude>51.48985698594055</latitude>
			<altitude>14.28099007523794</altitude>
			<heading>0</heading>
			<tilt>0</tilt>
			<gx:fovy>35</gx:fovy>
			<range>270.8609588380568</range>
			<altitudeMode>absolute</altitudeMode>
		</LookAt>
		<styleUrl>#__managed_style_09365BA5903BA3E854C7</styleUrl>
		<Point>
			<coordinates>-0.629740313406042,51.48995471489393,15.25732039327402</coordinates>
		</Point>
	</Placemark>
</Document>
</kml>
