<?xml version="1.0" encoding="UTF-8"?>
<kml xmlns="http://www.opengis.net/kml/2.2" xmlns:gx="http://www.google.com/kml/ext/2.2" xmlns:kml="http://www.opengis.net/kml/2.2" xmlns:atom="http://www.w3.org/2005/Atom">
<Document id="1xc8eijBY0vrN8V1S5iY55a3m7ZD5Cqyv">
	<name>Newmarket - Rowley</name>
	<gx:CascadingStyle kml:id="__managed_style_19D8CC488A2F4A175B72">
		<Style>
			<IconStyle>
				<scale>1.2</scale>
				<Icon>
					<href>https://earth.google.com/earth/rpc/cc/icon?color=1976d2&amp;id=2000&amp;scale=4</href>
				</Icon>
				<hotSpot x="64" y="128" xunits="pixels" yunits="insetPixels"/>
			</IconStyle>
			<LabelStyle>
			</LabelStyle>
			<LineStyle>
				<color>ff2dc0fb</color>
				<width>4.8</width>
			</LineStyle>
			<PolyStyle>
				<color>40ffffff</color>
			</PolyStyle>
			<BalloonStyle>
			</BalloonStyle>
		</Style>
	</gx:CascadingStyle>
	<gx:CascadingStyle kml:id="__managed_style_0E184C3CCD2F4A175B72">
		<Style>
			<IconStyle>
				<Icon>
					<href>https://earth.google.com/earth/rpc/cc/icon?color=1976d2&amp;id=2000&amp;scale=4</href>
				</Icon>
				<hotSpot x="64" y="128" xunits="pixels" yunits="insetPixels"/>
			</IconStyle>
			<LabelStyle>
			</LabelStyle>
			<LineStyle>
				<color>ff2dc0fb</color>
				<width>3.2</width>
			</LineStyle>
			<PolyStyle>
				<color>40ffffff</color>
			</PolyStyle>
			<BalloonStyle>
			</BalloonStyle>
		</Style>
	</gx:CascadingStyle>
	<StyleMap id="__managed_style_0931660C232F4A175B71">
		<Pair>
			<key>normal</key>
			<styleUrl>#__managed_style_0E184C3CCD2F4A175B72</styleUrl>
		</Pair>
		<Pair>
			<key>highlight</key>
			<styleUrl>#__managed_style_19D8CC488A2F4A175B72</styleUrl>
		</Pair>
	</StyleMap>
	<Placemark id="05820F45412F491F9A14">
		<name>1</name>
		<LookAt>
			<longitude>0.3675613050067805</longitude>
			<latitude>52.23748576073675</latitude>
			<altitude>29.0987536003272</altitude>
			<heading>0</heading>
			<tilt>0</tilt>
			<gx:fovy>35</gx:fovy>
			<range>3847.336494660122</range>
			<altitudeMode>absolute</altitudeMode>
		</LookAt>
		<styleUrl>#__managed_style_0931660C232F4A175B71</styleUrl>
		<Point>
			<coordinates>0.3250946443871583,52.22755270274033,42.22565534376206</coordinates>
		</Point>
	</Placemark>
	<Placemark id="02073C2A952F4926D4B4">
		<name>2</name>
		<LookAt>
			<longitude>0.3275338230924141</longitude>
			<latitude>52.227785349489</latitude>
			<altitude>39.82982345391184</altitude>
			<heading>18.82615883242209</heading>
			<tilt>4.569511105110831</tilt>
			<gx:fovy>35</gx:fovy>
			<range>663.8329608374625</range>
			<altitudeMode>absolute</altitudeMode>
		</LookAt>
		<styleUrl>#__managed_style_0931660C232F4A175B71</styleUrl>
		<Point>
			<coordinates>0.3255209609341025,52.2280595220899,37.05215761109945</coordinates>
		</Point>
	</Placemark>
	<Placemark id="0523C1FEB22F4926F35D">
		<name>3</name>
		<LookAt>
			<longitude>0.3275338230924141</longitude>
			<latitude>52.227785349489</latitude>
			<altitude>39.82982345391184</altitude>
			<heading>18.82615883242209</heading>
			<tilt>4.569511105110831</tilt>
			<gx:fovy>35</gx:fovy>
			<range>663.8329608374625</range>
			<altitudeMode>absolute</altitudeMode>
		</LookAt>
		<styleUrl>#__managed_style_0931660C232F4A175B71</styleUrl>
		<Point>
			<coordinates>0.3259639742466969,52.22851117614085,35.98446368552018</coordinates>
		</Point>
	</Placemark>
	<Placemark id="069D7EC3692F492716D8">
		<name>4</name>
		<LookAt>
			<longitude>0.3275338230924141</longitude>
			<latitude>52.227785349489</latitude>
			<altitude>39.82982345391184</altitude>
			<heading>18.82615883242209</heading>
			<tilt>4.569511105110831</tilt>
			<gx:fovy>35</gx:fovy>
			<range>663.8329608374625</range>
			<altitudeMode>absolute</altitudeMode>
		</LookAt>
		<styleUrl>#__managed_style_0931660C232F4A175B71</styleUrl>
		<Point>
			<coordinates>0.3264826229889906,52.22904226067449,35.2333278173626</coordinates>
		</Point>
	</Placemark>
	<Placemark id="08987754852F4927416B">
		<name>5</name>
		<LookAt>
			<longitude>0.3289843019892458</longitude>
			<latitude>52.22953858109837</latitude>
			<altitude>37.34174134321878</altitude>
			<heading>18.82730539441634</heading>
			<tilt>4.569512893328984</tilt>
			<gx:fovy>35</gx:fovy>
			<range>666.328956512516</range>
			<altitudeMode>absolute</altitudeMode>
		</LookAt>
		<styleUrl>#__managed_style_0931660C232F4A175B71</styleUrl>
		<Point>
			<coordinates>0.3270010826136827,52.22952867083389,34.48024473508818</coordinates>
		</Point>
	</Placemark>
	<Placemark id="0B7C94467D2F49275237">
		<name>6</name>
		<LookAt>
			<longitude>0.3289843019892458</longitude>
			<latitude>52.22953858109837</latitude>
			<altitude>37.34174134321878</altitude>
			<heading>18.82730539441634</heading>
			<tilt>4.569512893328984</tilt>
			<gx:fovy>35</gx:fovy>
			<range>666.328956512516</range>
			<altitudeMode>absolute</altitudeMode>
		</LookAt>
		<styleUrl>#__managed_style_0931660C232F4A175B71</styleUrl>
		<Point>
			<coordinates>0.3275860896402438,52.23011453206603,33.80949423820161</coordinates>
		</Point>
	</Placemark>
	<Placemark id="0C4C34C4342F49276676">
		<name>7</name>
		<LookAt>
			<longitude>0.3289843019892458</longitude>
			<latitude>52.22953858109837</latitude>
			<altitude>37.34174134321878</altitude>
			<heading>18.82730539441634</heading>
			<tilt>4.569512893328984</tilt>
			<gx:fovy>35</gx:fovy>
			<range>666.328956512516</range>
			<altitudeMode>absolute</altitudeMode>
		</LookAt>
		<styleUrl>#__managed_style_0931660C232F4A175B71</styleUrl>
		<Point>
			<coordinates>0.3281452393097495,52.230587344187,33.78275242656892</coordinates>
		</Point>
	</Placemark>
	<Placemark id="0090F9F1522F49277EF0">
		<name>8</name>
		<LookAt>
			<longitude>0.3289843019892458</longitude>
			<latitude>52.22953858109837</latitude>
			<altitude>37.34174134321878</altitude>
			<heading>18.82730539441634</heading>
			<tilt>4.569512893328984</tilt>
			<gx:fovy>35</gx:fovy>
			<range>666.328956512516</range>
			<altitudeMode>absolute</altitudeMode>
		</LookAt>
		<styleUrl>#__managed_style_0931660C232F4A175B71</styleUrl>
		<Point>
			<coordinates>0.3287763014538503,52.23106348999814,32.12894188682749</coordinates>
		</Point>
	</Placemark>
	<Placemark id="077EC885A12F4927DE2E">
		<name>9</name>
		<LookAt>
			<longitude>0.3303625433978263</longitude>
			<latitude>52.23175029816689</latitude>
			<altitude>32.09553493998496</altitude>
			<heading>18.82930499483426</heading>
			<tilt>4.569687547560761</tilt>
			<gx:fovy>35</gx:fovy>
			<range>910.1235088374233</range>
			<altitudeMode>absolute</altitudeMode>
		</LookAt>
		<styleUrl>#__managed_style_0931660C232F4A175B71</styleUrl>
		<Point>
			<coordinates>0.3294194944015327,52.2316018950829,32.1299533022944</coordinates>
		</Point>
	</Placemark>
	<Placemark id="0E0DD82CD72F49280947">
		<name>10</name>
		<LookAt>
			<longitude>0.3303625433978263</longitude>
			<latitude>52.23175029816689</latitude>
			<altitude>32.09553493998496</altitude>
			<heading>18.82930499483426</heading>
			<tilt>4.569687547560761</tilt>
			<gx:fovy>35</gx:fovy>
			<range>910.1235088374233</range>
			<altitudeMode>absolute</altitudeMode>
		</LookAt>
		<styleUrl>#__managed_style_0931660C232F4A175B71</styleUrl>
		<Point>
			<coordinates>0.3300839205689976,52.23212571823925,32.12909004157548</coordinates>
		</Point>
	</Placemark>
	<Placemark id="032DB683732F49282649">
		<name>11</name>
		<LookAt>
			<longitude>0.3307510657625667</longitude>
			<latitude>52.23239837733789</latitude>
			<altitude>31.60180987183085</altitude>
			<heading>18.82915840890675</heading>
			<tilt>4.569335487742828</tilt>
			<gx:fovy>35</gx:fovy>
			<range>418.6924389625347</range>
			<altitudeMode>absolute</altitudeMode>
		</LookAt>
		<styleUrl>#__managed_style_0931660C232F4A175B71</styleUrl>
		<Point>
			<coordinates>0.3306647283554431,52.23265165470259,31.32984515353835</coordinates>
		</Point>
	</Placemark>
	<Placemark id="078EEE787E2F49283790">
		<name>12</name>
		<LookAt>
			<longitude>0.3307510657625667</longitude>
			<latitude>52.23239837733789</latitude>
			<altitude>31.60180987183085</altitude>
			<heading>18.82915840890675</heading>
			<tilt>4.569335487742828</tilt>
			<gx:fovy>35</gx:fovy>
			<range>418.6924389625347</range>
			<altitudeMode>absolute</altitudeMode>
		</LookAt>
		<styleUrl>#__managed_style_0931660C232F4A175B71</styleUrl>
		<Point>
			<coordinates>0.3311614486837522,52.23319514314687,30.64208265303018</coordinates>
		</Point>
	</Placemark>
	<Placemark id="03C6C909A12F492876AB">
		<name>13</name>
		<LookAt>
			<longitude>0.3324142432613497</longitude>
			<latitude>52.23358961054872</latitude>
			<altitude>30.24186397900361</altitude>
			<heading>18.83853608335814</heading>
			<tilt>4.569461267930736</tilt>
			<gx:fovy>35</gx:fovy>
			<range>594.2658135559032</range>
			<altitudeMode>absolute</altitudeMode>
		</LookAt>
		<styleUrl>#__managed_style_0931660C232F4A175B71</styleUrl>
		<Point>
			<coordinates>0.3316880504330588,52.23362510045645,29.80138352918726</coordinates>
		</Point>
	</Placemark>
	<Placemark id="096CAAD8F42F492B552D">
		<name>14</name>
		<LookAt>
			<longitude>0.3324142432613497</longitude>
			<latitude>52.23358961054872</latitude>
			<altitude>30.24186397900361</altitude>
			<heading>18.83853608335814</heading>
			<tilt>4.569461267930736</tilt>
			<gx:fovy>35</gx:fovy>
			<range>594.2658135559032</range>
			<altitudeMode>absolute</altitudeMode>
		</LookAt>
		<styleUrl>#__managed_style_0931660C232F4A175B71</styleUrl>
		<Point>
			<coordinates>0.3322681927681903,52.23411529500193,30.570582698912</coordinates>
		</Point>
	</Placemark>
	<Placemark id="01E5B0E6CA2F492B8506">
		<name>15</name>
		<LookAt>
			<longitude>0.3345243805008513</longitude>
			<latitude>52.23526150214056</latitude>
			<altitude>33.03490783032218</altitude>
			<heading>18.84014905233706</heading>
			<tilt>4.569730843814198</tilt>
			<gx:fovy>35</gx:fovy>
			<range>970.5603044031886</range>
			<altitudeMode>absolute</altitudeMode>
		</LookAt>
		<styleUrl>#__managed_style_0931660C232F4A175B71</styleUrl>
		<Point>
			<coordinates>0.3329614713163798,52.23465427337208,32.37010559871933</coordinates>
		</Point>
	</Placemark>
	<Placemark id="040A5013EF2F492B98E1">
		<name>16</name>
		<LookAt>
			<longitude>0.3345243805008513</longitude>
			<latitude>52.23526150214056</latitude>
			<altitude>33.03490783032218</altitude>
			<heading>18.84014905233706</heading>
			<tilt>4.569730843814198</tilt>
			<gx:fovy>35</gx:fovy>
			<range>970.5603044031886</range>
			<altitudeMode>absolute</altitudeMode>
		</LookAt>
		<styleUrl>#__managed_style_0931660C232F4A175B71</styleUrl>
		<Point>
			<coordinates>0.3335805758077326,52.23516274216038,34.27146342620704</coordinates>
		</Point>
	</Placemark>
	<Placemark id="051A5C37792F492BB64E">
		<name>17</name>
		<LookAt>
			<longitude>0.3345243805008513</longitude>
			<latitude>52.23526150214056</latitude>
			<altitude>33.03490783032218</altitude>
			<heading>18.84014905233706</heading>
			<tilt>4.569730843814198</tilt>
			<gx:fovy>35</gx:fovy>
			<range>970.5603044031886</range>
			<altitudeMode>absolute</altitudeMode>
		</LookAt>
		<styleUrl>#__managed_style_0931660C232F4A175B71</styleUrl>
		<Point>
			<coordinates>0.3342492821670784,52.23570181180899,34.80848165857046</coordinates>
		</Point>
	</Placemark>
	<Placemark id="091BB881BE2F492BE2B4">
		<name>18</name>
		<LookAt>
			<longitude>0.3345243805008513</longitude>
			<latitude>52.23526150203678</latitude>
			<altitude>33.03490783032218</altitude>
			<heading>18.84014905275643</heading>
			<tilt>4.569730843715674</tilt>
			<gx:fovy>35</gx:fovy>
			<range>970.5603044031886</range>
			<altitudeMode>absolute</altitudeMode>
		</LookAt>
		<styleUrl>#__managed_style_0931660C232F4A175B71</styleUrl>
		<Point>
			<coordinates>0.334976989882465,52.23628552284489,35.05161932160251</coordinates>
		</Point>
	</Placemark>
	<Placemark id="0DE4B1E59E2F492C0578">
		<name>19</name>
		<LookAt>
			<longitude>0.3399515477646053</longitude>
			<latitude>52.23771960182685</latitude>
			<altitude>26.72585598178446</altitude>
			<heading>18.84432073220944</heading>
			<tilt>4.570079940952894</tilt>
			<gx:fovy>35</gx:fovy>
			<range>1457.854682699544</range>
			<altitudeMode>absolute</altitudeMode>
		</LookAt>
		<styleUrl>#__managed_style_0931660C232F4A175B71</styleUrl>
		<Point>
			<coordinates>0.335748811443608,52.23693610117406,32.78266022146169</coordinates>
		</Point>
	</Placemark>
	<Placemark id="05B3D88D622F492C1943">
		<name>20</name>
		<LookAt>
			<longitude>0.3399515477646053</longitude>
			<latitude>52.23771960182685</latitude>
			<altitude>26.72585598178446</altitude>
			<heading>18.84432073220944</heading>
			<tilt>4.570079940952894</tilt>
			<gx:fovy>35</gx:fovy>
			<range>1457.854682699544</range>
			<altitudeMode>absolute</altitudeMode>
		</LookAt>
		<styleUrl>#__managed_style_0931660C232F4A175B71</styleUrl>
		<Point>
			<coordinates>0.3366557586884733,52.23747003150118,31.96233785911357</coordinates>
		</Point>
	</Placemark>
	<Placemark id="00AD9E720A2F492C29DC">
		<name>21</name>
		<LookAt>
			<longitude>0.3399515477646053</longitude>
			<latitude>52.23771960182685</latitude>
			<altitude>26.72585598178446</altitude>
			<heading>18.84432073220944</heading>
			<tilt>4.570079940952894</tilt>
			<gx:fovy>35</gx:fovy>
			<range>1457.854682699544</range>
			<altitudeMode>absolute</altitudeMode>
		</LookAt>
		<styleUrl>#__managed_style_0931660C232F4A175B71</styleUrl>
		<Point>
			<coordinates>0.337610399709467,52.23794500690463,29.33032040243846</coordinates>
		</Point>
	</Placemark>
	<Placemark id="04966F3F5F2F492C3B2D">
		<name>22</name>
		<LookAt>
			<longitude>0.3399515477646053</longitude>
			<latitude>52.23771960182685</latitude>
			<altitude>26.72585598178446</altitude>
			<heading>18.84432073220944</heading>
			<tilt>4.570079940952894</tilt>
			<gx:fovy>35</gx:fovy>
			<range>1457.854682699544</range>
			<altitudeMode>absolute</altitudeMode>
		</LookAt>
		<styleUrl>#__managed_style_0931660C232F4A175B71</styleUrl>
		<Point>
			<coordinates>0.3386240272605612,52.23849196235502,27.0209465516554</coordinates>
		</Point>
	</Placemark>
	<Placemark id="01BF2905942F492C4E0D">
		<name>23</name>
		<LookAt>
			<longitude>0.3399515477646053</longitude>
			<latitude>52.23771960182685</latitude>
			<altitude>26.72585598178446</altitude>
			<heading>18.84432073220944</heading>
			<tilt>4.570079940952894</tilt>
			<gx:fovy>35</gx:fovy>
			<range>1457.854682699544</range>
			<altitudeMode>absolute</altitudeMode>
		</LookAt>
		<styleUrl>#__managed_style_0931660C232F4A175B71</styleUrl>
		<Point>
			<coordinates>0.3395641163976371,52.23893364088921,26.29872828608381</coordinates>
		</Point>
	</Placemark>
	<Placemark id="085A556F5F2F492CB14F">
		<name>24</name>
		<LookAt>
			<longitude>0.3459741893707147</longitude>
			<latitude>52.24130301384319</latitude>
			<altitude>28.93572376268855</altitude>
			<heading>18.84908201728989</heading>
			<tilt>4.57007835246733</tilt>
			<gx:fovy>35</gx:fovy>
			<range>1455.637791675981</range>
			<altitudeMode>absolute</altitudeMode>
		</LookAt>
		<styleUrl>#__managed_style_0931660C232F4A175B71</styleUrl>
		<Point>
			<coordinates>0.3404983732456413,52.23943763592465,25.81614585009747</coordinates>
		</Point>
	</Placemark>
	<Placemark id="02F893B74C2F492CCAA8">
		<name>25</name>
		<LookAt>
			<longitude>0.3459741893707147</longitude>
			<latitude>52.24130301384319</latitude>
			<altitude>28.93572376268855</altitude>
			<heading>18.84908201728989</heading>
			<tilt>4.57007835246733</tilt>
			<gx:fovy>35</gx:fovy>
			<range>1455.637791675981</range>
			<altitudeMode>absolute</altitudeMode>
		</LookAt>
		<styleUrl>#__managed_style_0931660C232F4A175B71</styleUrl>
		<Point>
			<coordinates>0.3413823217657019,52.23989635047629,25.72895736155964</coordinates>
		</Point>
	</Placemark>
	<Placemark id="0C2A8800422F492CE4D4">
		<name>26</name>
		<LookAt>
			<longitude>0.3459741893707147</longitude>
			<latitude>52.24130301384319</latitude>
			<altitude>28.93572376268855</altitude>
			<heading>18.84908201728989</heading>
			<tilt>4.57007835246733</tilt>
			<gx:fovy>35</gx:fovy>
			<range>1455.637791675981</range>
			<altitudeMode>absolute</altitudeMode>
		</LookAt>
		<styleUrl>#__managed_style_0931660C232F4A175B71</styleUrl>
		<Point>
			<coordinates>0.3422805776042726,52.24033351000035,27.6578978495448</coordinates>
		</Point>
	</Placemark>
	<Placemark id="074D60BBE22F49315BAB">
		<name>27</name>
		<LookAt>
			<longitude>0.3450360148116949</longitude>
			<latitude>52.23949791329478</latitude>
			<altitude>27.26914131850902</altitude>
			<heading>18.84944127556044</heading>
			<tilt>4.569472723011552</tilt>
			<gx:fovy>35</gx:fovy>
			<range>610.2569664581825</range>
			<altitudeMode>absolute</altitudeMode>
		</LookAt>
		<styleUrl>#__managed_style_0931660C232F4A175B71</styleUrl>
		<Point>
			<coordinates>0.3431215762649042,52.24076627788842,26.0580025719256</coordinates>
		</Point>
	</Placemark>
	<Placemark id="00725BD0C22F49316746">
		<name>29</name>
		<LookAt>
			<longitude>0.3450360148116949</longitude>
			<latitude>52.23949791329478</latitude>
			<altitude>27.26914131850902</altitude>
			<heading>18.84944127556044</heading>
			<tilt>4.569472723011552</tilt>
			<gx:fovy>35</gx:fovy>
			<range>610.2569664581825</range>
			<altitudeMode>absolute</altitudeMode>
		</LookAt>
		<styleUrl>#__managed_style_0931660C232F4A175B71</styleUrl>
		<Point>
			<coordinates>0.3447651183082256,52.24147272097745,27.16429626892661</coordinates>
		</Point>
	</Placemark>
	<Placemark id="0032320A492F49317512">
		<name>31</name>
		<LookAt>
			<longitude>0.3450360148116949</longitude>
			<latitude>52.23949791329478</latitude>
			<altitude>27.26914131850902</altitude>
			<heading>18.84944127556044</heading>
			<tilt>4.569472723011552</tilt>
			<gx:fovy>35</gx:fovy>
			<range>610.2569664581825</range>
			<altitudeMode>absolute</altitudeMode>
		</LookAt>
		<styleUrl>#__managed_style_0931660C232F4A175B71</styleUrl>
		<Point>
			<coordinates>0.346920318651236,52.24155654001548,27.29969175644707</coordinates>
		</Point>
	</Placemark>
	<Placemark id="018E9E3DB32F4931E54F">
		<name>33</name>
		<LookAt>
			<longitude>0.3466951948325891</longitude>
			<latitude>52.23846634712091</latitude>
			<altitude>28.73718714289262</altitude>
			<heading>18.8507529798973</heading>
			<tilt>4.569471667947684</tilt>
			<gx:fovy>35</gx:fovy>
			<range>608.7842154396641</range>
			<altitudeMode>absolute</altitudeMode>
		</LookAt>
		<styleUrl>#__managed_style_0931660C232F4A175B71</styleUrl>
		<Point>
			<coordinates>0.3481416418626804,52.24131212033304,27.55323131544725</coordinates>
		</Point>
	</Placemark>
	<Placemark id="064AD8D8CC2F4931FD02">
		<name>35</name>
		<LookAt>
			<longitude>0.3466951948325891</longitude>
			<latitude>52.23846634712091</latitude>
			<altitude>28.73718714289262</altitude>
			<heading>18.8507529798973</heading>
			<tilt>4.569471667947684</tilt>
			<gx:fovy>35</gx:fovy>
			<range>608.7842154396641</range>
			<altitudeMode>absolute</altitudeMode>
		</LookAt>
		<styleUrl>#__managed_style_0931660C232F4A175B71</styleUrl>
		<Point>
			<coordinates>0.3495046447873063,52.24103718243791,28.81657488443842</coordinates>
		</Point>
	</Placemark>
	<Placemark id="04A9299BD12F49321847">
		<name>37</name>
		<LookAt>
			<longitude>0.3466951948325891</longitude>
			<latitude>52.23846634712091</latitude>
			<altitude>28.73718714289262</altitude>
			<heading>18.8507529798973</heading>
			<tilt>4.569471667947684</tilt>
			<gx:fovy>35</gx:fovy>
			<range>608.7842154396641</range>
			<altitudeMode>absolute</altitudeMode>
		</LookAt>
		<styleUrl>#__managed_style_0931660C232F4A175B71</styleUrl>
		<Point>
			<coordinates>0.3508689517163566,52.24078013624155,29.07336312844264</coordinates>
		</Point>
	</Placemark>
	<Placemark id="0FC61A72A62F49322DF5">
		<name>39</name>
		<LookAt>
			<longitude>0.3466951948325891</longitude>
			<latitude>52.23846634712091</latitude>
			<altitude>28.73718714289262</altitude>
			<heading>18.8507529798973</heading>
			<tilt>4.569471667947684</tilt>
			<gx:fovy>35</gx:fovy>
			<range>608.7842154396641</range>
			<altitudeMode>absolute</altitudeMode>
		</LookAt>
		<styleUrl>#__managed_style_0931660C232F4A175B71</styleUrl>
		<Point>
			<coordinates>0.3521210487342041,52.24055011663842,28.8846738534967</coordinates>
		</Point>
	</Placemark>
	<Placemark id="090B85396D2F49323F24">
		<name>41</name>
		<LookAt>
			<longitude>0.3466951948325891</longitude>
			<latitude>52.23846634712091</latitude>
			<altitude>28.73718714289262</altitude>
			<heading>18.8507529798973</heading>
			<tilt>4.569471667947684</tilt>
			<gx:fovy>35</gx:fovy>
			<range>608.7842154396641</range>
			<altitudeMode>absolute</altitudeMode>
		</LookAt>
		<styleUrl>#__managed_style_0931660C232F4A175B71</styleUrl>
		<Point>
			<coordinates>0.3534424156857607,52.24030336456786,28.06246023797993</coordinates>
		</Point>
	</Placemark>
	<Placemark id="0A0B461BF32F49324FAE">
		<name>43</name>
		<LookAt>
			<longitude>0.3466951948325891</longitude>
			<latitude>52.23846634712091</latitude>
			<altitude>28.73718714289262</altitude>
			<heading>18.8507529798973</heading>
			<tilt>4.569471667947684</tilt>
			<gx:fovy>35</gx:fovy>
			<range>608.7842154396641</range>
			<altitudeMode>absolute</altitudeMode>
		</LookAt>
		<styleUrl>#__managed_style_0931660C232F4A175B71</styleUrl>
		<Point>
			<coordinates>0.3547039346409586,52.24005065094411,29.21429644987496</coordinates>
		</Point>
	</Placemark>
	<Placemark id="055CE0B19E2F493260AC">
		<name>45</name>
		<LookAt>
			<longitude>0.3466951948325891</longitude>
			<latitude>52.23846634712091</latitude>
			<altitude>28.73718714289262</altitude>
			<heading>18.8507529798973</heading>
			<tilt>4.569471667947684</tilt>
			<gx:fovy>35</gx:fovy>
			<range>608.7842154396641</range>
			<altitudeMode>absolute</altitudeMode>
		</LookAt>
		<styleUrl>#__managed_style_0931660C232F4A175B71</styleUrl>
		<Point>
			<coordinates>0.3559005895809975,52.23983788023567,30.8761083359533</coordinates>
		</Point>
	</Placemark>
	<Placemark id="022BA2DAE32F493286C2">
		<name>47</name>
		<LookAt>
			<longitude>0.3466951948325891</longitude>
			<latitude>52.23846634712091</latitude>
			<altitude>28.73718714289262</altitude>
			<heading>18.8507529798973</heading>
			<tilt>4.569471667947684</tilt>
			<gx:fovy>35</gx:fovy>
			<range>608.7842154396641</range>
			<altitudeMode>absolute</altitudeMode>
		</LookAt>
		<styleUrl>#__managed_style_0931660C232F4A175B71</styleUrl>
		<Point>
			<coordinates>0.3570422975763621,52.23961202109574,31.66053640518822</coordinates>
		</Point>
	</Placemark>
	<Placemark id="0B28F8A7E82F4932995F">
		<name>49</name>
		<LookAt>
			<longitude>0.3466951948325891</longitude>
			<latitude>52.23846634712091</latitude>
			<altitude>28.73718714289262</altitude>
			<heading>18.8507529798973</heading>
			<tilt>4.569471667947684</tilt>
			<gx:fovy>35</gx:fovy>
			<range>608.7842154396641</range>
			<altitudeMode>absolute</altitudeMode>
		</LookAt>
		<styleUrl>#__managed_style_0931660C232F4A175B71</styleUrl>
		<Point>
			<coordinates>0.3581450252933815,52.23939917629896,31.55743905635554</coordinates>
		</Point>
	</Placemark>
	<Placemark id="0493AF211B2F4932BD85">
		<name>51</name>
		<LookAt>
			<longitude>0.3521463898668764</longitude>
			<latitude>52.23538113621387</latitude>
			<altitude>31.10110951193973</altitude>
			<heading>18.85506242180161</heading>
			<tilt>4.56946996874446</tilt>
			<gx:fovy>35</gx:fovy>
			<range>606.4128225387685</range>
			<altitudeMode>absolute</altitudeMode>
		</LookAt>
		<styleUrl>#__managed_style_0931660C232F4A175B71</styleUrl>
		<Point>
			<coordinates>0.3592137645220173,52.23917423886568,31.01253813231334</coordinates>
		</Point>
	</Placemark>
	<Placemark id="05CEC14ECF2F4932CFDD">
		<name>53</name>
		<LookAt>
			<longitude>0.3521463898668764</longitude>
			<latitude>52.23538113621387</latitude>
			<altitude>31.10110951193973</altitude>
			<heading>18.85506242180161</heading>
			<tilt>4.56946996874446</tilt>
			<gx:fovy>35</gx:fovy>
			<range>606.4128225387685</range>
			<altitudeMode>absolute</altitudeMode>
		</LookAt>
		<styleUrl>#__managed_style_0931660C232F4A175B71</styleUrl>
		<Point>
			<coordinates>0.360410973004488,52.23895667739705,31.61359072553026</coordinates>
		</Point>
	</Placemark>
	<Placemark id="0210AE182B2F4932E076">
		<name>55</name>
		<LookAt>
			<longitude>0.3521463898668764</longitude>
			<latitude>52.23538113621387</latitude>
			<altitude>31.10110951193973</altitude>
			<heading>18.85506242180161</heading>
			<tilt>4.56946996874446</tilt>
			<gx:fovy>35</gx:fovy>
			<range>606.4128225387685</range>
			<altitudeMode>absolute</altitudeMode>
		</LookAt>
		<styleUrl>#__managed_style_0931660C232F4A175B71</styleUrl>
		<Point>
			<coordinates>0.3614712696842437,52.23876462615353,30.57998208892188</coordinates>
		</Point>
	</Placemark>
	<Placemark id="05695E9D6C2F4932EEFB">
		<name>57</name>
		<LookAt>
			<longitude>0.3521463898668764</longitude>
			<latitude>52.23538113621387</latitude>
			<altitude>31.10110951193973</altitude>
			<heading>18.85506242180161</heading>
			<tilt>4.56946996874446</tilt>
			<gx:fovy>35</gx:fovy>
			<range>606.4128225387685</range>
			<altitudeMode>absolute</altitudeMode>
		</LookAt>
		<styleUrl>#__managed_style_0931660C232F4A175B71</styleUrl>
		<Point>
			<coordinates>0.3626639350727734,52.23854078364065,30.23136138227194</coordinates>
		</Point>
	</Placemark>
	<Placemark id="018FAC09CE2F4932FFD7">
		<name>59</name>
		<LookAt>
			<longitude>0.3521463898668764</longitude>
			<latitude>52.23538113621387</latitude>
			<altitude>31.10110951193973</altitude>
			<heading>18.85506242180161</heading>
			<tilt>4.56946996874446</tilt>
			<gx:fovy>35</gx:fovy>
			<range>606.4128225387685</range>
			<altitudeMode>absolute</altitudeMode>
		</LookAt>
		<styleUrl>#__managed_style_0931660C232F4A175B71</styleUrl>
		<Point>
			<coordinates>0.3638877541361829,52.2383144231594,30.23127392151584</coordinates>
		</Point>
	</Placemark>
	<Placemark id="09D7C35B172F4933192D">
		<name>61</name>
		<LookAt>
			<longitude>0.3521463898668764</longitude>
			<latitude>52.23538113621387</latitude>
			<altitude>31.10110951193973</altitude>
			<heading>18.85506242180161</heading>
			<tilt>4.56946996874446</tilt>
			<gx:fovy>35</gx:fovy>
			<range>606.4128225387685</range>
			<altitudeMode>absolute</altitudeMode>
		</LookAt>
		<styleUrl>#__managed_style_0931660C232F4A175B71</styleUrl>
		<Point>
			<coordinates>0.3649658482295415,52.23810921160306,30.60778718689481</coordinates>
		</Point>
	</Placemark>
	<Placemark id="0515B83F392F49332EE9">
		<name>63</name>
		<LookAt>
			<longitude>0.3521463898668764</longitude>
			<latitude>52.23538113621387</latitude>
			<altitude>31.10110951193973</altitude>
			<heading>18.85506242180161</heading>
			<tilt>4.56946996874446</tilt>
			<gx:fovy>35</gx:fovy>
			<range>606.4128225387685</range>
			<altitudeMode>absolute</altitudeMode>
		</LookAt>
		<styleUrl>#__managed_style_0931660C232F4A175B71</styleUrl>
		<Point>
			<coordinates>0.3659749567503656,52.23786781743819,30.984218550224</coordinates>
		</Point>
	</Placemark>
	<Placemark id="0403B31F982F49333FAB">
		<name>65</name>
		<LookAt>
			<longitude>0.3521463898668764</longitude>
			<latitude>52.23538113621387</latitude>
			<altitude>31.10110951193973</altitude>
			<heading>18.85506242180161</heading>
			<tilt>4.56946996874446</tilt>
			<gx:fovy>35</gx:fovy>
			<range>606.4128225387685</range>
			<altitudeMode>absolute</altitudeMode>
		</LookAt>
		<styleUrl>#__managed_style_0931660C232F4A175B71</styleUrl>
		<Point>
			<coordinates>0.3669692582385498,52.23770538396705,30.75525740109122</coordinates>
		</Point>
	</Placemark>
	<Placemark id="08B84482E72F493372E0">
		<name>67</name>
		<LookAt>
			<longitude>0.3537712243331903</longitude>
			<latitude>52.23348613693466</latitude>
			<altitude>30.40416258912906</altitude>
			<heading>18.85904845735104</heading>
			<tilt>4.570038215657374</tilt>
			<gx:fovy>35</gx:fovy>
			<range>1399.613732897124</range>
			<altitudeMode>absolute</altitudeMode>
		</LookAt>
		<styleUrl>#__managed_style_0931660C232F4A175B71</styleUrl>
		<Point>
			<coordinates>0.36811511475634,52.23749068179782,29.85690164463179</coordinates>
		</Point>
	</Placemark>
	<Placemark id="056A0470032F493388E1">
		<name>69</name>
		<LookAt>
			<longitude>0.3537712243331903</longitude>
			<latitude>52.23348613693466</latitude>
			<altitude>30.40416258912906</altitude>
			<heading>18.85904845735104</heading>
			<tilt>4.570038215657374</tilt>
			<gx:fovy>35</gx:fovy>
			<range>1399.613732897124</range>
			<altitudeMode>absolute</altitudeMode>
		</LookAt>
		<styleUrl>#__managed_style_0931660C232F4A175B71</styleUrl>
		<Point>
			<coordinates>0.3691374451926066,52.23727177315808,30.57835382558459</coordinates>
		</Point>
	</Placemark>
	<Placemark id="0033E2F98D2F495BC5B0">
		<name>28</name>
		<LookAt>
			<longitude>0.3436465030543401</longitude>
			<latitude>52.23908602800285</latitude>
			<altitude>25.30927994950178</altitude>
			<heading>42.49330277480194</heading>
			<tilt>0</tilt>
			<gx:fovy>35</gx:fovy>
			<range>516.0795660452277</range>
			<altitudeMode>absolute</altitudeMode>
		</LookAt>
		<styleUrl>#__managed_style_0931660C232F4A175B71</styleUrl>
		<Point>
			<coordinates>0.3439010606463255,52.24116638064655,26.06083954585792</coordinates>
		</Point>
	</Placemark>
	<Placemark id="007F02D0962F495C76C3">
		<name>71</name>
		<LookAt>
			<longitude>0.3436465030543401</longitude>
			<latitude>52.23908602789906</latitude>
			<altitude>25.30927994950178</altitude>
			<heading>42.49330277480194</heading>
			<tilt>0</tilt>
			<gx:fovy>35</gx:fovy>
			<range>516.0795660452278</range>
			<altitudeMode>absolute</altitudeMode>
		</LookAt>
		<styleUrl>#__managed_style_0931660C232F4A175B71</styleUrl>
		<Point>
			<coordinates>0.3700143663474775,52.23710718653102,26.41270362239729</coordinates>
		</Point>
	</Placemark>
	<Placemark id="0D4C965CA52F495CCB96">
		<name>72</name>
		<LookAt>
			<longitude>0.3436465030543401</longitude>
			<latitude>52.23908602779528</latitude>
			<altitude>25.30927994950178</altitude>
			<heading>42.49330277480194</heading>
			<tilt>0</tilt>
			<gx:fovy>35</gx:fovy>
			<range>516.0795660452277</range>
			<altitudeMode>absolute</altitudeMode>
		</LookAt>
		<styleUrl>#__managed_style_0931660C232F4A175B71</styleUrl>
		<Point>
			<coordinates>0.3698802383813238,52.23683648288882,26.90784191977051</coordinates>
		</Point>
	</Placemark>
	<Placemark id="034ED6EF762F495CE338">
		<name>30</name>
		<LookAt>
			<longitude>0.3436465030543401</longitude>
			<latitude>52.23908602779528</latitude>
			<altitude>25.30927994950178</altitude>
			<heading>42.49330277480194</heading>
			<tilt>0</tilt>
			<gx:fovy>35</gx:fovy>
			<range>516.0795660452277</range>
			<altitudeMode>absolute</altitudeMode>
		</LookAt>
		<styleUrl>#__managed_style_0931660C232F4A175B71</styleUrl>
		<Point>
			<coordinates>0.345618027483392,52.24159228266674,26.16419570947324</coordinates>
		</Point>
	</Placemark>
	<Placemark id="09A83FC6C22F495D065F">
		<name>32</name>
		<LookAt>
			<longitude>0.3436465030543401</longitude>
			<latitude>52.23908602779528</latitude>
			<altitude>25.30927994950178</altitude>
			<heading>42.49330277480194</heading>
			<tilt>0</tilt>
			<gx:fovy>35</gx:fovy>
			<range>516.0795660452277</range>
			<altitudeMode>absolute</altitudeMode>
		</LookAt>
		<styleUrl>#__managed_style_0931660C232F4A175B71</styleUrl>
		<Point>
			<coordinates>0.3467312006812118,52.24118751986352,27.18608387398935</coordinates>
		</Point>
	</Placemark>
	<Placemark id="05A46323F42F495E2739">
		<name>73</name>
		<LookAt>
			<longitude>0.3454808984440083</longitude>
			<latitude>52.23798060550954</latitude>
			<altitude>27.94144545100352</altitude>
			<heading>42.49475299874688</heading>
			<tilt>0</tilt>
			<gx:fovy>35</gx:fovy>
			<range>513.4473787963361</range>
			<altitudeMode>absolute</altitudeMode>
		</LookAt>
		<styleUrl>#__managed_style_0931660C232F4A175B71</styleUrl>
		<Point>
			<coordinates>0.3710927173833833,52.23690936932388,27.19527174708031</coordinates>
		</Point>
	</Placemark>
	<Placemark id="0F9CDC140A2F49600157">
		<name>34</name>
		<LookAt>
			<longitude>0.3464175719125562</longitude>
			<latitude>52.23895643207373</latitude>
			<altitude>28.94527760054984</altitude>
			<heading>42.49484813077614</heading>
			<tilt>0</tilt>
			<gx:fovy>35</gx:fovy>
			<range>396.4038396038086</range>
			<altitudeMode>absolute</altitudeMode>
		</LookAt>
		<styleUrl>#__managed_style_0931660C232F4A175B71</styleUrl>
		<Point>
			<coordinates>0.3479331613595393,52.24096930578551,28.04498815758481</coordinates>
		</Point>
	</Placemark>
	<Placemark id="02D1955F882F49601ADF">
		<name>36</name>
		<LookAt>
			<longitude>0.3464175719125562</longitude>
			<latitude>52.23895643207373</latitude>
			<altitude>28.94527760054984</altitude>
			<heading>42.49484813077614</heading>
			<tilt>0</tilt>
			<gx:fovy>35</gx:fovy>
			<range>396.4038396038086</range>
			<altitudeMode>absolute</altitudeMode>
		</LookAt>
		<styleUrl>#__managed_style_0931660C232F4A175B71</styleUrl>
		<Point>
			<coordinates>0.3492923926330138,52.24069740863626,28.56795467856549</coordinates>
		</Point>
	</Placemark>
	<Placemark id="0CB7AE4CA12F4960420F">
		<name>38</name>
		<LookAt>
			<longitude>0.348976199845481</longitude>
			<latitude>52.2375104928774</latitude>
			<altitude>29.81490433836561</altitude>
			<heading>42.49687087510345</heading>
			<tilt>0</tilt>
			<gx:fovy>35</gx:fovy>
			<range>395.5342624310289</range>
			<altitudeMode>absolute</altitudeMode>
		</LookAt>
		<styleUrl>#__managed_style_0931660C232F4A175B71</styleUrl>
		<Point>
			<coordinates>0.3506820700834679,52.24044934211799,28.46869376472693</coordinates>
		</Point>
	</Placemark>
	<Placemark id="018639FFB42F49605670">
		<name>40</name>
		<LookAt>
			<longitude>0.348976199845481</longitude>
			<latitude>52.2375104928774</latitude>
			<altitude>29.81490433836561</altitude>
			<heading>42.49687087510345</heading>
			<tilt>0</tilt>
			<gx:fovy>35</gx:fovy>
			<range>395.5342624310289</range>
			<altitudeMode>absolute</altitudeMode>
		</LookAt>
		<styleUrl>#__managed_style_0931660C232F4A175B71</styleUrl>
		<Point>
			<coordinates>0.351932698027333,52.24021452087935,30.231572703751</coordinates>
		</Point>
	</Placemark>
	<Placemark id="082A6C64332F49606FD3">
		<name>42</name>
		<LookAt>
			<longitude>0.348976199845481</longitude>
			<latitude>52.2375104928774</latitude>
			<altitude>29.81490433836561</altitude>
			<heading>42.49687087510345</heading>
			<tilt>0</tilt>
			<gx:fovy>35</gx:fovy>
			<range>395.5342624310289</range>
			<altitudeMode>absolute</altitudeMode>
		</LookAt>
		<styleUrl>#__managed_style_0931660C232F4A175B71</styleUrl>
		<Point>
			<coordinates>0.3532632337258113,52.23998244735463,31.27292086525542</coordinates>
		</Point>
	</Placemark>
	<Placemark id="01CF7EAE442F49608CA3">
		<name>44</name>
		<LookAt>
			<longitude>0.351310893245369</longitude>
			<latitude>52.23611084973968</latitude>
			<altitude>31.17480427633962</altitude>
			<heading>42.4987165505958</heading>
			<tilt>0</tilt>
			<gx:fovy>35</gx:fovy>
			<range>394.1743399661937</range>
			<altitudeMode>absolute</altitudeMode>
		</LookAt>
		<styleUrl>#__managed_style_0931660C232F4A175B71</styleUrl>
		<Point>
			<coordinates>0.3545250505834519,52.23974314630279,31.31913309733593</coordinates>
		</Point>
	</Placemark>
	<Placemark id="0380955BA52F4960ED68">
		<name>46</name>
		<LookAt>
			<longitude>0.352302771502897</longitude>
			<latitude>52.23531949647578</latitude>
			<altitude>30.78413406359744</altitude>
			<heading>42.49950065879266</heading>
			<tilt>0</tilt>
			<gx:fovy>35</gx:fovy>
			<range>394.5649288706045</range>
			<altitudeMode>absolute</altitudeMode>
		</LookAt>
		<styleUrl>#__managed_style_0931660C232F4A175B71</styleUrl>
		<Point>
			<coordinates>0.3557223685837374,52.23951336028689,31.953956995466</coordinates>
		</Point>
	</Placemark>
	<Placemark id="087401E3752F49610577">
		<name>48</name>
		<LookAt>
			<longitude>0.352302771502897</longitude>
			<latitude>52.23531949647578</latitude>
			<altitude>30.78413406359744</altitude>
			<heading>42.49950065879266</heading>
			<tilt>0</tilt>
			<gx:fovy>35</gx:fovy>
			<range>394.5649288706045</range>
			<altitudeMode>absolute</altitudeMode>
		</LookAt>
		<styleUrl>#__managed_style_0931660C232F4A175B71</styleUrl>
		<Point>
			<coordinates>0.3568715690503255,52.23930716857235,30.71378220648418</coordinates>
		</Point>
	</Placemark>
	<Placemark id="02E61227572F4961215C">
		<name>50</name>
		<LookAt>
			<longitude>0.352302771502897</longitude>
			<latitude>52.23531949647578</latitude>
			<altitude>30.78413406359744</altitude>
			<heading>42.49950065879266</heading>
			<tilt>0</tilt>
			<gx:fovy>35</gx:fovy>
			<range>394.5649288706045</range>
			<altitudeMode>absolute</altitudeMode>
		</LookAt>
		<styleUrl>#__managed_style_0931660C232F4A175B71</styleUrl>
		<Point>
			<coordinates>0.3579510592217972,52.23907121027778,30.23126535331884</coordinates>
		</Point>
	</Placemark>
	<Placemark id="049F8968512F49784E70">
		<name>52</name>
		<LookAt>
			<longitude>0.3544627899191477</longitude>
			<latitude>52.23417987647507</latitude>
			<altitude>30.57356548146178</altitude>
			<heading>42.50120820033062</heading>
			<tilt>0</tilt>
			<gx:fovy>35</gx:fovy>
			<range>394.7755205383874</range>
			<altitudeMode>absolute</altitudeMode>
		</LookAt>
		<styleUrl>#__managed_style_0931660C232F4A175B71</styleUrl>
		<Point>
			<coordinates>0.3590478094826666,52.23886840391959,30.27444630600235</coordinates>
		</Point>
	</Placemark>
	<Placemark id="018F6097822F4978674E">
		<name>54</name>
		<LookAt>
			<longitude>0.3544627899191477</longitude>
			<latitude>52.23417987647507</latitude>
			<altitude>30.57356548146178</altitude>
			<heading>42.50120820033062</heading>
			<tilt>0</tilt>
			<gx:fovy>35</gx:fovy>
			<range>394.7755205383874</range>
			<altitudeMode>absolute</altitudeMode>
		</LookAt>
		<styleUrl>#__managed_style_0931660C232F4A175B71</styleUrl>
		<Point>
			<coordinates>0.3602567002296131,52.23864607347942,31.1393817774609</coordinates>
		</Point>
	</Placemark>
	<Placemark id="0AF91D524D2F4978913F">
		<name>56</name>
		<LookAt>
			<longitude>0.3567506779483964</longitude>
			<latitude>52.23297485595006</latitude>
			<altitude>29.87131856145065</altitude>
			<heading>42.50301678318077</heading>
			<tilt>0</tilt>
			<gx:fovy>35</gx:fovy>
			<range>395.4777554437896</range>
			<altitudeMode>absolute</altitudeMode>
		</LookAt>
		<styleUrl>#__managed_style_0931660C232F4A175B71</styleUrl>
		<Point>
			<coordinates>0.3612998110487542,52.23844720689858,30.97619124295828</coordinates>
		</Point>
	</Placemark>
	<Placemark id="0DE40A3E452F4978A8DD">
		<name>58</name>
		<LookAt>
			<longitude>0.3567506779483964</longitude>
			<latitude>52.23297485595006</latitude>
			<altitude>29.87131856145065</altitude>
			<heading>42.50301678318077</heading>
			<tilt>0</tilt>
			<gx:fovy>35</gx:fovy>
			<range>395.4777554437896</range>
			<altitudeMode>absolute</altitudeMode>
		</LookAt>
		<styleUrl>#__managed_style_0931660C232F4A175B71</styleUrl>
		<Point>
			<coordinates>0.3624797998835372,52.23822831695818,30.07967137636875</coordinates>
		</Point>
	</Placemark>
	<Placemark id="05B529E6B12F4978C261">
		<name>60</name>
		<LookAt>
			<longitude>0.3567506779483964</longitude>
			<latitude>52.23297485595006</latitude>
			<altitude>29.87131856145065</altitude>
			<heading>42.50301678318077</heading>
			<tilt>0</tilt>
			<gx:fovy>35</gx:fovy>
			<range>395.4777554437896</range>
			<altitudeMode>absolute</altitudeMode>
		</LookAt>
		<styleUrl>#__managed_style_0931660C232F4A175B71</styleUrl>
		<Point>
			<coordinates>0.3637066773814124,52.23801021292678,30.2192477616465</coordinates>
		</Point>
	</Placemark>
	<Placemark id="050A6FCBCC2F49793302">
		<name>62</name>
		<LookAt>
			<longitude>0.3588827226062974</longitude>
			<latitude>52.23177815063362</latitude>
			<altitude>33.52607400889151</altitude>
			<heading>42.50470215197306</heading>
			<tilt>0</tilt>
			<gx:fovy>35</gx:fovy>
			<range>391.8229725111451</range>
			<altitudeMode>absolute</altitudeMode>
		</LookAt>
		<styleUrl>#__managed_style_0931660C232F4A175B71</styleUrl>
		<Point>
			<coordinates>0.3647866454838988,52.23780399960542,31.89866885892654</coordinates>
		</Point>
	</Placemark>
	<Placemark id="0D89208A2F2F49795A0E">
		<name>64</name>
		<LookAt>
			<longitude>0.3598942457085363</longitude>
			<latitude>52.23124766384399</latitude>
			<altitude>37.05520916519141</altitude>
			<heading>42.50550174973458</heading>
			<tilt>0</tilt>
			<gx:fovy>35</gx:fovy>
			<range>388.2938585222291</range>
			<altitudeMode>absolute</altitudeMode>
		</LookAt>
		<styleUrl>#__managed_style_0931660C232F4A175B71</styleUrl>
		<Point>
			<coordinates>0.3658240674722935,52.23760388330391,35.08053204385678</coordinates>
		</Point>
	</Placemark>
	<Placemark id="07AD61785E2F49796F9D">
		<name>66</name>
		<LookAt>
			<longitude>0.3598942457085363</longitude>
			<latitude>52.23124766384399</latitude>
			<altitude>37.05520916519141</altitude>
			<heading>42.50550174973458</heading>
			<tilt>0</tilt>
			<gx:fovy>35</gx:fovy>
			<range>388.2938585222291</range>
			<altitudeMode>absolute</altitudeMode>
		</LookAt>
		<styleUrl>#__managed_style_0931660C232F4A175B71</styleUrl>
		<Point>
			<coordinates>0.3668103396775391,52.23742458606682,37.21779064682533</coordinates>
		</Point>
	</Placemark>
	<Placemark id="0F0E3AF4162F4979B49F">
		<name>68</name>
		<LookAt>
			<longitude>0.3598942457085363</longitude>
			<latitude>52.23124766384399</latitude>
			<altitude>37.05520916519141</altitude>
			<heading>42.50550174973458</heading>
			<tilt>0</tilt>
			<gx:fovy>35</gx:fovy>
			<range>388.2938585222291</range>
			<altitudeMode>absolute</altitudeMode>
		</LookAt>
		<styleUrl>#__managed_style_0931660C232F4A175B71</styleUrl>
		<Point>
			<coordinates>0.3679533529445744,52.23718673937498,38.43766497800134</coordinates>
		</Point>
	</Placemark>
	<Placemark id="03B76264472F4979EDF9">
		<name>70</name>
		<LookAt>
			<longitude>0.3612123605587447</longitude>
			<latitude>52.23056179401537</latitude>
			<altitude>38.84605271764788</altitude>
			<heading>42.50654370058839</heading>
			<tilt>0</tilt>
			<gx:fovy>35</gx:fovy>
			<range>386.5029949524978</range>
			<altitudeMode>absolute</altitudeMode>
		</LookAt>
		<styleUrl>#__managed_style_0931660C232F4A175B71</styleUrl>
		<Point>
			<coordinates>0.3689955336390183,52.23701089829871,38.88945621863249</coordinates>
		</Point>
	</Placemark>
	<Placemark id="01246EA5DF2F4986591A">
		<name>74</name>
		<LookAt>
			<longitude>0.3461095528606717</longitude>
			<latitude>52.23875726279081</latitude>
			<altitude>28.27532069794676</altitude>
			<heading>42.49449894128679</heading>
			<tilt>0</tilt>
			<gx:fovy>35</gx:fovy>
			<range>237.3198667661563</range>
			<altitudeMode>absolute</altitudeMode>
		</LookAt>
		<styleUrl>#__managed_style_0931660C232F4A175B71</styleUrl>
		<Point>
			<coordinates>0.3709410683983538,52.23663698608551,28.50567613246999</coordinates>
		</Point>
	</Placemark>
	<Placemark id="0E87F2DDBA2F49867AC1">
		<name>75</name>
		<LookAt>
			<longitude>0.3471152567234403</longitude>
			<latitude>52.23818681349952</latitude>
			<altitude>28.45852182460889</altitude>
			<heading>42.49529401720535</heading>
			<tilt>0</tilt>
			<gx:fovy>35</gx:fovy>
			<range>237.1366710208167</range>
			<altitudeMode>absolute</altitudeMode>
		</LookAt>
		<styleUrl>#__managed_style_0931660C232F4A175B71</styleUrl>
		<Point>
			<coordinates>0.3720532950397804,52.23671672961607,28.66671628036938</coordinates>
		</Point>
	</Placemark>
	<Placemark id="0A08C0013C2F49869554">
		<name>76</name>
		<LookAt>
			<longitude>0.3478282585005399</longitude>
			<latitude>52.23778885641668</latitude>
			<altitude>28.25661775171632</altitude>
			<heading>42.49585768916221</heading>
			<tilt>0</tilt>
			<gx:fovy>35</gx:fovy>
			<range>237.338594266439</range>
			<altitudeMode>absolute</altitudeMode>
		</LookAt>
		<styleUrl>#__managed_style_0931660C232F4A175B71</styleUrl>
		<Point>
			<coordinates>0.3719121080368115,52.23646083735322,28.2819541624747</coordinates>
		</Point>
	</Placemark>
	<Placemark id="06085304A32F4986B2DF">
		<name>77</name>
		<LookAt>
			<longitude>0.348905666404673</longitude>
			<latitude>52.23732904174849</latitude>
			<altitude>30.05174278423401</altitude>
			<heading>42.4967094419452</heading>
			<tilt>0</tilt>
			<gx:fovy>35</gx:fovy>
			<range>235.543489196025</range>
			<altitudeMode>absolute</altitudeMode>
		</LookAt>
		<styleUrl>#__managed_style_0931660C232F4A175B71</styleUrl>
		<Point>
			<coordinates>0.3731302566363226,52.23652608985745,30.09328353641256</coordinates>
		</Point>
	</Placemark>
	<Placemark id="043903F5C12F4986D412">
		<name>78</name>
		<LookAt>
			<longitude>0.3499516485447751</longitude>
			<latitude>52.23680779261912</latitude>
			<altitude>31.40930746024206</altitude>
			<heading>42.49753634206489</heading>
			<tilt>0</tilt>
			<gx:fovy>35</gx:fovy>
			<range>234.1859076687251</range>
			<altitudeMode>absolute</altitudeMode>
		</LookAt>
		<styleUrl>#__managed_style_0931660C232F4A175B71</styleUrl>
		<Point>
			<coordinates>0.3729985473064401,52.23624059152613,31.27330526856272</coordinates>
		</Point>
	</Placemark>
	<Placemark id="06E451E4882F4986F3F9">
		<name>79</name>
		<LookAt>
			<longitude>0.3507781273763677</longitude>
			<latitude>52.23629706818232</latitude>
			<altitude>31.00759577669999</altitude>
			<heading>42.49818971089829</heading>
			<tilt>0</tilt>
			<gx:fovy>35</gx:fovy>
			<range>234.5876218208286</range>
			<altitudeMode>absolute</altitudeMode>
		</LookAt>
		<styleUrl>#__managed_style_0931660C232F4A175B71</styleUrl>
		<Point>
			<coordinates>0.3740891575091876,52.23631994870379,31.13459259436532</coordinates>
		</Point>
	</Placemark>
	<Placemark id="0F6BA52BC62F49871CED">
		<name>80</name>
		<LookAt>
			<longitude>0.3519202595146331</longitude>
			<latitude>52.2357442139904</latitude>
			<altitude>31.44045388861667</altitude>
			<heading>42.49909261059832</heading>
			<tilt>0</tilt>
			<gx:fovy>35</gx:fovy>
			<range>234.1547569751856</range>
			<altitudeMode>absolute</altitudeMode>
		</LookAt>
		<styleUrl>#__managed_style_0931660C232F4A175B71</styleUrl>
		<Point>
			<coordinates>0.3739466461144225,52.23606689331196,31.75589654607863</coordinates>
		</Point>
	</Placemark>
	<Placemark id="0FFC0C01B02F49873B41">
		<name>81</name>
		<LookAt>
			<longitude>0.3531932153559492</longitude>
			<latitude>52.23497865558302</latitude>
			<altitude>30.00165202251414</altitude>
			<heading>42.50009892227376</heading>
			<tilt>0</tilt>
			<gx:fovy>35</gx:fovy>
			<range>235.593552810642</range>
			<altitudeMode>absolute</altitudeMode>
		</LookAt>
		<styleUrl>#__managed_style_0931660C232F4A175B71</styleUrl>
		<Point>
			<coordinates>0.3468148370077562,52.24132374960168,30.61304533219665</coordinates>
		</Point>
	</Placemark>
	<Placemark id="03C4CE2A6D2F498750BE">
		<name>82</name>
		<LookAt>
			<longitude>0.3531932153559492</longitude>
			<latitude>52.23497865558302</latitude>
			<altitude>30.00165202251414</altitude>
			<heading>42.50009892227376</heading>
			<tilt>0</tilt>
			<gx:fovy>35</gx:fovy>
			<range>235.593552810642</range>
			<altitudeMode>absolute</altitudeMode>
		</LookAt>
		<styleUrl>#__managed_style_0931660C232F4A175B71</styleUrl>
		<Point>
			<coordinates>0.348045307485505,52.24113469876463,30.03528914547002</coordinates>
		</Point>
	</Placemark>
	<Placemark id="077802D8602F498767FB">
		<name>83</name>
		<LookAt>
			<longitude>0.3543405508326747</longitude>
			<latitude>52.23446450894409</latitude>
			<altitude>30.13072427784704</altitude>
			<heading>42.50100591982818</heading>
			<tilt>0</tilt>
			<gx:fovy>35</gx:fovy>
			<range>235.4644767598074</range>
			<altitudeMode>absolute</altitudeMode>
		</LookAt>
		<styleUrl>#__managed_style_0931660C232F4A175B71</styleUrl>
		<Point>
			<coordinates>0.3493887162840892,52.24085803692698,30.28241125095617</coordinates>
		</Point>
	</Placemark>
	<Placemark id="04FC569A352F49877E94">
		<name>84</name>
		<LookAt>
			<longitude>0.3559009224866805</longitude>
			<latitude>52.23365852384755</latitude>
			<altitude>30.7530164077566</altitude>
			<heading>42.5022394197199</heading>
			<tilt>0</tilt>
			<gx:fovy>35</gx:fovy>
			<range>234.8422045721964</range>
			<altitudeMode>absolute</altitudeMode>
		</LookAt>
		<styleUrl>#__managed_style_0931660C232F4A175B71</styleUrl>
		<Point>
			<coordinates>0.3507503010392732,52.24059100066156,30.97634099946343</coordinates>
		</Point>
	</Placemark>
	<Placemark id="0C1CCBBA922F4987CD58">
		<name>85</name>
		<LookAt>
			<longitude>0.3559009225289467</longitude>
			<latitude>52.23365852374376</latitude>
			<altitude>30.7530164077566</altitude>
			<heading>42.5022394197199</heading>
			<tilt>0</tilt>
			<gx:fovy>35</gx:fovy>
			<range>234.8422045721964</range>
			<altitudeMode>absolute</altitudeMode>
		</LookAt>
		<styleUrl>#__managed_style_0931660C232F4A175B71</styleUrl>
		<Point>
			<coordinates>0.3520136427951215,52.24035857563739,30.45851664721912</coordinates>
		</Point>
	</Placemark>
	<Placemark id="0302BFCE5C2F4987EEAE">
		<name>86</name>
		<LookAt>
			<longitude>0.3576055089453445</longitude>
			<latitude>52.23279235277016</latitude>
			<altitude>29.50774422139711</altitude>
			<heading>42.50358690784061</heading>
			<tilt>0</tilt>
			<gx:fovy>35</gx:fovy>
			<range>236.0874674529987</range>
			<altitudeMode>absolute</altitudeMode>
		</LookAt>
		<styleUrl>#__managed_style_0931660C232F4A175B71</styleUrl>
		<Point>
			<coordinates>0.3533383764429399,52.24012935533657,29.42806301618876</coordinates>
		</Point>
	</Placemark>
	<Placemark id="078FD9F96D2F498803B4">
		<name>87</name>
		<LookAt>
			<longitude>0.3576055089453445</longitude>
			<latitude>52.23279235277016</latitude>
			<altitude>29.50774422139711</altitude>
			<heading>42.50358690784061</heading>
			<tilt>0</tilt>
			<gx:fovy>35</gx:fovy>
			<range>236.0874674529987</range>
			<altitudeMode>absolute</altitudeMode>
		</LookAt>
		<styleUrl>#__managed_style_0931660C232F4A175B71</styleUrl>
		<Point>
			<coordinates>0.3546139450581931,52.23989359782639,29.55785268080005</coordinates>
		</Point>
	</Placemark>
	<Placemark id="0EFE6C68A02F49881D9D">
		<name>88</name>
		<LookAt>
			<longitude>0.3588366150733457</longitude>
			<latitude>52.23215701616637</latitude>
			<altitude>30.9483379957476</altitude>
			<heading>42.50456009814994</heading>
			<tilt>0</tilt>
			<gx:fovy>35</gx:fovy>
			<range>234.6468637647922</range>
			<altitudeMode>absolute</altitudeMode>
		</LookAt>
		<styleUrl>#__managed_style_0931660C232F4A175B71</styleUrl>
		<Point>
			<coordinates>0.3557881629000326,52.23965325493321,31.23614909388119</coordinates>
		</Point>
	</Placemark>
	<Placemark id="0B7D850DDA2F498831DD">
		<name>89</name>
		<LookAt>
			<longitude>0.3599704712157825</longitude>
			<latitude>52.23158417745539</latitude>
			<altitude>36.20017417760189</altitude>
			<heading>42.50545640191193</heading>
			<tilt>0</tilt>
			<gx:fovy>35</gx:fovy>
			<range>229.3950515258621</range>
			<altitudeMode>absolute</altitudeMode>
		</LookAt>
		<styleUrl>#__managed_style_0931660C232F4A175B71</styleUrl>
		<Point>
			<coordinates>0.3569417838919264,52.23944109827168,35.15784875006723</coordinates>
		</Point>
	</Placemark>
	<Placemark id="04FB97B0CF2F498867C3">
		<name>90</name>
		<LookAt>
			<longitude>0.359989772746856</longitude>
			<latitude>52.23158205203353</latitude>
			<altitude>36.21646673554852</altitude>
			<heading>42.50547165966508</heading>
			<tilt>0</tilt>
			<gx:fovy>35</gx:fovy>
			<range>229.3787576735122</range>
			<altitudeMode>absolute</altitudeMode>
		</LookAt>
		<styleUrl>#__managed_style_0931660C232F4A175B71</styleUrl>
		<Point>
			<coordinates>0.3580495185328414,52.23924150884439,37.05441088687832</coordinates>
		</Point>
	</Placemark>
	<Placemark id="064EC990362F49887E7B">
		<name>91</name>
		<LookAt>
			<longitude>0.3612594194383378</longitude>
			<latitude>52.23087332461809</latitude>
			<altitude>38.30726838612301</altitude>
			<heading>42.50647529753473</heading>
			<tilt>0</tilt>
			<gx:fovy>35</gx:fovy>
			<range>227.2879527904661</range>
			<altitudeMode>absolute</altitudeMode>
		</LookAt>
		<styleUrl>#__managed_style_0931660C232F4A175B71</styleUrl>
		<Point>
			<coordinates>0.3591271820323594,52.23901068669775,38.29077798752104</coordinates>
		</Point>
	</Placemark>
	<Placemark id="0842ABF2E62F49889CC1">
		<name>92</name>
		<LookAt>
			<longitude>0.3612594194383378</longitude>
			<latitude>52.23087332461809</latitude>
			<altitude>38.30726838612301</altitude>
			<heading>42.50647529753473</heading>
			<tilt>0</tilt>
			<gx:fovy>35</gx:fovy>
			<range>227.2879527904661</range>
			<altitudeMode>absolute</altitudeMode>
		</LookAt>
		<styleUrl>#__managed_style_0931660C232F4A175B71</styleUrl>
		<Point>
			<coordinates>0.3603272624859311,52.23878515552138,38.88157611299136</coordinates>
		</Point>
	</Placemark>
	<Placemark id="0764B7B6F02F4992E31F">
		<name>108</name>
		<LookAt>
			<longitude>0.3695320614136066</longitude>
			<latitude>52.23510859208614</latitude>
			<altitude>29.2162088111103</altitude>
			<heading>17.57270305990851</heading>
			<tilt>0</tilt>
			<gx:fovy>30</gx:fovy>
			<range>2629.75119048846</range>
			<altitudeMode>absolute</altitudeMode>
		</LookAt>
		<styleUrl>#__managed_style_0931660C232F4A175B71</styleUrl>
		<Point>
			<coordinates>0.3752870765225924,52.2360154882488,36.09993784308197</coordinates>
		</Point>
	</Placemark>
	<Placemark id="0F21D554652F49B81E91">
		<name>93</name>
		<LookAt>
			<longitude>0.3604933190987114</longitude>
			<latitude>52.23873384764297</latitude>
			<altitude>26.88523790662289</altitude>
			<heading>20.61301457964628</heading>
			<tilt>10.76242780458836</tilt>
			<gx:fovy>30</gx:fovy>
			<range>306.5403930492903</range>
			<altitudeMode>absolute</altitudeMode>
		</LookAt>
		<styleUrl>#__managed_style_0931660C232F4A175B71</styleUrl>
		<Point>
			<coordinates>0.3613810271685036,52.23861217442789,27.03447620775129</coordinates>
		</Point>
	</Placemark>
	<Placemark id="0DA4CF749B2F49B854AB">
		<name>94</name>
		<LookAt>
			<longitude>0.3625928587444305</longitude>
			<latitude>52.23843089534654</latitude>
			<altitude>27.36961686105724</altitude>
			<heading>20.61467439783307</heading>
			<tilt>10.7624269766045</tilt>
			<gx:fovy>30</gx:fovy>
			<range>306.0473591557093</range>
			<altitudeMode>absolute</altitudeMode>
		</LookAt>
		<styleUrl>#__managed_style_0931660C232F4A175B71</styleUrl>
		<Point>
			<coordinates>0.3625770457385658,52.23840758988413,27.40021592559794</coordinates>
		</Point>
	</Placemark>
	<Placemark id="0973E4D5792F49B86C5E">
		<name>95</name>
		<LookAt>
			<longitude>0.36325715551764</longitude>
			<latitude>52.23830349546635</latitude>
			<altitude>27.36961809745994</altitude>
			<heading>20.61519956401818</heading>
			<tilt>10.76242697666462</tilt>
			<gx:fovy>30</gx:fovy>
			<range>306.0473359781099</range>
			<altitudeMode>absolute</altitudeMode>
		</LookAt>
		<styleUrl>#__managed_style_0931660C232F4A175B71</styleUrl>
		<Point>
			<coordinates>0.3638213553936387,52.23819000427509,27.57115508711268</coordinates>
		</Point>
	</Placemark>
	<Placemark id="0BDEA396AD2F49B886CB">
		<name>96</name>
		<LookAt>
			<longitude>0.3650432682321303</longitude>
			<latitude>52.238123563992</latitude>
			<altitude>27.27144663802698</altitude>
			<heading>20.61661159128989</heading>
			<tilt>10.76242714450859</tilt>
			<gx:fovy>30</gx:fovy>
			<range>306.1472777865492</range>
			<altitudeMode>absolute</altitudeMode>
		</LookAt>
		<styleUrl>#__managed_style_0931660C232F4A175B71</styleUrl>
		<Point>
			<coordinates>0.3648842964324661,52.23797083878717,27.54880020226141</coordinates>
		</Point>
	</Placemark>
	<Placemark id="0290E864782F49B8A062">
		<name>97</name>
		<LookAt>
			<longitude>0.3663790559999081</longitude>
			<latitude>52.23762612585357</latitude>
			<altitude>28.12161493380583</altitude>
			<heading>20.6176676069852</heading>
			<tilt>10.76242569114915</tilt>
			<gx:fovy>30</gx:fovy>
			<range>305.2818957592535</range>
			<altitudeMode>absolute</altitudeMode>
		</LookAt>
		<styleUrl>#__managed_style_0931660C232F4A175B71</styleUrl>
		<Point>
			<coordinates>0.365910401422862,52.2377498544849,28.29728537050584</coordinates>
		</Point>
	</Placemark>
	<Placemark id="090BE9F92D2F49B8C55B">
		<name>98</name>
		<LookAt>
			<longitude>0.3663790559999081</longitude>
			<latitude>52.23762612590545</latitude>
			<altitude>28.12161493522048</altitude>
			<heading>20.61766760688906</heading>
			<tilt>10.76242569119762</tilt>
			<gx:fovy>30</gx:fovy>
			<range>305.2819189368529</range>
			<altitudeMode>absolute</altitudeMode>
		</LookAt>
		<styleUrl>#__managed_style_0931660C232F4A175B71</styleUrl>
		<Point>
			<coordinates>0.3668997474229663,52.23758152403039,28.15308188267903</coordinates>
		</Point>
	</Placemark>
	<Placemark id="022F75622D2F49B8E19D">
		<name>99</name>
		<LookAt>
			<longitude>0.3679683255963928</longitude>
			<latitude>52.23721518182901</latitude>
			<altitude>28.94523849542417</altitude>
			<heading>20.61892400652786</heading>
			<tilt>10.76242428326336</tilt>
			<gx:fovy>30</gx:fovy>
			<range>304.4435388128114</range>
			<altitudeMode>absolute</altitudeMode>
		</LookAt>
		<styleUrl>#__managed_style_0931660C232F4A175B71</styleUrl>
		<Point>
			<coordinates>0.3680443414297208,52.23735323991439,29.21368035543943</coordinates>
		</Point>
	</Placemark>
	<Placemark id="0F732B00D12F49B8FC4E">
		<name>100</name>
		<LookAt>
			<longitude>0.3691991322782862</longitude>
			<latitude>52.23705530740337</latitude>
			<altitude>29.06160385259323</altitude>
			<heading>20.61989701901255</heading>
			<tilt>10.76242408432252</tilt>
			<gx:fovy>30</gx:fovy>
			<range>304.3250781024836</range>
			<altitudeMode>absolute</altitudeMode>
		</LookAt>
		<styleUrl>#__managed_style_0931660C232F4A175B71</styleUrl>
		<Point>
			<coordinates>0.3690803097719919,52.23715028380297,29.09415978115889</coordinates>
		</Point>
	</Placemark>
	<Placemark id="0BA0BBF1752F49B9154C">
		<name>101</name>
		<LookAt>
			<longitude>0.3691991322782862</longitude>
			<latitude>52.23705530740337</latitude>
			<altitude>29.06160385259323</altitude>
			<heading>20.61989701901255</heading>
			<tilt>10.76242408432252</tilt>
			<gx:fovy>30</gx:fovy>
			<range>304.3250781024836</range>
			<altitudeMode>absolute</altitudeMode>
		</LookAt>
		<styleUrl>#__managed_style_0931660C232F4A175B71</styleUrl>
		<Point>
			<coordinates>0.3699478934831646,52.23697713620214,28.66631176658316</coordinates>
		</Point>
	</Placemark>
	<Placemark id="092941EA462F49B93842">
		<name>102</name>
		<LookAt>
			<longitude>0.3708672369061139</longitude>
			<latitude>52.23657780374949</latitude>
			<altitude>29.02510292768859</altitude>
			<heading>20.6212157318133</heading>
			<tilt>10.7624241467151</tilt>
			<gx:fovy>30</gx:fovy>
			<range>304.3622317942572</range>
			<altitudeMode>absolute</altitudeMode>
		</LookAt>
		<styleUrl>#__managed_style_0931660C232F4A175B71</styleUrl>
		<Point>
			<coordinates>0.3710270559750728,52.23678499107498,28.85391591124329</coordinates>
		</Point>
	</Placemark>
	<Placemark id="0203B5D6822F49B95883">
		<name>103</name>
		<LookAt>
			<longitude>0.3724954488538224</longitude>
			<latitude>52.23614787849691</latitude>
			<altitude>30.37774192387704</altitude>
			<heading>20.62250290045953</heading>
			<tilt>10.76242183441816</tilt>
			<gx:fovy>30</gx:fovy>
			<range>302.9853665042901</range>
			<altitudeMode>absolute</altitudeMode>
		</LookAt>
		<styleUrl>#__managed_style_0931660C232F4A175B71</styleUrl>
		<Point>
			<coordinates>0.3719928832188346,52.23660138758054,29.80892292507714</coordinates>
		</Point>
	</Placemark>
	<Placemark id="05E09696BE2F49B96C78">
		<name>104</name>
		<LookAt>
			<longitude>0.3724954488538224</longitude>
			<latitude>52.23614787849691</latitude>
			<altitude>30.37774192387704</altitude>
			<heading>20.62250290045953</heading>
			<tilt>10.76242183441816</tilt>
			<gx:fovy>30</gx:fovy>
			<range>302.9853665042901</range>
			<altitudeMode>absolute</altitudeMode>
		</LookAt>
		<styleUrl>#__managed_style_0931660C232F4A175B71</styleUrl>
		<Point>
			<coordinates>0.3730743371363321,52.23638981266129,32.33602632589734</coordinates>
		</Point>
	</Placemark>
	<Placemark id="0C923AE0AA2F49B98588">
		<name>105</name>
		<LookAt>
			<longitude>0.3739316686190786</longitude>
			<latitude>52.23590097207394</latitude>
			<altitude>33.31067142746966</altitude>
			<heading>20.62363828314719</heading>
			<tilt>10.76241682076291</tilt>
			<gx:fovy>30</gx:fovy>
			<range>299.9999294635563</range>
			<altitudeMode>absolute</altitudeMode>
		</LookAt>
		<styleUrl>#__managed_style_0931660C232F4A175B71</styleUrl>
		<Point>
			<coordinates>0.3740310025024973,52.23621489419904,33.84065833282041</coordinates>
		</Point>
	</Placemark>
	<Placemark id="02B22DABCA2F49B9A112">
		<name>106</name>
		<LookAt>
			<longitude>0.3750968704899682</longitude>
			<latitude>52.23571821495297</latitude>
			<altitude>37.1030995686459</altitude>
			<heading>20.62455941324329</heading>
			<tilt>10.76241033785031</tilt>
			<gx:fovy>30</gx:fovy>
			<range>296.1396075797893</range>
			<altitudeMode>absolute</altitudeMode>
		</LookAt>
		<styleUrl>#__managed_style_0931660C232F4A175B71</styleUrl>
		<Point>
			<coordinates>0.3751597817967123,52.23579046093701,36.90565175809797</coordinates>
		</Point>
	</Placemark>
	<Placemark id="07DC37C8842F49B9EB17">
		<name>107</name>
		<LookAt>
			<longitude>0.3750968704899682</longitude>
			<latitude>52.23571821492703</latitude>
			<altitude>37.1030995686459</altitude>
			<heading>20.62455941329139</heading>
			<tilt>10.76241033782596</tilt>
			<gx:fovy>30</gx:fovy>
			<range>296.1396075797893</range>
			<altitudeMode>absolute</altitudeMode>
		</LookAt>
		<styleUrl>#__managed_style_0931660C232F4A175B71</styleUrl>
		<Point>
			<coordinates>0.375239313120439,52.23592090106146,36.89268024002006</coordinates>
		</Point>
	</Placemark>
</Document>
</kml>
