<?xml version="1.0" encoding="UTF-8"?>
<kml xmlns="http://www.opengis.net/kml/2.2" xmlns:gx="http://www.google.com/kml/ext/2.2" xmlns:kml="http://www.opengis.net/kml/2.2" xmlns:atom="http://www.w3.org/2005/Atom">
<Document id="1qWR-2gkeeJXgOdOkLgF2_dAMyLsp-iMF">
	<name>Haydock - Flat</name>
	<gx:CascadingStyle kml:id="__managed_style_0A85AD3A422F6742C110">
		<Style>
			<IconStyle>
				<scale>1.2</scale>
				<Icon>
					<href>https://earth.google.com/earth/rpc/cc/icon?color=1976d2&amp;id=2000&amp;scale=4</href>
				</Icon>
				<hotSpot x="64" y="128" xunits="pixels" yunits="insetPixels"/>
			</IconStyle>
			<LabelStyle>
			</LabelStyle>
			<LineStyle>
				<color>ff2dc0fb</color>
				<width>4.8</width>
			</LineStyle>
			<PolyStyle>
				<color>40ffffff</color>
			</PolyStyle>
			<BalloonStyle>
			</BalloonStyle>
		</Style>
	</gx:CascadingStyle>
	<gx:CascadingStyle kml:id="__managed_style_14072B1A8C2F6742C10F">
		<Style>
			<IconStyle>
				<Icon>
					<href>https://earth.google.com/earth/rpc/cc/icon?color=1976d2&amp;id=2000&amp;scale=4</href>
				</Icon>
				<hotSpot x="64" y="128" xunits="pixels" yunits="insetPixels"/>
			</IconStyle>
			<LabelStyle>
			</LabelStyle>
			<LineStyle>
				<color>ff2dc0fb</color>
				<width>3.2</width>
			</LineStyle>
			<PolyStyle>
				<color>40ffffff</color>
			</PolyStyle>
			<BalloonStyle>
			</BalloonStyle>
		</Style>
	</gx:CascadingStyle>
	<StyleMap id="__managed_style_08D33A2A222F6742C10F">
		<Pair>
			<key>normal</key>
			<styleUrl>#__managed_style_14072B1A8C2F6742C10F</styleUrl>
		</Pair>
		<Pair>
			<key>highlight</key>
			<styleUrl>#__managed_style_0A85AD3A422F6742C110</styleUrl>
		</Pair>
	</StyleMap>
	<Placemark id="03DEB54C1C2F6381D949">
		<name>1</name>
		<LookAt>
			<longitude>-2.627065095961955</longitude>
			<latitude>53.47883695456505</latitude>
			<altitude>43.79499291900553</altitude>
			<heading>19.50941059052076</heading>
			<tilt>0</tilt>
			<gx:fovy>35</gx:fovy>
			<range>677.4033061970113</range>
			<altitudeMode>absolute</altitudeMode>
		</LookAt>
		<styleUrl>#__managed_style_08D33A2A222F6742C10F</styleUrl>
		<Point>
			<coordinates>-2.628016237807229,53.48018258615242,47.20808857688864</coordinates>
		</Point>
	</Placemark>
	<Placemark id="08BE236C3A2F638209A3">
		<name>2</name>
		<LookAt>
			<longitude>-2.627065095961955</longitude>
			<latitude>53.47883695456505</latitude>
			<altitude>43.79499291900553</altitude>
			<heading>19.50941059052076</heading>
			<tilt>0</tilt>
			<gx:fovy>35</gx:fovy>
			<range>677.4033061970113</range>
			<altitudeMode>absolute</altitudeMode>
		</LookAt>
		<styleUrl>#__managed_style_08D33A2A222F6742C10F</styleUrl>
		<Point>
			<coordinates>-2.628882361601415,53.48020537860135,47.23554180237829</coordinates>
		</Point>
	</Placemark>
	<Placemark id="0882F60FE22F63822A73">
		<name>3</name>
		<LookAt>
			<longitude>-2.627065095961955</longitude>
			<latitude>53.47883695456505</latitude>
			<altitude>43.79499291900553</altitude>
			<heading>19.50941059052076</heading>
			<tilt>0</tilt>
			<gx:fovy>35</gx:fovy>
			<range>677.4033061970113</range>
			<altitudeMode>absolute</altitudeMode>
		</LookAt>
		<styleUrl>#__managed_style_08D33A2A222F6742C10F</styleUrl>
		<Point>
			<coordinates>-2.629606106740334,53.47999052367546,46.90094907816219</coordinates>
		</Point>
	</Placemark>
	<Placemark id="0C72C466412F63915E76">
		<name>4</name>
		<LookAt>
			<longitude>-2.628435922945831</longitude>
			<latitude>53.48021730437575</latitude>
			<altitude>47.18274883442304</altitude>
			<heading>0</heading>
			<tilt>0</tilt>
			<gx:fovy>30</gx:fovy>
			<range>1000.000027557981</range>
			<altitudeMode>absolute</altitudeMode>
		</LookAt>
		<styleUrl>#__managed_style_08D33A2A222F6742C10F</styleUrl>
		<Point>
			<coordinates>-2.630225742751156,53.47960460081006,45.09555120076118</coordinates>
		</Point>
	</Placemark>
	<Placemark id="0DB2855E1B2F63917A20">
		<name>5</name>
		<LookAt>
			<longitude>-2.628435922945831</longitude>
			<latitude>53.48021730437575</latitude>
			<altitude>47.18274883442304</altitude>
			<heading>0</heading>
			<tilt>0</tilt>
			<gx:fovy>30</gx:fovy>
			<range>1000.000027557981</range>
			<altitudeMode>absolute</altitudeMode>
		</LookAt>
		<styleUrl>#__managed_style_08D33A2A222F6742C10F</styleUrl>
		<Point>
			<coordinates>-2.630392122213113,53.4790964212081,45.02177775558412</coordinates>
		</Point>
	</Placemark>
	<Placemark id="0B0C011A9C2F6391B6ED">
		<name>6</name>
		<LookAt>
			<longitude>-2.628435922924688</longitude>
			<latitude>53.48021730417416</latitude>
			<altitude>47.18274883583769</altitude>
			<heading>0</heading>
			<tilt>0</tilt>
			<gx:fovy>30</gx:fovy>
			<range>1000.000027557981</range>
			<altitudeMode>absolute</altitudeMode>
		</LookAt>
		<styleUrl>#__managed_style_08D33A2A222F6742C10F</styleUrl>
		<Point>
			<coordinates>-2.630124077604354,53.47851128812933,44.79772580520295</coordinates>
		</Point>
	</Placemark>
	<Placemark id="04BE61A93C2F6391D051">
		<name>7</name>
		<LookAt>
			<longitude>-2.626054061707658</longitude>
			<latitude>53.47819545434938</latitude>
			<altitude>42.05731956885418</altitude>
			<heading>0</heading>
			<tilt>0</tilt>
			<gx:fovy>30</gx:fovy>
			<range>1005.125429170002</range>
			<altitudeMode>absolute</altitudeMode>
		</LookAt>
		<styleUrl>#__managed_style_08D33A2A222F6742C10F</styleUrl>
		<Point>
			<coordinates>-2.629579096250919,53.47811439888262,44.46836967691917</coordinates>
		</Point>
	</Placemark>
	<Placemark id="0C21E082C72F6391E4F4">
		<name>8</name>
		<LookAt>
			<longitude>-2.626054061707658</longitude>
			<latitude>53.47819545434938</latitude>
			<altitude>42.05731956885418</altitude>
			<heading>0</heading>
			<tilt>0</tilt>
			<gx:fovy>30</gx:fovy>
			<range>1005.125429170002</range>
			<altitudeMode>absolute</altitudeMode>
		</LookAt>
		<styleUrl>#__managed_style_08D33A2A222F6742C10F</styleUrl>
		<Point>
			<coordinates>-2.628915193976873,53.47783427033825,44.28424878050759</coordinates>
		</Point>
	</Placemark>
	<Placemark id="035234887D2F63920F34">
		<name>9</name>
		<LookAt>
			<longitude>-2.626054061707658</longitude>
			<latitude>53.47819545434938</latitude>
			<altitude>42.05731956885418</altitude>
			<heading>0</heading>
			<tilt>0</tilt>
			<gx:fovy>30</gx:fovy>
			<range>1005.125429170002</range>
			<altitudeMode>absolute</altitudeMode>
		</LookAt>
		<styleUrl>#__managed_style_08D33A2A222F6742C10F</styleUrl>
		<Point>
			<coordinates>-2.62790159086425,53.47773501218987,43.38985422615303</coordinates>
		</Point>
	</Placemark>
	<Placemark id="0079728D0D2F63924411">
		<name>10</name>
		<LookAt>
			<longitude>-2.626054061707658</longitude>
			<latitude>53.47819545434938</latitude>
			<altitude>42.05731956885418</altitude>
			<heading>0</heading>
			<tilt>0</tilt>
			<gx:fovy>30</gx:fovy>
			<range>1005.125429170002</range>
			<altitudeMode>absolute</altitudeMode>
		</LookAt>
		<styleUrl>#__managed_style_08D33A2A222F6742C10F</styleUrl>
		<Point>
			<coordinates>-2.626904759093263,53.47776208698275,42.40343633946426</coordinates>
		</Point>
	</Placemark>
	<Placemark id="0ED99D84E82F63927452">
		<name>11</name>
		<LookAt>
			<longitude>-2.626054061707658</longitude>
			<latitude>53.47819545434938</latitude>
			<altitude>42.05731956885418</altitude>
			<heading>0</heading>
			<tilt>0</tilt>
			<gx:fovy>30</gx:fovy>
			<range>1005.125429170002</range>
			<altitudeMode>absolute</altitudeMode>
		</LookAt>
		<styleUrl>#__managed_style_08D33A2A222F6742C10F</styleUrl>
		<Point>
			<coordinates>-2.625794878407226,53.47776162903985,41.33379958158658</coordinates>
		</Point>
	</Placemark>
	<Placemark id="081611E97F2F6392BAA1">
		<name>12</name>
		<LookAt>
			<longitude>-2.623203037622023</longitude>
			<latitude>53.47786491693499</latitude>
			<altitude>41.73798583797254</altitude>
			<heading>0</heading>
			<tilt>0</tilt>
			<gx:fovy>30</gx:fovy>
			<range>1005.444723778783</range>
			<altitudeMode>absolute</altitudeMode>
		</LookAt>
		<styleUrl>#__managed_style_08D33A2A222F6742C10F</styleUrl>
		<Point>
			<coordinates>-2.624582264409292,53.47777814384346,41.33321772736576</coordinates>
		</Point>
	</Placemark>
	<Placemark id="05784606242F63930AB3">
		<name>13</name>
		<LookAt>
			<longitude>-2.623203037622023</longitude>
			<latitude>53.47786491693499</latitude>
			<altitude>41.73798583797254</altitude>
			<heading>0</heading>
			<tilt>0</tilt>
			<gx:fovy>30</gx:fovy>
			<range>1005.444723778783</range>
			<altitudeMode>absolute</altitudeMode>
		</LookAt>
		<styleUrl>#__managed_style_08D33A2A222F6742C10F</styleUrl>
		<Point>
			<coordinates>-2.623434426105456,53.47776163632629,41.44273012920109</coordinates>
		</Point>
	</Placemark>
	<Placemark id="0C61BCD8C92F639323F6">
		<name>14</name>
		<LookAt>
			<longitude>-2.623203037622023</longitude>
			<latitude>53.47786491693499</latitude>
			<altitude>41.73798583797254</altitude>
			<heading>0</heading>
			<tilt>0</tilt>
			<gx:fovy>30</gx:fovy>
			<range>1005.444723778783</range>
			<altitudeMode>absolute</altitudeMode>
		</LookAt>
		<styleUrl>#__managed_style_08D33A2A222F6742C10F</styleUrl>
		<Point>
			<coordinates>-2.622341803349984,53.47752458926193,40.88872373687968</coordinates>
		</Point>
	</Placemark>
	<Placemark id="0040021D662F63998734">
		<name>15</name>
		<LookAt>
			<longitude>-2.623203037622023</longitude>
			<latitude>53.47786491693499</latitude>
			<altitude>41.73798583797254</altitude>
			<heading>0</heading>
			<tilt>0</tilt>
			<gx:fovy>30</gx:fovy>
			<range>1005.444723778783</range>
			<altitudeMode>absolute</altitudeMode>
		</LookAt>
		<styleUrl>#__managed_style_08D33A2A222F6742C10F</styleUrl>
		<Point>
			<coordinates>-2.62142525376022,53.47727113822971,41.0250624058618</coordinates>
		</Point>
	</Placemark>
	<Placemark id="09AD1B07632F6399A0DE">
		<name>16</name>
		<LookAt>
			<longitude>-2.623203037622023</longitude>
			<latitude>53.47786491693499</latitude>
			<altitude>41.73798583797254</altitude>
			<heading>0</heading>
			<tilt>0</tilt>
			<gx:fovy>30</gx:fovy>
			<range>1005.444723778783</range>
			<altitudeMode>absolute</altitudeMode>
		</LookAt>
		<styleUrl>#__managed_style_08D33A2A222F6742C10F</styleUrl>
		<Point>
			<coordinates>-2.620507637367769,53.47699528017979,40.66573643383666</coordinates>
		</Point>
	</Placemark>
	<Placemark id="01CE8830B42F6399B721">
		<name>17</name>
		<LookAt>
			<longitude>-2.623203037622023</longitude>
			<latitude>53.47786491693499</latitude>
			<altitude>41.73798583797254</altitude>
			<heading>0</heading>
			<tilt>0</tilt>
			<gx:fovy>30</gx:fovy>
			<range>1005.444723778783</range>
			<altitudeMode>absolute</altitudeMode>
		</LookAt>
		<styleUrl>#__managed_style_08D33A2A222F6742C10F</styleUrl>
		<Point>
			<coordinates>-2.619532667015207,53.47674093403256,40.00242382448947</coordinates>
		</Point>
	</Placemark>
	<Placemark id="03FFDE47702F6399F53D">
		<name>18</name>
		<LookAt>
			<longitude>-2.618396481005721</longitude>
			<latitude>53.47739079970094</latitude>
			<altitude>42.02425738825222</altitude>
			<heading>0</heading>
			<tilt>0</tilt>
			<gx:fovy>30</gx:fovy>
			<range>1005.158526781888</range>
			<altitudeMode>absolute</altitudeMode>
		</LookAt>
		<styleUrl>#__managed_style_08D33A2A222F6742C10F</styleUrl>
		<Point>
			<coordinates>-2.618674699264552,53.47653115172439,39.41247435273247</coordinates>
		</Point>
	</Placemark>
	<Placemark id="097621CB412F639A0B80">
		<name>19</name>
		<LookAt>
			<longitude>-2.618396481005721</longitude>
			<latitude>53.47739079970094</latitude>
			<altitude>42.02425738825222</altitude>
			<heading>0</heading>
			<tilt>0</tilt>
			<gx:fovy>30</gx:fovy>
			<range>1005.158526781888</range>
			<altitudeMode>absolute</altitudeMode>
		</LookAt>
		<styleUrl>#__managed_style_08D33A2A222F6742C10F</styleUrl>
		<Point>
			<coordinates>-2.617868278601516,53.47625054469893,40.19428246984353</coordinates>
		</Point>
	</Placemark>
	<Placemark id="009E0F5C612F639A23C8">
		<name>20</name>
		<LookAt>
			<longitude>-2.618396481005721</longitude>
			<latitude>53.47739079970094</latitude>
			<altitude>42.02425738825222</altitude>
			<heading>0</heading>
			<tilt>0</tilt>
			<gx:fovy>30</gx:fovy>
			<range>1005.158526781888</range>
			<altitudeMode>absolute</altitudeMode>
		</LookAt>
		<styleUrl>#__managed_style_08D33A2A222F6742C10F</styleUrl>
		<Point>
			<coordinates>-2.617135795520976,53.47602947976021,39.85854264815816</coordinates>
		</Point>
	</Placemark>
	<Placemark id="0996A2DB5F2F639A3D80">
		<name>21</name>
		<LookAt>
			<longitude>-2.618396481005721</longitude>
			<latitude>53.47739079970094</latitude>
			<altitude>42.02425738825222</altitude>
			<heading>0</heading>
			<tilt>0</tilt>
			<gx:fovy>30</gx:fovy>
			<range>1005.158526781888</range>
			<altitudeMode>absolute</altitudeMode>
		</LookAt>
		<styleUrl>#__managed_style_08D33A2A222F6742C10F</styleUrl>
		<Point>
			<coordinates>-2.61635794067714,53.47581492055981,40.25257140849079</coordinates>
		</Point>
	</Placemark>
	<Placemark id="03173639DD2F639A4FFD">
		<name>22</name>
		<LookAt>
			<longitude>-2.618396481005721</longitude>
			<latitude>53.47739079970094</latitude>
			<altitude>42.02425738825222</altitude>
			<heading>0</heading>
			<tilt>0</tilt>
			<gx:fovy>30</gx:fovy>
			<range>1005.158526781888</range>
			<altitudeMode>absolute</altitudeMode>
		</LookAt>
		<styleUrl>#__managed_style_08D33A2A222F6742C10F</styleUrl>
		<Point>
			<coordinates>-2.61545956189948,53.47569382131005,40.40026437881463</coordinates>
		</Point>
	</Placemark>
	<Placemark id="0F257C2AB12F639A6099">
		<name>23</name>
		<LookAt>
			<longitude>-2.618396481005721</longitude>
			<latitude>53.47739079970094</latitude>
			<altitude>42.02425738825222</altitude>
			<heading>0</heading>
			<tilt>0</tilt>
			<gx:fovy>30</gx:fovy>
			<range>1005.158526781888</range>
			<altitudeMode>absolute</altitudeMode>
		</LookAt>
		<styleUrl>#__managed_style_08D33A2A222F6742C10F</styleUrl>
		<Point>
			<coordinates>-2.614509894893096,53.47567927627461,41.59322314948495</coordinates>
		</Point>
	</Placemark>
	<Placemark id="07AF6897EF2F639A8240">
		<name>24</name>
		<LookAt>
			<longitude>-2.618396481005721</longitude>
			<latitude>53.47739079970094</latitude>
			<altitude>42.02425738825222</altitude>
			<heading>0</heading>
			<tilt>0</tilt>
			<gx:fovy>30</gx:fovy>
			<range>1005.158526781888</range>
			<altitudeMode>absolute</altitudeMode>
		</LookAt>
		<styleUrl>#__managed_style_08D33A2A222F6742C10F</styleUrl>
		<Point>
			<coordinates>-2.613884435337199,53.47601355864842,40.38318150416582</coordinates>
		</Point>
	</Placemark>
	<Placemark id="0DA41AAEC02F639A9569">
		<name>25</name>
		<LookAt>
			<longitude>-2.618396481005721</longitude>
			<latitude>53.47739079970094</latitude>
			<altitude>42.02425738825222</altitude>
			<heading>0</heading>
			<tilt>0</tilt>
			<gx:fovy>30</gx:fovy>
			<range>1005.158526781888</range>
			<altitudeMode>absolute</altitudeMode>
		</LookAt>
		<styleUrl>#__managed_style_08D33A2A222F6742C10F</styleUrl>
		<Point>
			<coordinates>-2.613480240989468,53.47647276510904,40.51050463128284</coordinates>
		</Point>
	</Placemark>
	<Placemark id="0E64EEC4382F639AB638">
		<name>26</name>
		<LookAt>
			<longitude>-2.618396481005721</longitude>
			<latitude>53.47739079970094</latitude>
			<altitude>42.02425738825222</altitude>
			<heading>0</heading>
			<tilt>0</tilt>
			<gx:fovy>30</gx:fovy>
			<range>1005.158526781888</range>
			<altitudeMode>absolute</altitudeMode>
		</LookAt>
		<styleUrl>#__managed_style_08D33A2A222F6742C10F</styleUrl>
		<Point>
			<coordinates>-2.613700809350283,53.47700249877943,40.50066949109779</coordinates>
		</Point>
	</Placemark>
	<Placemark id="0B8F86B7F42F639BB0C0">
		<name>27</name>
		<LookAt>
			<longitude>-2.610725058076601</longitude>
			<latitude>53.47681542512758</latitude>
			<altitude>39.59277612954881</altitude>
			<heading>19.87422245798631</heading>
			<tilt>0</tilt>
			<gx:fovy>30</gx:fovy>
			<range>267.8343815584594</range>
			<altitudeMode>absolute</altitudeMode>
		</LookAt>
		<styleUrl>#__managed_style_08D33A2A222F6742C10F</styleUrl>
		<Point>
			<coordinates>-2.609918766665223,53.47655509980099,39.63708714188397</coordinates>
		</Point>
	</Placemark>
	<Placemark id="0A81F35CFB2F639BD42A">
		<name>28</name>
		<LookAt>
			<longitude>-2.610725058076601</longitude>
			<latitude>53.47681542512758</latitude>
			<altitude>39.59277612954881</altitude>
			<heading>19.87422245798631</heading>
			<tilt>0</tilt>
			<gx:fovy>30</gx:fovy>
			<range>267.8343815584594</range>
			<altitudeMode>absolute</altitudeMode>
		</LookAt>
		<styleUrl>#__managed_style_08D33A2A222F6742C10F</styleUrl>
		<Point>
			<coordinates>-2.609979385684547,53.47639872334624,39.63705998424003</coordinates>
		</Point>
	</Placemark>
	<Placemark id="0D0D7455AE2F639C13F6">
		<name>29</name>
		<LookAt>
			<longitude>-2.610725058076601</longitude>
			<latitude>53.47681542512758</latitude>
			<altitude>39.59277612954881</altitude>
			<heading>19.87422245798631</heading>
			<tilt>0</tilt>
			<gx:fovy>30</gx:fovy>
			<range>267.8343815584594</range>
			<altitudeMode>absolute</altitudeMode>
		</LookAt>
		<styleUrl>#__managed_style_08D33A2A222F6742C10F</styleUrl>
		<Point>
			<coordinates>-2.610661668985375,53.47672404437059,39.6370700536418</coordinates>
		</Point>
	</Placemark>
	<Placemark id="07C06648842F639C2A5B">
		<name>31</name>
		<LookAt>
			<longitude>-2.610725058076601</longitude>
			<latitude>53.47681542512758</latitude>
			<altitude>39.59277612954881</altitude>
			<heading>19.87422245798631</heading>
			<tilt>0</tilt>
			<gx:fovy>30</gx:fovy>
			<range>267.8343815584594</range>
			<altitudeMode>absolute</altitudeMode>
		</LookAt>
		<styleUrl>#__managed_style_08D33A2A222F6742C10F</styleUrl>
		<Point>
			<coordinates>-2.611582040735967,53.47691805571171,39.63706138772486</coordinates>
		</Point>
	</Placemark>
	<Placemark id="0932B95F482F639C88DF">
		<name>33</name>
		<LookAt>
			<longitude>-2.610725058076601</longitude>
			<latitude>53.47681542510238</latitude>
			<altitude>39.59277612813416</altitude>
			<heading>19.87422245798631</heading>
			<tilt>0</tilt>
			<gx:fovy>30</gx:fovy>
			<range>267.8343815584594</range>
			<altitudeMode>absolute</altitudeMode>
		</LookAt>
		<styleUrl>#__managed_style_08D33A2A222F6742C10F</styleUrl>
		<Point>
			<coordinates>-2.612431708963353,53.47708843570999,39.63711512377429</coordinates>
		</Point>
	</Placemark>
	<Placemark id="094C4811B62F639CB383">
		<name>35</name>
		<LookAt>
			<longitude>-2.610725058076601</longitude>
			<latitude>53.47681542510238</latitude>
			<altitude>39.59277612813416</altitude>
			<heading>19.87422245798631</heading>
			<tilt>0</tilt>
			<gx:fovy>30</gx:fovy>
			<range>267.8343815584594</range>
			<altitudeMode>absolute</altitudeMode>
		</LookAt>
		<styleUrl>#__managed_style_08D33A2A222F6742C10F</styleUrl>
		<Point>
			<coordinates>-2.61331298316114,53.47727762201539,39.63704682037372</coordinates>
		</Point>
	</Placemark>
	<Placemark id="051E48409D2F639CC73D">
		<name>37</name>
		<LookAt>
			<longitude>-2.610725058076601</longitude>
			<latitude>53.47681542510238</latitude>
			<altitude>39.59277612813416</altitude>
			<heading>19.87422245798631</heading>
			<tilt>0</tilt>
			<gx:fovy>30</gx:fovy>
			<range>267.8343815584594</range>
			<altitudeMode>absolute</altitudeMode>
		</LookAt>
		<styleUrl>#__managed_style_08D33A2A222F6742C10F</styleUrl>
		<Point>
			<coordinates>-2.614302763404036,53.47747126585328,39.62710118585304</coordinates>
		</Point>
	</Placemark>
	<Placemark id="025479B4A62F639CDA40">
		<name>39</name>
		<LookAt>
			<longitude>-2.610725058076601</longitude>
			<latitude>53.47681542510238</latitude>
			<altitude>39.59277612813416</altitude>
			<heading>19.87422245798631</heading>
			<tilt>0</tilt>
			<gx:fovy>30</gx:fovy>
			<range>267.8343815584594</range>
			<altitudeMode>absolute</altitudeMode>
		</LookAt>
		<styleUrl>#__managed_style_08D33A2A222F6742C10F</styleUrl>
		<Point>
			<coordinates>-2.615172519365658,53.47765944886358,39.63709851280195</coordinates>
		</Point>
	</Placemark>
	<Placemark id="01A9AAF1702F639CF062">
		<name>41</name>
		<LookAt>
			<longitude>-2.610725058076601</longitude>
			<latitude>53.47681542510238</latitude>
			<altitude>39.59277612813416</altitude>
			<heading>19.87422245798631</heading>
			<tilt>0</tilt>
			<gx:fovy>30</gx:fovy>
			<range>267.8343815584594</range>
			<altitudeMode>absolute</altitudeMode>
		</LookAt>
		<styleUrl>#__managed_style_08D33A2A222F6742C10F</styleUrl>
		<Point>
			<coordinates>-2.61597416962879,53.47783341907379,39.63707196130484</coordinates>
		</Point>
	</Placemark>
	<Placemark id="0D078B75D72F639E352F">
		<name>45</name>
		<LookAt>
			<longitude>-2.615062347280064</longitude>
			<latitude>53.47814158214854</latitude>
			<altitude>41.23866649745812</altitude>
			<heading>19.8711114744277</heading>
			<tilt>0</tilt>
			<gx:fovy>30</gx:fovy>
			<range>447.4833747560479</range>
			<altitudeMode>absolute</altitudeMode>
		</LookAt>
		<styleUrl>#__managed_style_08D33A2A222F6742C10F</styleUrl>
		<Point>
			<coordinates>-2.617549954977886,53.47814589494773,41.67787681695518</coordinates>
		</Point>
	</Placemark>
	<Placemark id="0F55319C612F639E5631">
		<name>43</name>
		<LookAt>
			<longitude>-2.615062347280064</longitude>
			<latitude>53.47814158214854</latitude>
			<altitude>41.23866649745812</altitude>
			<heading>19.8711114744277</heading>
			<tilt>0</tilt>
			<gx:fovy>30</gx:fovy>
			<range>447.4833747560479</range>
			<altitudeMode>absolute</altitudeMode>
		</LookAt>
		<styleUrl>#__managed_style_08D33A2A222F6742C10F</styleUrl>
		<Point>
			<coordinates>-2.616748030623754,53.47798812289067,43.08604560480772</coordinates>
		</Point>
	</Placemark>
	<Placemark id="0A8FB548A72F639EFA2E">
		<name>47</name>
		<LookAt>
			<longitude>-2.619259243433112</longitude>
			<latitude>53.47897494107197</latitude>
			<altitude>42.80288749311399</altitude>
			<heading>19.86773872588277</heading>
			<tilt>0</tilt>
			<gx:fovy>30</gx:fovy>
			<range>445.919118575257</range>
			<altitudeMode>absolute</altitudeMode>
		</LookAt>
		<styleUrl>#__managed_style_08D33A2A222F6742C10F</styleUrl>
		<Point>
			<coordinates>-2.618317779036829,53.47830817389808,43.60500294178028</coordinates>
		</Point>
	</Placemark>
	<Placemark id="08A268AB8C2F639F15B7">
		<name>49</name>
		<LookAt>
			<longitude>-2.619259243433112</longitude>
			<latitude>53.47897494107197</latitude>
			<altitude>42.80288749311399</altitude>
			<heading>19.86773872588277</heading>
			<tilt>0</tilt>
			<gx:fovy>30</gx:fovy>
			<range>445.919118575257</range>
			<altitudeMode>absolute</altitudeMode>
		</LookAt>
		<styleUrl>#__managed_style_08D33A2A222F6742C10F</styleUrl>
		<Point>
			<coordinates>-2.619085609751729,53.47845774849835,42.41556048976651</coordinates>
		</Point>
	</Placemark>
	<Placemark id="08D2FB130A2F639F3079">
		<name>51</name>
		<LookAt>
			<longitude>-2.619259243433112</longitude>
			<latitude>53.47897494107197</latitude>
			<altitude>42.80288749311399</altitude>
			<heading>19.86773872588277</heading>
			<tilt>0</tilt>
			<gx:fovy>30</gx:fovy>
			<range>445.919118575257</range>
			<altitudeMode>absolute</altitudeMode>
		</LookAt>
		<styleUrl>#__managed_style_08D33A2A222F6742C10F</styleUrl>
		<Point>
			<coordinates>-2.61984740225191,53.47862263271186,42.45519286630203</coordinates>
		</Point>
	</Placemark>
	<Placemark id="03D0D6E1EC2F639F501C">
		<name>53</name>
		<LookAt>
			<longitude>-2.619259243433112</longitude>
			<latitude>53.47897494107197</latitude>
			<altitude>42.80288749311399</altitude>
			<heading>19.86773872588277</heading>
			<tilt>0</tilt>
			<gx:fovy>30</gx:fovy>
			<range>445.919118575257</range>
			<altitudeMode>absolute</altitudeMode>
		</LookAt>
		<styleUrl>#__managed_style_08D33A2A222F6742C10F</styleUrl>
		<Point>
			<coordinates>-2.62074990764411,53.47881297087196,42.46277298874421</coordinates>
		</Point>
	</Placemark>
	<Placemark id="012319B4752F639F6F3B">
		<name>55</name>
		<LookAt>
			<longitude>-2.621864967756624</longitude>
			<latitude>53.47948572109003</latitude>
			<altitude>43.47367968335181</altitude>
			<heading>19.86564467553461</heading>
			<tilt>0</tilt>
			<gx:fovy>30</gx:fovy>
			<range>445.2483124945866</range>
			<altitudeMode>absolute</altitudeMode>
		</LookAt>
		<styleUrl>#__managed_style_08D33A2A222F6742C10F</styleUrl>
		<Point>
			<coordinates>-2.621649782040608,53.47900294139701,42.41548505281084</coordinates>
		</Point>
	</Placemark>
	<Placemark id="0E56C589642F639F8A60">
		<name>57</name>
		<LookAt>
			<longitude>-2.621864967756624</longitude>
			<latitude>53.47948572109003</latitude>
			<altitude>43.47367968335181</altitude>
			<heading>19.86564467553461</heading>
			<tilt>0</tilt>
			<gx:fovy>30</gx:fovy>
			<range>445.2483124945866</range>
			<altitudeMode>absolute</altitudeMode>
		</LookAt>
		<styleUrl>#__managed_style_08D33A2A222F6742C10F</styleUrl>
		<Point>
			<coordinates>-2.622540046668865,53.47917868607161,43.15316204950965</coordinates>
		</Point>
	</Placemark>
	<Placemark id="054B9451402F639FA6A2">
		<name>59</name>
		<LookAt>
			<longitude>-2.623433272648936</longitude>
			<latitude>53.47981774256665</latitude>
			<altitude>44.49344193387607</altitude>
			<heading>19.8643843194244</heading>
			<tilt>0</tilt>
			<gx:fovy>30</gx:fovy>
			<range>444.2285444779554</range>
			<altitudeMode>absolute</altitudeMode>
		</LookAt>
		<styleUrl>#__managed_style_08D33A2A222F6742C10F</styleUrl>
		<Point>
			<coordinates>-2.623484162209462,53.47939979996482,43.52201686637972</coordinates>
		</Point>
	</Placemark>
	<Placemark id="05903E7F7A2F639FCF30">
		<name>61</name>
		<LookAt>
			<longitude>-2.626244385250773</longitude>
			<latitude>53.48135010990121</latitude>
			<altitude>48.05664149116764</altitude>
			<heading>19.86356639137304</heading>
			<tilt>0</tilt>
			<gx:fovy>30</gx:fovy>
			<range>1139.81018091843</range>
			<altitudeMode>absolute</altitudeMode>
		</LookAt>
		<styleUrl>#__managed_style_08D33A2A222F6742C10F</styleUrl>
		<Point>
			<coordinates>-2.624379095060128,53.47957667952804,44.06502406593034</coordinates>
		</Point>
	</Placemark>
	<Placemark id="05228E38F02F639FE8B6">
		<name>63</name>
		<LookAt>
			<longitude>-2.626244385250773</longitude>
			<latitude>53.48135010990121</latitude>
			<altitude>48.05664149116764</altitude>
			<heading>19.86356639137304</heading>
			<tilt>0</tilt>
			<gx:fovy>30</gx:fovy>
			<range>1139.81018091843</range>
			<altitudeMode>absolute</altitudeMode>
		</LookAt>
		<styleUrl>#__managed_style_08D33A2A222F6742C10F</styleUrl>
		<Point>
			<coordinates>-2.62522743745543,53.47974770932532,44.74169032927703</coordinates>
		</Point>
	</Placemark>
	<Placemark id="0863290D542F639FFC2C">
		<name>65</name>
		<LookAt>
			<longitude>-2.626244385250773</longitude>
			<latitude>53.48135010990121</latitude>
			<altitude>48.05664149116764</altitude>
			<heading>19.86356639137304</heading>
			<tilt>0</tilt>
			<gx:fovy>30</gx:fovy>
			<range>1139.81018091843</range>
			<altitudeMode>absolute</altitudeMode>
		</LookAt>
		<styleUrl>#__managed_style_08D33A2A222F6742C10F</styleUrl>
		<Point>
			<coordinates>-2.626074296127997,53.47991848942525,46.13622962666812</coordinates>
		</Point>
	</Placemark>
	<Placemark id="068D0BAEA62F63A015B1">
		<name>67</name>
		<LookAt>
			<longitude>-2.626244385250773</longitude>
			<latitude>53.48135010990121</latitude>
			<altitude>48.05664149116764</altitude>
			<heading>19.86356639137304</heading>
			<tilt>0</tilt>
			<gx:fovy>30</gx:fovy>
			<range>1139.81018091843</range>
			<altitudeMode>absolute</altitudeMode>
		</LookAt>
		<styleUrl>#__managed_style_08D33A2A222F6742C10F</styleUrl>
		<Point>
			<coordinates>-2.626959086677164,53.48008315762643,46.67452348653708</coordinates>
		</Point>
	</Placemark>
	<Placemark id="0885C8E8202F63A49851">
		<name>68</name>
		<LookAt>
			<longitude>-2.624544454782033</longitude>
			<latitude>53.47981485628022</latitude>
			<altitude>44.75642003923863</altitude>
			<heading>19.50700915291662</heading>
			<tilt>0</tilt>
			<gx:fovy>30</gx:fovy>
			<range>765.0380411522929</range>
			<altitudeMode>absolute</altitudeMode>
		</LookAt>
		<styleUrl>#__managed_style_08D33A2A222F6742C10F</styleUrl>
		<Point>
			<coordinates>-2.627040654868655,53.47992959262722,46.26407209415734</coordinates>
		</Point>
	</Placemark>
	<Placemark id="06AA8035CA2F63A4D262">
		<name>66</name>
		<LookAt>
			<longitude>-2.624544454782033</longitude>
			<latitude>53.47981485628022</latitude>
			<altitude>44.75642003923863</altitude>
			<heading>19.50700915291662</heading>
			<tilt>0</tilt>
			<gx:fovy>30</gx:fovy>
			<range>765.0380411522929</range>
			<altitudeMode>absolute</altitudeMode>
		</LookAt>
		<styleUrl>#__managed_style_08D33A2A222F6742C10F</styleUrl>
		<Point>
			<coordinates>-2.626163104249284,53.47976633010153,45.36615385532927</coordinates>
		</Point>
	</Placemark>
	<Placemark id="03B5CCE6402F63A4EC08">
		<name>64</name>
		<LookAt>
			<longitude>-2.624544454782033</longitude>
			<latitude>53.47981485628022</latitude>
			<altitude>44.75642003923863</altitude>
			<heading>19.50700915291662</heading>
			<tilt>0</tilt>
			<gx:fovy>30</gx:fovy>
			<range>765.0380411522929</range>
			<altitudeMode>absolute</altitudeMode>
		</LookAt>
		<styleUrl>#__managed_style_08D33A2A222F6742C10F</styleUrl>
		<Point>
			<coordinates>-2.62530210372121,53.47957113680364,44.68037491083933</coordinates>
		</Point>
	</Placemark>
	<Placemark id="060219B3B72F63A51412">
		<name>62</name>
		<LookAt>
			<longitude>-2.624544454782033</longitude>
			<latitude>53.47981485622982</latitude>
			<altitude>44.75642003923863</altitude>
			<heading>19.50700915291662</heading>
			<tilt>0</tilt>
			<gx:fovy>30</gx:fovy>
			<range>765.0379484418954</range>
			<altitudeMode>absolute</altitudeMode>
		</LookAt>
		<styleUrl>#__managed_style_08D33A2A222F6742C10F</styleUrl>
		<Point>
			<coordinates>-2.624442611501604,53.47942074617102,44.03504287109823</coordinates>
		</Point>
	</Placemark>
	<Placemark id="078FB3A5C82F63A535CB">
		<name>60</name>
		<LookAt>
			<longitude>-2.624544454782033</longitude>
			<latitude>53.47981485622982</latitude>
			<altitude>44.75642003923863</altitude>
			<heading>19.50700915291662</heading>
			<tilt>0</tilt>
			<gx:fovy>30</gx:fovy>
			<range>765.0379484418954</range>
			<altitudeMode>absolute</altitudeMode>
		</LookAt>
		<styleUrl>#__managed_style_08D33A2A222F6742C10F</styleUrl>
		<Point>
			<coordinates>-2.623567837509091,53.47921824999274,43.5015396813673</coordinates>
		</Point>
	</Placemark>
	<Placemark id="057A2BB00C2F63A54BAB">
		<name>58</name>
		<LookAt>
			<longitude>-2.624544454782033</longitude>
			<latitude>53.47981485622982</latitude>
			<altitude>44.75642003923863</altitude>
			<heading>19.50700915291662</heading>
			<tilt>0</tilt>
			<gx:fovy>30</gx:fovy>
			<range>765.0379484418954</range>
			<altitudeMode>absolute</altitudeMode>
		</LookAt>
		<styleUrl>#__managed_style_08D33A2A222F6742C10F</styleUrl>
		<Point>
			<coordinates>-2.622610874401304,53.47903612662691,42.78439565076778</coordinates>
		</Point>
	</Placemark>
	<Placemark id="00C62040122F63A591FA">
		<name>56</name>
		<LookAt>
			<longitude>-2.620565375735616</longitude>
			<latitude>53.47872050039684</latitude>
			<altitude>42.36815112422575</altitude>
			<heading>19.51049073454361</heading>
			<tilt>0</tilt>
			<gx:fovy>30</gx:fovy>
			<range>466.8026918607939</range>
			<altitudeMode>absolute</altitudeMode>
		</LookAt>
		<styleUrl>#__managed_style_08D33A2A222F6742C10F</styleUrl>
		<Point>
			<coordinates>-2.62174072282584,53.47883611349612,42.41559358141796</coordinates>
		</Point>
	</Placemark>
	<Placemark id="0F72CC56F02F63A5A7FA">
		<name>54</name>
		<LookAt>
			<longitude>-2.620565375735616</longitude>
			<latitude>53.47872050039684</latitude>
			<altitude>42.36815112422575</altitude>
			<heading>19.51049073454361</heading>
			<tilt>0</tilt>
			<gx:fovy>30</gx:fovy>
			<range>466.8026918607939</range>
			<altitudeMode>absolute</altitudeMode>
		</LookAt>
		<styleUrl>#__managed_style_08D33A2A222F6742C10F</styleUrl>
		<Point>
			<coordinates>-2.620811786967275,53.47865108771575,42.41547398213381</coordinates>
		</Point>
	</Placemark>
	<Placemark id="0472ED9D142F63A5BF7B">
		<name>52</name>
		<LookAt>
			<longitude>-2.620565375735616</longitude>
			<latitude>53.47872050039684</latitude>
			<altitude>42.36815112422575</altitude>
			<heading>19.51049073454361</heading>
			<tilt>0</tilt>
			<gx:fovy>30</gx:fovy>
			<range>466.8026918607939</range>
			<altitudeMode>absolute</altitudeMode>
		</LookAt>
		<styleUrl>#__managed_style_08D33A2A222F6742C10F</styleUrl>
		<Point>
			<coordinates>-2.619905533286576,53.47847351776874,42.28410629639301</coordinates>
		</Point>
	</Placemark>
	<Placemark id="0E177F214F2F63A68E92">
		<name>50</name>
		<LookAt>
			<longitude>-2.618356275421849</longitude>
			<latitude>53.47825282949609</latitude>
			<altitude>42.36796563835705</altitude>
			<heading>19.51226603522466</heading>
			<tilt>0</tilt>
			<gx:fovy>30</gx:fovy>
			<range>466.8027845711913</range>
			<altitudeMode>absolute</altitudeMode>
		</LookAt>
		<styleUrl>#__managed_style_08D33A2A222F6742C10F</styleUrl>
		<Point>
			<coordinates>-2.619157701542906,53.4783085233972,42.09185497694313</coordinates>
		</Point>
	</Placemark>
	<Placemark id="0B527A1EB32F63A6AAA2">
		<name>48</name>
		<LookAt>
			<longitude>-2.616920596374394</longitude>
			<latitude>53.47784696984819</latitude>
			<altitude>41.99962929047432</altitude>
			<heading>19.51341978651435</heading>
			<tilt>0</tilt>
			<gx:fovy>30</gx:fovy>
			<range>467.1711229802168</range>
			<altitudeMode>absolute</altitudeMode>
		</LookAt>
		<styleUrl>#__managed_style_08D33A2A222F6742C10F</styleUrl>
		<Point>
			<coordinates>-2.618377340150531,53.47814944450007,42.20594492599172</coordinates>
		</Point>
	</Placemark>
	<Placemark id="087470322B2F63A6F9CA">
		<name>46</name>
		<LookAt>
			<longitude>-2.616920596374394</longitude>
			<latitude>53.47784696984819</latitude>
			<altitude>41.99962929047432</altitude>
			<heading>19.51341978651435</heading>
			<tilt>0</tilt>
			<gx:fovy>30</gx:fovy>
			<range>467.1711229802168</range>
			<altitudeMode>absolute</altitudeMode>
		</LookAt>
		<styleUrl>#__managed_style_08D33A2A222F6742C10F</styleUrl>
		<Point>
			<coordinates>-2.617615363550234,53.47799688802584,42.32026514427271</coordinates>
		</Point>
	</Placemark>
	<Placemark id="066D4B6BB52F63A7132D">
		<name>44</name>
		<LookAt>
			<longitude>-2.616920596374394</longitude>
			<latitude>53.47784696984819</latitude>
			<altitude>41.99962929047432</altitude>
			<heading>19.51341978651435</heading>
			<tilt>0</tilt>
			<gx:fovy>30</gx:fovy>
			<range>467.1711229802168</range>
			<altitudeMode>absolute</altitudeMode>
		</LookAt>
		<styleUrl>#__managed_style_08D33A2A222F6742C10F</styleUrl>
		<Point>
			<coordinates>-2.616806521699198,53.47783173280737,42.04660307971306</coordinates>
		</Point>
	</Placemark>
	<Placemark id="0223E613572F63A98775">
		<name>42</name>
		<LookAt>
			<longitude>-2.616920596374394</longitude>
			<latitude>53.47784696984819</latitude>
			<altitude>41.99962929047432</altitude>
			<heading>19.51341978651435</heading>
			<tilt>0</tilt>
			<gx:fovy>30</gx:fovy>
			<range>467.1711229802168</range>
			<altitudeMode>absolute</altitudeMode>
		</LookAt>
		<styleUrl>#__managed_style_08D33A2A222F6742C10F</styleUrl>
		<Point>
			<coordinates>-2.61605717034449,53.47767098079624,41.42505034862936</coordinates>
		</Point>
	</Placemark>
	<Placemark id="0B320373AD2F63A9CDA3">
		<name>36</name>
		<LookAt>
			<longitude>-2.615296015693862</longitude>
			<latitude>53.47801088970368</latitude>
			<altitude>40.8944979136912</altitude>
			<heading>19.51472534212128</heading>
			<tilt>0</tilt>
			<gx:fovy>30</gx:fovy>
			<range>468.276323628088</range>
			<altitudeMode>absolute</altitudeMode>
		</LookAt>
		<styleUrl>#__managed_style_08D33A2A222F6742C10F</styleUrl>
		<Point>
			<coordinates>-2.613408250939186,53.47710232826574,40.9401136709301</coordinates>
		</Point>
	</Placemark>
	<Placemark id="01E39478802F63A9E5BA">
		<name>40</name>
		<LookAt>
			<longitude>-2.615296015693862</longitude>
			<latitude>53.47801088970368</latitude>
			<altitude>40.8944979136912</altitude>
			<heading>19.51472534212128</heading>
			<tilt>0</tilt>
			<gx:fovy>30</gx:fovy>
			<range>468.276323628088</range>
			<altitudeMode>absolute</altitudeMode>
		</LookAt>
		<styleUrl>#__managed_style_08D33A2A222F6742C10F</styleUrl>
		<Point>
			<coordinates>-2.61524659050531,53.47749506413661,40.94012113305076</coordinates>
		</Point>
	</Placemark>
	<Placemark id="096F5E7E652F63AAC857">
		<name>38</name>
		<LookAt>
			<longitude>-2.613130586474006</longitude>
			<latitude>53.47742606055586</latitude>
			<altitude>40.15757038740718</altitude>
			<heading>19.51646552337712</heading>
			<tilt>0</tilt>
			<gx:fovy>30</gx:fovy>
			<range>469.0132322221325</range>
			<altitudeMode>absolute</altitudeMode>
		</LookAt>
		<styleUrl>#__managed_style_08D33A2A222F6742C10F</styleUrl>
		<Point>
			<coordinates>-2.61437682520191,53.47728631556229,40.22683052938383</coordinates>
		</Point>
	</Placemark>
	<Placemark id="0032B2109C2F63ABD535">
		<name>34</name>
		<LookAt>
			<longitude>-2.613160935376747</longitude>
			<latitude>53.47709762895747</latitude>
			<altitude>39.91198714109654</altitude>
			<heading>19.51677618775594</heading>
			<tilt>0</tilt>
			<gx:fovy>30</gx:fovy>
			<range>299.5229344687323</range>
			<altitudeMode>absolute</altitudeMode>
		</LookAt>
		<styleUrl>#__managed_style_08D33A2A222F6742C10F</styleUrl>
		<Point>
			<coordinates>-2.612519258234785,53.47692345786252,39.63709260711905</coordinates>
		</Point>
	</Placemark>
	<Placemark id="062C39F62F2F63ABFA3E">
		<name>32</name>
		<LookAt>
			<longitude>-2.610953936949585</longitude>
			<latitude>53.47652101923448</latitude>
			<altitude>40.60064649480312</altitude>
			<heading>19.51854975848437</heading>
			<tilt>0</tilt>
			<gx:fovy>30</gx:fovy>
			<range>298.8342816365548</range>
			<altitudeMode>absolute</altitudeMode>
		</LookAt>
		<styleUrl>#__managed_style_08D33A2A222F6742C10F</styleUrl>
		<Point>
			<coordinates>-2.611667393370277,53.47675388323624,39.53743397457018</coordinates>
		</Point>
	</Placemark>
	<Placemark id="08E74241352F63AC14BD">
		<name>30</name>
		<LookAt>
			<longitude>-2.610953936949585</longitude>
			<latitude>53.47652101923448</latitude>
			<altitude>40.60064649480312</altitude>
			<heading>19.51854975848437</heading>
			<tilt>0</tilt>
			<gx:fovy>30</gx:fovy>
			<range>298.8342816365548</range>
			<altitudeMode>absolute</altitudeMode>
		</LookAt>
		<styleUrl>#__managed_style_08D33A2A222F6742C10F</styleUrl>
		<Point>
			<coordinates>-2.610750570767191,53.47656228094866,39.26823354155625</coordinates>
		</Point>
	</Placemark>
</Document>
</kml>
