<?xml version="1.0" encoding="UTF-8"?>
<kml xmlns="http://www.opengis.net/kml/2.2" xmlns:gx="http://www.google.com/kml/ext/2.2" xmlns:kml="http://www.opengis.net/kml/2.2" xmlns:atom="http://www.w3.org/2005/Atom">
<Document>
	<name>000018-000049-newcastle</name>
	<gx:CascadingStyle kml:id="__managed_style_1B1463E9FC349DBDEE27">
		<Style>
			<IconStyle>
				<Icon>
					<href>https://earth.google.com/earth/document/icon?color=1976d2&amp;id=2000&amp;scale=4</href>
				</Icon>
				<hotSpot x="64" y="128" xunits="pixels" yunits="insetPixels"/>
			</IconStyle>
			<LabelStyle>
			</LabelStyle>
			<LineStyle>
				<color>ff2dc0fb</color>
				<width>3.2</width>
			</LineStyle>
			<PolyStyle>
				<color>40ffffff</color>
			</PolyStyle>
			<BalloonStyle>
				<displayMode>hide</displayMode>
			</BalloonStyle>
		</Style>
	</gx:CascadingStyle>
	<gx:CascadingStyle kml:id="__managed_style_2CDB93203B349DBDEE27">
		<Style>
			<IconStyle>
				<scale>1.2</scale>
				<Icon>
					<href>https://earth.google.com/earth/document/icon?color=1976d2&amp;id=2000&amp;scale=4</href>
				</Icon>
				<hotSpot x="64" y="128" xunits="pixels" yunits="insetPixels"/>
			</IconStyle>
			<LabelStyle>
			</LabelStyle>
			<LineStyle>
				<color>ff2dc0fb</color>
				<width>4.8</width>
			</LineStyle>
			<PolyStyle>
				<color>40ffffff</color>
			</PolyStyle>
			<BalloonStyle>
				<displayMode>hide</displayMode>
			</BalloonStyle>
		</Style>
	</gx:CascadingStyle>
	<StyleMap id="__managed_style_0DFFD2610A349DBDEE27">
		<Pair>
			<key>normal</key>
			<styleUrl>#__managed_style_1B1463E9FC349DBDEE27</styleUrl>
		</Pair>
		<Pair>
			<key>highlight</key>
			<styleUrl>#__managed_style_2CDB93203B349DBDEE27</styleUrl>
		</Pair>
	</StyleMap>
	<Placemark id="01E95AEF9D349DBDEE20">
		<name>1</name>
		<LookAt>
			<longitude>-1.613372062696468</longitude>
			<latitude>55.03306969379712</latitude>
			<altitude>58.49310562967957</altitude>
			<heading>0</heading>
			<tilt>0</tilt>
			<gx:fovy>35</gx:fovy>
			<range>947.1646501886428</range>
			<altitudeMode>absolute</altitudeMode>
		</LookAt>
		<styleUrl>#__managed_style_0DFFD2610A349DBDEE27</styleUrl>
		<Point>
			<coordinates>-1.613995384110372,55.03415844923543,59.90949320108796</coordinates>
		</Point>
	</Placemark>
	<Placemark id="0A852EF1C9349DBE1803">
		<name>2</name>
		<LookAt>
			<longitude>-1.613951919141907</longitude>
			<latitude>55.03388074986177</latitude>
			<altitude>59.3456545254909</altitude>
			<heading>0</heading>
			<tilt>0</tilt>
			<gx:fovy>35</gx:fovy>
			<range>255.0617396360758</range>
			<altitudeMode>absolute</altitudeMode>
		</LookAt>
		<styleUrl>#__managed_style_0DFFD2610A349DBDEE27</styleUrl>
		<Point>
			<coordinates>-1.613932317960939,55.03422331919857,59.75427639582139</coordinates>
		</Point>
	</Placemark>
	<Placemark id="06A6BE2BED349DBE3DC7">
		<name>3</name>
		<LookAt>
			<longitude>-1.61588794169502</longitude>
			<latitude>55.03372325646058</latitude>
			<altitude>58.58409407040469</altitude>
			<heading>0</heading>
			<tilt>0</tilt>
			<gx:fovy>35</gx:fovy>
			<range>457.5961785535037</range>
			<altitudeMode>absolute</altitudeMode>
		</LookAt>
		<styleUrl>#__managed_style_0DFFD2610A349DBDEE27</styleUrl>
		<Point>
			<coordinates>-1.61513416173563,55.03424845333655,58.64851118157941</coordinates>
		</Point>
	</Placemark>
	<Placemark id="03453CEA77349DBE5350">
		<name>4</name>
		<LookAt>
			<longitude>-1.615698817697018</longitude>
			<latitude>55.03410013794156</latitude>
			<altitude>58.25285567997806</altitude>
			<heading>0</heading>
			<tilt>0</tilt>
			<gx:fovy>35</gx:fovy>
			<range>155.6122234071518</range>
			<altitudeMode>absolute</altitudeMode>
		</LookAt>
		<styleUrl>#__managed_style_0DFFD2610A349DBDEE27</styleUrl>
		<Point>
			<coordinates>-1.615144923835931,55.03431980385859,58.87252810598284</coordinates>
		</Point>
	</Placemark>
	<Placemark id="012739F053349DBE707C">
		<name>5</name>
		<LookAt>
			<longitude>-1.616241034260646</longitude>
			<latitude>55.03380550054056</latitude>
			<altitude>58.67133776564673</altitude>
			<heading>0</heading>
			<tilt>0</tilt>
			<gx:fovy>35</gx:fovy>
			<range>255.6561059940578</range>
			<altitudeMode>absolute</altitudeMode>
		</LookAt>
		<styleUrl>#__managed_style_0DFFD2610A349DBDEE27</styleUrl>
		<Point>
			<coordinates>-1.616328235228313,55.03399888171936,58.3378647103164</coordinates>
		</Point>
	</Placemark>
	<Placemark id="0DCC9D758A349DBE80F3">
		<name>6</name>
		<LookAt>
			<longitude>-1.616241034260646</longitude>
			<latitude>55.03380550054056</latitude>
			<altitude>58.67133776564673</altitude>
			<heading>0</heading>
			<tilt>0</tilt>
			<gx:fovy>35</gx:fovy>
			<range>255.6561059940578</range>
			<altitudeMode>absolute</altitudeMode>
		</LookAt>
		<styleUrl>#__managed_style_0DFFD2610A349DBDEE27</styleUrl>
		<Point>
			<coordinates>-1.616366304627176,55.03404168184927,58.55077663064571</coordinates>
		</Point>
	</Placemark>
	<Placemark id="00F08881C8349DC0587A">
		<name>7</name>
		<LookAt>
			<longitude>-1.617150893094601</longitude>
			<latitude>55.03364636568654</latitude>
			<altitude>58.43567573997181</altitude>
			<heading>0</heading>
			<tilt>0</tilt>
			<gx:fovy>35</gx:fovy>
			<range>423.0084324497147</range>
			<altitudeMode>absolute</altitudeMode>
		</LookAt>
		<styleUrl>#__managed_style_0DFFD2610A349DBDEE27</styleUrl>
		<Point>
			<coordinates>-1.617086818591458,55.03357770736709,58.3166114104896</coordinates>
		</Point>
	</Placemark>
	<Placemark id="04A1ED9FF6349DC06D5F">
		<name>8</name>
		<LookAt>
			<longitude>-1.616981089329402</longitude>
			<latitude>55.03383711310624</latitude>
			<altitude>58.38594350391273</altitude>
			<heading>0</heading>
			<tilt>0</tilt>
			<gx:fovy>35</gx:fovy>
			<range>74.03057927266673</range>
			<altitudeMode>absolute</altitudeMode>
		</LookAt>
		<styleUrl>#__managed_style_0DFFD2610A349DBDEE27</styleUrl>
		<Point>
			<coordinates>-1.617141908238232,55.03359480272766,58.30242718793004</coordinates>
		</Point>
	</Placemark>
	<Placemark id="09DD83B9B9349DC09022">
		<name>9</name>
		<LookAt>
			<longitude>-1.617208849205731</longitude>
			<latitude>55.03359873255525</latitude>
			<altitude>58.16077031664086</altitude>
			<heading>0</heading>
			<tilt>0</tilt>
			<gx:fovy>35</gx:fovy>
			<range>211.5894402577032</range>
			<altitudeMode>absolute</altitudeMode>
		</LookAt>
		<styleUrl>#__managed_style_0DFFD2610A349DBDEE27</styleUrl>
		<Point>
			<coordinates>-1.617525412153996,55.03301201902225,57.98373498029201</coordinates>
		</Point>
	</Placemark>
	<Placemark id="010EC67598349DC0AD2D">
		<name>10</name>
		<LookAt>
			<longitude>-1.617208849205731</longitude>
			<latitude>55.03359873255525</latitude>
			<altitude>58.16077031664086</altitude>
			<heading>0</heading>
			<tilt>0</tilt>
			<gx:fovy>35</gx:fovy>
			<range>211.5894402577032</range>
			<altitudeMode>absolute</altitudeMode>
		</LookAt>
		<styleUrl>#__managed_style_0DFFD2610A349DBDEE27</styleUrl>
		<Point>
			<coordinates>-1.617597007308721,55.03302361969161,58.1711332442632</coordinates>
		</Point>
	</Placemark>
	<Placemark id="0443B6771B349DC0C9BF">
		<name>11</name>
		<LookAt>
			<longitude>-1.61764569141157</longitude>
			<latitude>55.03303908727035</latitude>
			<altitude>58.15368756962615</altitude>
			<heading>0</heading>
			<tilt>0</tilt>
			<gx:fovy>35</gx:fovy>
			<range>374.8640157699992</range>
			<altitudeMode>absolute</altitudeMode>
		</LookAt>
		<styleUrl>#__managed_style_0DFFD2610A349DBDEE27</styleUrl>
		<Point>
			<coordinates>-1.617604731594362,55.032445550261,57.4455018877353</coordinates>
		</Point>
	</Placemark>
	<Placemark id="0605DEE670349DC0EB56">
		<name>12</name>
		<LookAt>
			<longitude>-1.617457934593367</longitude>
			<latitude>55.03317686777579</latitude>
			<altitude>57.18285990990545</altitude>
			<heading>0</heading>
			<tilt>0</tilt>
			<gx:fovy>35</gx:fovy>
			<range>196.1111149188582</range>
			<altitudeMode>absolute</altitudeMode>
		</LookAt>
		<styleUrl>#__managed_style_0DFFD2610A349DBDEE27</styleUrl>
		<Point>
			<coordinates>-1.61769435406147,55.03245082805932,57.61058154948862</coordinates>
		</Point>
	</Placemark>
	<Placemark id="03BECACC51349DC107CA">
		<name>13</name>
		<LookAt>
			<longitude>-1.61765391903829</longitude>
			<latitude>55.03296002516504</latitude>
			<altitude>56.88412465225345</altitude>
			<heading>0</heading>
			<tilt>0</tilt>
			<gx:fovy>35</gx:fovy>
			<range>158.6238511351621</range>
			<altitudeMode>absolute</altitudeMode>
		</LookAt>
		<styleUrl>#__managed_style_0DFFD2610A349DBDEE27</styleUrl>
		<Point>
			<coordinates>-1.617744469039817,55.03154535994822,56.98270232090078</coordinates>
		</Point>
	</Placemark>
	<Placemark id="0D4ADE3DF9349DC1261F">
		<name>14</name>
		<LookAt>
			<longitude>-1.617592872136646</longitude>
			<latitude>55.03306662608351</latitude>
			<altitude>56.99568884554029</altitude>
			<heading>0</heading>
			<tilt>0</tilt>
			<gx:fovy>35</gx:fovy>
			<range>73.13560524538843</range>
			<altitudeMode>absolute</altitudeMode>
		</LookAt>
		<styleUrl>#__managed_style_0DFFD2610A349DBDEE27</styleUrl>
		<Point>
			<coordinates>-1.617890225696091,55.03155744115076,56.97974964271457</coordinates>
		</Point>
	</Placemark>
	<Placemark id="05FC20E0F9349DC13FB7">
		<name>15</name>
		<LookAt>
			<longitude>-1.617740560596908</longitude>
			<latitude>55.03272208370479</latitude>
			<altitude>57.78996393748319</altitude>
			<heading>0</heading>
			<tilt>0</tilt>
			<gx:fovy>35</gx:fovy>
			<range>124.9335416785834</range>
			<altitudeMode>absolute</altitudeMode>
		</LookAt>
		<styleUrl>#__managed_style_0DFFD2610A349DBDEE27</styleUrl>
		<Point>
			<coordinates>-1.617831713205808,55.03080240073273,56.64302503218694</coordinates>
		</Point>
	</Placemark>
	<Placemark id="0314B106E6349DC15E1F">
		<name>16</name>
		<LookAt>
			<longitude>-1.617738485553301</longitude>
			<latitude>55.03272523017066</latitude>
			<altitude>57.7768022694694</altitude>
			<heading>0</heading>
			<tilt>0</tilt>
			<gx:fovy>35</gx:fovy>
			<range>119.8789476326056</range>
			<altitudeMode>absolute</altitudeMode>
		</LookAt>
		<styleUrl>#__managed_style_0DFFD2610A349DBDEE27</styleUrl>
		<Point>
			<coordinates>-1.6180087406148,55.03081474840985,56.69517749258013</coordinates>
		</Point>
	</Placemark>
	<Placemark id="0283022484349DC1BA16">
		<name>17</name>
		<LookAt>
			<longitude>-1.618487879040555</longitude>
			<latitude>55.02983806892202</latitude>
			<altitude>50.36252161024012</altitude>
			<heading>0</heading>
			<tilt>0</tilt>
			<gx:fovy>35</gx:fovy>
			<range>1255.347083442175</range>
			<altitudeMode>absolute</altitudeMode>
		</LookAt>
		<styleUrl>#__managed_style_0DFFD2610A349DBDEE27</styleUrl>
		<Point>
			<coordinates>-1.617923015522386,55.02974366645711,50.7027062640167</coordinates>
		</Point>
	</Placemark>
	<Placemark id="07ED281B81349DC1CBF1">
		<name>18</name>
		<LookAt>
			<longitude>-1.618280057997811</longitude>
			<latitude>55.02973861035616</latitude>
			<altitude>50.00908227107362</altitude>
			<heading>0</heading>
			<tilt>0</tilt>
			<gx:fovy>35</gx:fovy>
			<range>316.7489666873007</range>
			<altitudeMode>absolute</altitudeMode>
		</LookAt>
		<styleUrl>#__managed_style_0DFFD2610A349DBDEE27</styleUrl>
		<Point>
			<coordinates>-1.618100341538806,55.02974736557638,50.71734836865267</coordinates>
		</Point>
	</Placemark>
	<Placemark id="0A8B1B1ADB349DC1F672">
		<name>19</name>
		<LookAt>
			<longitude>-1.61774644010184</longitude>
			<latitude>55.02868298439697</latitude>
			<altitude>50.99708389249883</altitude>
			<heading>0</heading>
			<tilt>0</tilt>
			<gx:fovy>35</gx:fovy>
			<range>315.7609751593918</range>
			<altitudeMode>absolute</altitudeMode>
		</LookAt>
		<styleUrl>#__managed_style_0DFFD2610A349DBDEE27</styleUrl>
		<Point>
			<coordinates>-1.617906654988178,55.02901992288941,51.05329005192672</coordinates>
		</Point>
	</Placemark>
	<Placemark id="08C692D03C349DC20BBC">
		<name>20</name>
		<LookAt>
			<longitude>-1.617878489412357</longitude>
			<latitude>55.02868470434073</latitude>
			<altitude>51.5247689577635</altitude>
			<heading>0</heading>
			<tilt>0</tilt>
			<gx:fovy>35</gx:fovy>
			<range>104.1226649334385</range>
			<altitudeMode>absolute</altitudeMode>
		</LookAt>
		<styleUrl>#__managed_style_0DFFD2610A349DBDEE27</styleUrl>
		<Point>
			<coordinates>-1.617969691463548,55.02900323702097,51.12186407912724</coordinates>
		</Point>
	</Placemark>
	<Placemark id="02F9078447349DC225F8">
		<name>21</name>
		<LookAt>
			<longitude>-1.617177825560289</longitude>
			<latitude>55.02840268327378</latitude>
			<altitude>50.55098699442558</altitude>
			<heading>0</heading>
			<tilt>0</tilt>
			<gx:fovy>35</gx:fovy>
			<range>105.0964485929399</range>
			<altitudeMode>absolute</altitudeMode>
		</LookAt>
		<styleUrl>#__managed_style_0DFFD2610A349DBDEE27</styleUrl>
		<Point>
			<coordinates>-1.617229240752133,55.02830033009622,50.99364132298689</coordinates>
		</Point>
	</Placemark>
	<Placemark id="0E514C9124349DC236E5">
		<name>22</name>
		<LookAt>
			<longitude>-1.617177825560289</longitude>
			<latitude>55.02840268327378</latitude>
			<altitude>50.55098699442558</altitude>
			<heading>0</heading>
			<tilt>0</tilt>
			<gx:fovy>35</gx:fovy>
			<range>105.0964485929399</range>
			<altitudeMode>absolute</altitudeMode>
		</LookAt>
		<styleUrl>#__managed_style_0DFFD2610A349DBDEE27</styleUrl>
		<Point>
			<coordinates>-1.61729501858851,55.02826825767492,51.22955842674383</coordinates>
		</Point>
	</Placemark>
	<Placemark id="0426593DB0349DC25304">
		<name>23</name>
		<LookAt>
			<longitude>-1.616745365005742</longitude>
			<latitude>55.02814354349168</latitude>
			<altitude>50.46246664407779</altitude>
			<heading>0</heading>
			<tilt>0</tilt>
			<gx:fovy>35</gx:fovy>
			<range>105.1849638448948</range>
			<altitudeMode>absolute</altitudeMode>
		</LookAt>
		<styleUrl>#__managed_style_0DFFD2610A349DBDEE27</styleUrl>
		<Point>
			<coordinates>-1.61626365693467,55.02785985033925,50.78153703957472</coordinates>
		</Point>
	</Placemark>
	<Placemark id="06A2102614349DC2635C">
		<name>24</name>
		<LookAt>
			<longitude>-1.616745365005742</longitude>
			<latitude>55.02814354349168</latitude>
			<altitude>50.46246664407779</altitude>
			<heading>0</heading>
			<tilt>0</tilt>
			<gx:fovy>35</gx:fovy>
			<range>105.1849638448948</range>
			<altitudeMode>absolute</altitudeMode>
		</LookAt>
		<styleUrl>#__managed_style_0DFFD2610A349DBDEE27</styleUrl>
		<Point>
			<coordinates>-1.616320852566591,55.02778261681379,51.08540740159521</coordinates>
		</Point>
	</Placemark>
	<Placemark id="08C08D3EEC349DC27E93">
		<name>25</name>
		<LookAt>
			<longitude>-1.616472429626195</longitude>
			<latitude>55.02802716939911</latitude>
			<altitude>50.37393197748821</altitude>
			<heading>0</heading>
			<tilt>0</tilt>
			<gx:fovy>35</gx:fovy>
			<range>105.2735138632488</range>
			<altitudeMode>absolute</altitudeMode>
		</LookAt>
		<styleUrl>#__managed_style_0DFFD2610A349DBDEE27</styleUrl>
		<Point>
			<coordinates>-1.615087479744077,55.02774421869246,50.49359521251637</coordinates>
		</Point>
	</Placemark>
	<Placemark id="07C37D43AD349DC28DAB">
		<name>26</name>
		<LookAt>
			<longitude>-1.616472429626195</longitude>
			<latitude>55.02802716939911</latitude>
			<altitude>50.37393197748821</altitude>
			<heading>0</heading>
			<tilt>0</tilt>
			<gx:fovy>35</gx:fovy>
			<range>105.2735138632488</range>
			<altitudeMode>absolute</altitudeMode>
		</LookAt>
		<styleUrl>#__managed_style_0DFFD2610A349DBDEE27</styleUrl>
		<Point>
			<coordinates>-1.615118386511313,55.02761411200859,50.72802718584773</coordinates>
		</Point>
	</Placemark>
	<Placemark id="07BA0D29D2349DC2ABF3">
		<name>27</name>
		<LookAt>
			<longitude>-1.615868764065416</longitude>
			<latitude>55.02781498657431</latitude>
			<altitude>50.78143168080594</altitude>
			<heading>0</heading>
			<tilt>0</tilt>
			<gx:fovy>35</gx:fovy>
			<range>104.8659937225057</range>
			<altitudeMode>absolute</altitudeMode>
		</LookAt>
		<styleUrl>#__managed_style_0DFFD2610A349DBDEE27</styleUrl>
		<Point>
			<coordinates>-1.613338091856856,55.02771122390498,49.83061414063134</coordinates>
		</Point>
	</Placemark>
	<Placemark id="098B4D452F349DC2BABA">
		<name>28</name>
		<LookAt>
			<longitude>-1.615868764065416</longitude>
			<latitude>55.02781498657431</latitude>
			<altitude>50.78143168080594</altitude>
			<heading>0</heading>
			<tilt>0</tilt>
			<gx:fovy>35</gx:fovy>
			<range>104.8659937225057</range>
			<altitudeMode>absolute</altitudeMode>
		</LookAt>
		<styleUrl>#__managed_style_0DFFD2610A349DBDEE27</styleUrl>
		<Point>
			<coordinates>-1.613347984467917,55.02753559435354,50.15775797273357</coordinates>
		</Point>
	</Placemark>
	<Placemark id="01D436F9B8349DC30547">
		<name>29</name>
		<LookAt>
			<longitude>-1.613607269884874</longitude>
			<latitude>55.02774420186929</latitude>
			<altitude>48.08640517287986</altitude>
			<heading>0</heading>
			<tilt>0</tilt>
			<gx:fovy>35</gx:fovy>
			<range>192.4667619059256</range>
			<altitudeMode>absolute</altitudeMode>
		</LookAt>
		<styleUrl>#__managed_style_0DFFD2610A349DBDEE27</styleUrl>
		<Point>
			<coordinates>-1.611298922487295,55.0276718878093,47.73227323317468</coordinates>
		</Point>
	</Placemark>
	<Placemark id="09916B7486349DC314A1">
		<name>30</name>
		<LookAt>
			<longitude>-1.613607269884874</longitude>
			<latitude>55.02774420186929</latitude>
			<altitude>48.08640517287986</altitude>
			<heading>0</heading>
			<tilt>0</tilt>
			<gx:fovy>35</gx:fovy>
			<range>192.4667619059256</range>
			<altitudeMode>absolute</altitudeMode>
		</LookAt>
		<styleUrl>#__managed_style_0DFFD2610A349DBDEE27</styleUrl>
		<Point>
			<coordinates>-1.61129634091383,55.02751866414894,47.73791905956658</coordinates>
		</Point>
	</Placemark>
	<Placemark id="0D5AA7C508349DC33A95">
		<name>31</name>
		<LookAt>
			<longitude>-1.61169743020566</longitude>
			<latitude>55.02767737334454</latitude>
			<altitude>47.55523035533522</altitude>
			<heading>0</heading>
			<tilt>0</tilt>
			<gx:fovy>35</gx:fovy>
			<range>192.9979461280527</range>
			<altitudeMode>absolute</altitudeMode>
		</LookAt>
		<styleUrl>#__managed_style_0DFFD2610A349DBDEE27</styleUrl>
		<Point>
			<coordinates>-1.609016713767999,55.02785885069742,47.25726782390719</coordinates>
		</Point>
	</Placemark>
	<Placemark id="06A840518D349DC347DC">
		<name>32</name>
		<LookAt>
			<longitude>-1.61169743020566</longitude>
			<latitude>55.02767737334454</latitude>
			<altitude>47.55523035533522</altitude>
			<heading>0</heading>
			<tilt>0</tilt>
			<gx:fovy>35</gx:fovy>
			<range>192.9979461280527</range>
			<altitudeMode>absolute</altitudeMode>
		</LookAt>
		<styleUrl>#__managed_style_0DFFD2610A349DBDEE27</styleUrl>
		<Point>
			<coordinates>-1.608979951420273,55.02778352079233,47.37818085694126</coordinates>
		</Point>
	</Placemark>
	<Placemark id="07A4D442D2349DC365AF">
		<name>33</name>
		<LookAt>
			<longitude>-1.609461315634322</longitude>
			<latitude>55.02791831445689</latitude>
			<altitude>46.35078023643873</altitude>
			<heading>0</heading>
			<tilt>0</tilt>
			<gx:fovy>35</gx:fovy>
			<range>194.2024164339819</range>
			<altitudeMode>absolute</altitudeMode>
		</LookAt>
		<styleUrl>#__managed_style_0DFFD2610A349DBDEE27</styleUrl>
		<Point>
			<coordinates>-1.607472373809944,55.02815382053677,46.21156783231327</coordinates>
		</Point>
	</Placemark>
	<Placemark id="002DB6791A349DC37113">
		<name>34</name>
		<LookAt>
			<longitude>-1.609461315634322</longitude>
			<latitude>55.02791831445689</latitude>
			<altitude>46.35078023643873</altitude>
			<heading>0</heading>
			<tilt>0</tilt>
			<gx:fovy>35</gx:fovy>
			<range>194.2024164339819</range>
			<altitudeMode>absolute</altitudeMode>
		</LookAt>
		<styleUrl>#__managed_style_0DFFD2610A349DBDEE27</styleUrl>
		<Point>
			<coordinates>-1.607404412191731,55.02807452379705,46.31580764249247</coordinates>
		</Point>
	</Placemark>
	<Placemark id="02EA624BE3349DC386BF">
		<name>35</name>
		<LookAt>
			<longitude>-1.607442309173893</longitude>
			<latitude>55.02841209258834</latitude>
			<altitude>46.42554282979174</altitude>
			<heading>0</heading>
			<tilt>0</tilt>
			<gx:fovy>35</gx:fovy>
			<range>194.1276570872469</range>
			<altitudeMode>absolute</altitudeMode>
		</LookAt>
		<styleUrl>#__managed_style_0DFFD2610A349DBDEE27</styleUrl>
		<Point>
			<coordinates>-1.60579465810687,55.02852340738433,46.13880699898093</coordinates>
		</Point>
	</Placemark>
	<Placemark id="0440CDF0ED349DC399B3">
		<name>36</name>
		<LookAt>
			<longitude>-1.607473955335854</longitude>
			<latitude>55.02841628095781</latitude>
			<altitude>46.42901705630554</altitude>
			<heading>0</heading>
			<tilt>0</tilt>
			<gx:fovy>35</gx:fovy>
			<range>200.0321621129478</range>
			<altitudeMode>absolute</altitudeMode>
		</LookAt>
		<styleUrl>#__managed_style_0DFFD2610A349DBDEE27</styleUrl>
		<Point>
			<coordinates>-1.6057341738968,55.02839796933084,45.96174214599326</coordinates>
		</Point>
	</Placemark>
	<Placemark id="02DC00FD7F349DC3B7A7">
		<name>37</name>
		<LookAt>
			<longitude>-1.605298012305876</longitude>
			<latitude>55.02869035942324</latitude>
			<altitude>48.32315674943406</altitude>
			<heading>0</heading>
			<tilt>0</tilt>
			<gx:fovy>35</gx:fovy>
			<range>198.1380191604694</range>
			<altitudeMode>absolute</altitudeMode>
		</LookAt>
		<styleUrl>#__managed_style_0DFFD2610A349DBDEE27</styleUrl>
		<Point>
			<coordinates>-1.604540502645827,55.02880658261249,47.25551603084386</coordinates>
		</Point>
	</Placemark>
	<Placemark id="0EFDCBCB6B349DC3C4FC">
		<name>38</name>
		<LookAt>
			<longitude>-1.605298012305876</longitude>
			<latitude>55.02869035942324</latitude>
			<altitude>48.32315674943406</altitude>
			<heading>0</heading>
			<tilt>0</tilt>
			<gx:fovy>35</gx:fovy>
			<range>198.1380191604694</range>
			<altitudeMode>absolute</altitudeMode>
		</LookAt>
		<styleUrl>#__managed_style_0DFFD2610A349DBDEE27</styleUrl>
		<Point>
			<coordinates>-1.604444702184443,55.02867156773736,47.37762957128969</coordinates>
		</Point>
	</Placemark>
	<Placemark id="0B879A3D36349DC3E26D">
		<name>39</name>
		<LookAt>
			<longitude>-1.603987250956226</longitude>
			<latitude>55.02927925920751</latitude>
			<altitude>49.45952587156055</altitude>
			<heading>0</heading>
			<tilt>0</tilt>
			<gx:fovy>35</gx:fovy>
			<range>197.0016446414593</range>
			<altitudeMode>absolute</altitudeMode>
		</LookAt>
		<styleUrl>#__managed_style_0DFFD2610A349DBDEE27</styleUrl>
		<Point>
			<coordinates>-1.603438271849612,55.02920740762349,49.13100838049724</coordinates>
		</Point>
	</Placemark>
	<Placemark id="0252B4373F349DC3F0BB">
		<name>40</name>
		<LookAt>
			<longitude>-1.603987250956226</longitude>
			<latitude>55.02927925920751</latitude>
			<altitude>49.45952587156055</altitude>
			<heading>0</heading>
			<tilt>0</tilt>
			<gx:fovy>35</gx:fovy>
			<range>197.0016446414593</range>
			<altitudeMode>absolute</altitudeMode>
		</LookAt>
		<styleUrl>#__managed_style_0DFFD2610A349DBDEE27</styleUrl>
		<Point>
			<coordinates>-1.603364802399918,55.02917035363804,49.30809964214122</coordinates>
		</Point>
	</Placemark>
	<Placemark id="097F258D0D349DC4164C">
		<name>41</name>
		<LookAt>
			<longitude>-1.603342557909768</longitude>
			<latitude>55.02996098826229</latitude>
			<altitude>52.00698326956056</altitude>
			<heading>0</heading>
			<tilt>0</tilt>
			<gx:fovy>35</gx:fovy>
			<range>194.454194695827</range>
			<altitudeMode>absolute</altitudeMode>
		</LookAt>
		<styleUrl>#__managed_style_0DFFD2610A349DBDEE27</styleUrl>
		<Point>
			<coordinates>-1.602862245247285,55.03004705636091,50.69404641604008</coordinates>
		</Point>
	</Placemark>
	<Placemark id="09BB0A6740349DC426F7">
		<name>42</name>
		<LookAt>
			<longitude>-1.603342557909768</longitude>
			<latitude>55.02996098826229</latitude>
			<altitude>52.00698326956056</altitude>
			<heading>0</heading>
			<tilt>0</tilt>
			<gx:fovy>35</gx:fovy>
			<range>194.454194695827</range>
			<altitudeMode>absolute</altitudeMode>
		</LookAt>
		<styleUrl>#__managed_style_0DFFD2610A349DBDEE27</styleUrl>
		<Point>
			<coordinates>-1.60277822270658,55.03004310605643,50.77886032675412</coordinates>
		</Point>
	</Placemark>
	<Placemark id="03C7B94A00349DC4451A">
		<name>43</name>
		<LookAt>
			<longitude>-1.60306563610613</longitude>
			<latitude>55.03054379497752</latitude>
			<altitude>51.84466920723067</altitude>
			<heading>0</heading>
			<tilt>0</tilt>
			<gx:fovy>35</gx:fovy>
			<range>194.6165074241435</range>
			<altitudeMode>absolute</altitudeMode>
		</LookAt>
		<styleUrl>#__managed_style_0DFFD2610A349DBDEE27</styleUrl>
		<Point>
			<coordinates>-1.603065192073919,55.03082619385582,51.78683068925977</coordinates>
		</Point>
	</Placemark>
	<Placemark id="0B5A95D4E4349DC4566C">
		<name>44</name>
		<LookAt>
			<longitude>-1.60306563610613</longitude>
			<latitude>55.03054379497752</latitude>
			<altitude>51.84466920723067</altitude>
			<heading>0</heading>
			<tilt>0</tilt>
			<gx:fovy>35</gx:fovy>
			<range>194.6165074241435</range>
			<altitudeMode>absolute</altitudeMode>
		</LookAt>
		<styleUrl>#__managed_style_0DFFD2610A349DBDEE27</styleUrl>
		<Point>
			<coordinates>-1.602947801170002,55.0308627993738,52.08213971234488</coordinates>
		</Point>
	</Placemark>
	<Placemark id="0664A93D40349DC47845">
		<name>45</name>
		<LookAt>
			<longitude>-1.60367181525106</longitude>
			<latitude>55.03113047163626</latitude>
			<altitude>52.77232930112658</altitude>
			<heading>0</heading>
			<tilt>0</tilt>
			<gx:fovy>35</gx:fovy>
			<range>193.6888587761678</range>
			<altitudeMode>absolute</altitudeMode>
		</LookAt>
		<styleUrl>#__managed_style_0DFFD2610A349DBDEE27</styleUrl>
		<Point>
			<coordinates>-1.603991856111473,55.03133741123325,52.92705891704588</coordinates>
		</Point>
	</Placemark>
	<Placemark id="06D1E9D09C349DC4856C">
		<name>46</name>
		<LookAt>
			<longitude>-1.60367181525106</longitude>
			<latitude>55.03113047163626</latitude>
			<altitude>52.77232930112658</altitude>
			<heading>0</heading>
			<tilt>0</tilt>
			<gx:fovy>35</gx:fovy>
			<range>193.6888587761678</range>
			<altitudeMode>absolute</altitudeMode>
		</LookAt>
		<styleUrl>#__managed_style_0DFFD2610A349DBDEE27</styleUrl>
		<Point>
			<coordinates>-1.603900938663503,55.03146455796372,53.26975450241189</coordinates>
		</Point>
	</Placemark>
	<Placemark id="0A733A931A349DC4AB92">
		<name>47</name>
		<LookAt>
			<longitude>-1.604600013749802</longitude>
			<latitude>55.03145192853849</latitude>
			<altitude>53.02619385813679</altitude>
			<heading>0</heading>
			<tilt>0</tilt>
			<gx:fovy>35</gx:fovy>
			<range>193.4349829415805</range>
			<altitudeMode>absolute</altitudeMode>
		</LookAt>
		<styleUrl>#__managed_style_0DFFD2610A349DBDEE27</styleUrl>
		<Point>
			<coordinates>-1.605200543210961,55.03167468640132,53.02617233143211</coordinates>
		</Point>
	</Placemark>
	<Placemark id="0406967FCC349DC4B833">
		<name>48</name>
		<LookAt>
			<longitude>-1.604600013749802</longitude>
			<latitude>55.03145192853849</latitude>
			<altitude>53.02619385813679</altitude>
			<heading>0</heading>
			<tilt>0</tilt>
			<gx:fovy>35</gx:fovy>
			<range>193.4349829415805</range>
			<altitudeMode>absolute</altitudeMode>
		</LookAt>
		<styleUrl>#__managed_style_0DFFD2610A349DBDEE27</styleUrl>
		<Point>
			<coordinates>-1.605112674176342,55.0317822990653,53.73442918852782</coordinates>
		</Point>
	</Placemark>
	<Placemark id="018327D616349DC4D84C">
		<name>49</name>
		<LookAt>
			<longitude>-1.606062561441037</longitude>
			<latitude>55.0317753909044</latitude>
			<altitude>54.08531036665346</altitude>
			<heading>0</heading>
			<tilt>0</tilt>
			<gx:fovy>35</gx:fovy>
			<range>192.3758709500362</range>
			<altitudeMode>absolute</altitudeMode>
		</LookAt>
		<styleUrl>#__managed_style_0DFFD2610A349DBDEE27</styleUrl>
		<Point>
			<coordinates>-1.606474208827515,55.03203022306142,53.55736844367909</coordinates>
		</Point>
	</Placemark>
	<Placemark id="0233CDC2DF349DC4E7A9">
		<name>50</name>
		<LookAt>
			<longitude>-1.606062561441037</longitude>
			<latitude>55.0317753909044</latitude>
			<altitude>54.08531036665346</altitude>
			<heading>0</heading>
			<tilt>0</tilt>
			<gx:fovy>35</gx:fovy>
			<range>192.3758709500362</range>
			<altitudeMode>absolute</altitudeMode>
		</LookAt>
		<styleUrl>#__managed_style_0DFFD2610A349DBDEE27</styleUrl>
		<Point>
			<coordinates>-1.606379297883631,55.03214928030661,53.91148514903567</coordinates>
		</Point>
	</Placemark>
	<Placemark id="0B2C07EE10349DC582BA">
		<name>51</name>
		<LookAt>
			<longitude>-1.606380226999405</longitude>
			<latitude>55.03214310306132</latitude>
			<altitude>54.44263074701765</altitude>
			<heading>0</heading>
			<tilt>0</tilt>
			<gx:fovy>35</gx:fovy>
			<range>196.0905332106267</range>
			<altitudeMode>absolute</altitudeMode>
		</LookAt>
		<styleUrl>#__managed_style_0DFFD2610A349DBDEE27</styleUrl>
		<Point>
			<coordinates>-1.607482946451766,55.03228999568718,54.44267692538531</coordinates>
		</Point>
	</Placemark>
	<Placemark id="03220D4E3F349DC59651">
		<name>52</name>
		<LookAt>
			<longitude>-1.606380226999405</longitude>
			<latitude>55.03214310306132</latitude>
			<altitude>54.44263074701765</altitude>
			<heading>0</heading>
			<tilt>0</tilt>
			<gx:fovy>35</gx:fovy>
			<range>196.0905332106267</range>
			<altitudeMode>absolute</altitudeMode>
		</LookAt>
		<styleUrl>#__managed_style_0DFFD2610A349DBDEE27</styleUrl>
		<Point>
			<coordinates>-1.607382792869009,55.03240339764949,54.98161550168366</coordinates>
		</Point>
	</Placemark>
	<Placemark id="0CCC20409F349DC5AEDD">
		<name>53</name>
		<LookAt>
			<longitude>-1.608280804224845</longitude>
			<latitude>55.03255694956991</latitude>
			<altitude>55.6820109666518</altitude>
			<heading>0</heading>
			<tilt>0</tilt>
			<gx:fovy>35</gx:fovy>
			<range>194.8511806176612</range>
			<altitudeMode>absolute</altitudeMode>
		</LookAt>
		<styleUrl>#__managed_style_0DFFD2610A349DBDEE27</styleUrl>
		<Point>
			<coordinates>-1.608605249766208,55.0325928901111,55.52381219997716</coordinates>
		</Point>
	</Placemark>
	<Placemark id="0DB6FC33F1349DC5CF49">
		<name>54</name>
		<LookAt>
			<longitude>-1.608280804224845</longitude>
			<latitude>55.03255694956991</latitude>
			<altitude>55.6820109666518</altitude>
			<heading>0</heading>
			<tilt>0</tilt>
			<gx:fovy>35</gx:fovy>
			<range>194.8511806176612</range>
			<altitudeMode>absolute</altitudeMode>
		</LookAt>
		<styleUrl>#__managed_style_0DFFD2610A349DBDEE27</styleUrl>
		<Point>
			<coordinates>-1.608519841272601,55.03271208876927,55.68203369014903</coordinates>
		</Point>
	</Placemark>
	<Placemark id="0402D670C3349DC603C1">
		<name>55</name>
		<LookAt>
			<longitude>-1.609590478473426</longitude>
			<latitude>55.03276488662448</latitude>
			<altitude>56.27140746534464</altitude>
			<heading>0</heading>
			<tilt>0</tilt>
			<gx:fovy>35</gx:fovy>
			<range>194.2617742659422</range>
			<altitudeMode>absolute</altitudeMode>
		</LookAt>
		<styleUrl>#__managed_style_0DFFD2610A349DBDEE27</styleUrl>
		<Point>
			<coordinates>-1.609790304459284,55.03292321591136,56.21316272259826</coordinates>
		</Point>
	</Placemark>
	<Placemark id="0E41AD23AC349DC60F9E">
		<name>56</name>
		<LookAt>
			<longitude>-1.609590478473426</longitude>
			<latitude>55.03276488662448</latitude>
			<altitude>56.27140746534464</altitude>
			<heading>0</heading>
			<tilt>0</tilt>
			<gx:fovy>35</gx:fovy>
			<range>194.2617742659422</range>
			<altitudeMode>absolute</altitudeMode>
		</LookAt>
		<styleUrl>#__managed_style_0DFFD2610A349DBDEE27</styleUrl>
		<Point>
			<coordinates>-1.609697939222086,55.03301630874293,56.3902464187026</coordinates>
		</Point>
	</Placemark>
	<Placemark id="0056BB278A349DC6245E">
		<name>57</name>
		<LookAt>
			<longitude>-1.611358767417317</longitude>
			<latitude>55.03309722444124</latitude>
			<altitude>56.98023776855909</altitude>
			<heading>0</heading>
			<tilt>0</tilt>
			<gx:fovy>35</gx:fovy>
			<range>193.5529569223218</range>
			<altitudeMode>absolute</altitudeMode>
		</LookAt>
		<styleUrl>#__managed_style_0DFFD2610A349DBDEE27</styleUrl>
		<Point>
			<coordinates>-1.611181695962058,55.0333006153242,57.12582283127707</coordinates>
		</Point>
	</Placemark>
	<Placemark id="036F45C8B4349DC62FB4">
		<name>58</name>
		<LookAt>
			<longitude>-1.611358767417317</longitude>
			<latitude>55.03309722444124</latitude>
			<altitude>56.98023776855909</altitude>
			<heading>0</heading>
			<tilt>0</tilt>
			<gx:fovy>35</gx:fovy>
			<range>193.5529569223218</range>
			<altitudeMode>absolute</altitudeMode>
		</LookAt>
		<styleUrl>#__managed_style_0DFFD2610A349DBDEE27</styleUrl>
		<Point>
			<coordinates>-1.611102707778694,55.03341979133874,57.57847377557514</coordinates>
		</Point>
	</Placemark>
	<Placemark id="0D5EE57DAD349DC6438D">
		<name>59</name>
		<LookAt>
			<longitude>-1.613180907463345</longitude>
			<latitude>55.03351896086119</latitude>
			<altitude>59.05502116999929</altitude>
			<heading>0</heading>
			<tilt>0</tilt>
			<gx:fovy>35</gx:fovy>
			<range>191.478179349233</range>
			<altitudeMode>absolute</altitudeMode>
		</LookAt>
		<styleUrl>#__managed_style_0DFFD2610A349DBDEE27</styleUrl>
		<Point>
			<coordinates>-1.612630840385388,55.03373260260981,59.22307794657524</coordinates>
		</Point>
	</Placemark>
	<Placemark id="02E06DC05C349DC652E9">
		<name>60</name>
		<LookAt>
			<longitude>-1.613180907463345</longitude>
			<latitude>55.03351896086119</latitude>
			<altitude>59.05502116999929</altitude>
			<heading>0</heading>
			<tilt>0</tilt>
			<gx:fovy>35</gx:fovy>
			<range>191.478179349233</range>
			<altitudeMode>absolute</altitudeMode>
		</LookAt>
		<styleUrl>#__managed_style_0DFFD2610A349DBDEE27</styleUrl>
		<Point>
			<coordinates>-1.612555709103373,55.03381400194541,59.39016761433476</coordinates>
		</Point>
	</Placemark>
	<Placemark id="03C993FFBD349DC708BD">
		<name>WTX</name>
		<LookAt>
			<longitude>-1.613602826251332</longitude>
			<latitude>55.03347440790299</latitude>
			<altitude>59.40100393989715</altitude>
			<heading>0</heading>
			<tilt>0</tilt>
			<gx:fovy>35</gx:fovy>
			<range>47.15975113731475</range>
			<altitudeMode>absolute</altitudeMode>
		</LookAt>
		<styleUrl>#__managed_style_0DFFD2610A349DBDEE27</styleUrl>
		<Point>
			<coordinates>-1.613612746624695,55.03343618141886,60.65573151307729</coordinates>
		</Point>
	</Placemark>
</Document>
</kml>
