<?xml version="1.0" encoding="UTF-8"?>
<kml xmlns="http://www.opengis.net/kml/2.2" xmlns:gx="http://www.google.com/kml/ext/2.2" xmlns:kml="http://www.opengis.net/kml/2.2" xmlns:atom="http://www.w3.org/2005/Atom">
<Document id="1VUTdK-dPOyCW0XQLfsqfJWfohgd-cTyM">
	<name>Aintree</name>
	<gx:CascadingStyle kml:id="__managed_style_0D8BE3B7B63B2815523F">
		<Style>
			<IconStyle>
				<scale>1.2</scale>
				<Icon>
					<href>https://earth.google.com/earth/document/icon?color=1976d2&amp;id=2000&amp;scale=4</href>
				</Icon>
				<hotSpot x="64" y="128" xunits="pixels" yunits="insetPixels"/>
			</IconStyle>
			<LabelStyle>
			</LabelStyle>
			<LineStyle>
				<color>ff2dc0fb</color>
				<width>6</width>
			</LineStyle>
			<PolyStyle>
				<color>40ffffff</color>
			</PolyStyle>
			<BalloonStyle>
			</BalloonStyle>
		</Style>
	</gx:CascadingStyle>
	<gx:CascadingStyle kml:id="__managed_style_1E67CE9DCF3B2815523C">
		<Style>
			<IconStyle>
				<Icon>
					<href>https://earth.google.com/earth/document/icon?color=1976d2&amp;id=2000&amp;scale=4</href>
				</Icon>
				<hotSpot x="64" y="128" xunits="pixels" yunits="insetPixels"/>
			</IconStyle>
			<LabelStyle>
			</LabelStyle>
			<LineStyle>
				<color>ff2dc0fb</color>
				<width>4</width>
			</LineStyle>
			<PolyStyle>
				<color>40ffffff</color>
			</PolyStyle>
			<BalloonStyle>
			</BalloonStyle>
		</Style>
	</gx:CascadingStyle>
	<StyleMap id="__managed_style_0948DBD1D33B2815523C">
		<Pair>
			<key>normal</key>
			<styleUrl>#__managed_style_1E67CE9DCF3B2815523C</styleUrl>
		</Pair>
		<Pair>
			<key>highlight</key>
			<styleUrl>#__managed_style_0D8BE3B7B63B2815523F</styleUrl>
		</Pair>
	</StyleMap>
	<Placemark id="05C8C643983B2214ED88">
		<name>1</name>
		<LookAt>
			<longitude>-2.950730668875365</longitude>
			<latitude>53.47391433779078</latitude>
			<altitude>25.33784648925078</altitude>
			<heading>24.83011316641493</heading>
			<tilt>0</tilt>
			<gx:fovy>34.99997627834517</gx:fovy>
			<range>369.3275826109311</range>
			<altitudeMode>absolute</altitudeMode>
		</LookAt>
		<styleUrl>#__managed_style_0948DBD1D33B2815523C</styleUrl>
		<Point>
			<coordinates>-2.951007330366702,53.47326747121598,25.97970929091329</coordinates>
		</Point>
	</Placemark>
	<Placemark id="08FD10CE043B218ADC84">
		<name>2</name>
		<LookAt>
			<longitude>-2.951036340525087</longitude>
			<latitude>53.47392404856176</latitude>
			<altitude>25.82797087122681</altitude>
			<heading>24.81219982557579</heading>
			<tilt>0</tilt>
			<gx:fovy>34.99997627834517</gx:fovy>
			<range>167.8382448262346</range>
			<altitudeMode>absolute</altitudeMode>
		</LookAt>
		<styleUrl>#__managed_style_0948DBD1D33B2815523C</styleUrl>
		<Point>
			<coordinates>-2.950804815630051,53.4735999619777,25.55635137480529</coordinates>
		</Point>
	</Placemark>
	<Placemark id="010567EFF63B22290423">
		<name>3</name>
		<LookAt>
			<longitude>-2.949631872623209</longitude>
			<latitude>53.47332274558897</latitude>
			<altitude>25.22433080830339</altitude>
			<heading>24.83522766878704</heading>
			<tilt>0</tilt>
			<gx:fovy>34.99997627834517</gx:fovy>
			<range>230.7555534306812</range>
			<altitudeMode>absolute</altitudeMode>
		</LookAt>
		<styleUrl>#__managed_style_0948DBD1D33B2815523C</styleUrl>
		<Point>
			<coordinates>-2.94997851498995,53.47327789158894,25.40855323047422</coordinates>
		</Point>
	</Placemark>
	<Placemark id="0D278A79C33B218B4B67">
		<name>4</name>
		<LookAt>
			<longitude>-2.949980107791461</longitude>
			<latitude>53.47351569250038</latitude>
			<altitude>25.1313696120937</altitude>
			<heading>24.81315899030131</heading>
			<tilt>0</tilt>
			<gx:fovy>34.99997627834517</gx:fovy>
			<range>234.8355062459814</range>
			<altitudeMode>absolute</altitudeMode>
		</LookAt>
		<styleUrl>#__managed_style_0948DBD1D33B2815523C</styleUrl>
		<Point>
			<coordinates>-2.949883229866159,53.4735860141685,25.04011804535183</coordinates>
		</Point>
	</Placemark>
	<Placemark id="0B77B10CD33B22292900">
		<name>5</name>
		<LookAt>
			<longitude>-2.948311039176374</longitude>
			<latitude>53.47333328848318</latitude>
			<altitude>24.59963619233597</altitude>
			<heading>24.83628905942391</heading>
			<tilt>0</tilt>
			<gx:fovy>34.99997627834517</gx:fovy>
			<range>231.380259266225</range>
			<altitudeMode>absolute</altitudeMode>
		</LookAt>
		<styleUrl>#__managed_style_0948DBD1D33B2815523C</styleUrl>
		<Point>
			<coordinates>-2.948951635092926,53.47338012250422,25.04011845842916</coordinates>
		</Point>
	</Placemark>
	<Placemark id="0C3794209E3B218B6F36">
		<name>6</name>
		<LookAt>
			<longitude>-2.9489754025599</longitude>
			<latitude>53.47347213424367</latitude>
			<altitude>25.04012980532396</altitude>
			<heading>24.81383673982643</heading>
			<tilt>0</tilt>
			<gx:fovy>34.99997627834517</gx:fovy>
			<range>249.0029529202366</range>
			<altitudeMode>absolute</altitudeMode>
		</LookAt>
		<styleUrl>#__managed_style_0948DBD1D33B2815523C</styleUrl>
		<Point>
			<coordinates>-2.949022458908058,53.47362954841503,25.61455958142749</coordinates>
		</Point>
	</Placemark>
	<Placemark id="0C6B0F98DE3B22295E30">
		<name>7</name>
		<LookAt>
			<longitude>-2.947715962086209</longitude>
			<latitude>53.47354785652543</latitude>
			<altitude>24.11913951125806</altitude>
			<heading>24.83676725119853</heading>
			<tilt>0</tilt>
			<gx:fovy>34.99997627834517</gx:fovy>
			<range>231.8607540785525</range>
			<altitudeMode>absolute</altitudeMode>
		</LookAt>
		<styleUrl>#__managed_style_0948DBD1D33B2815523C</styleUrl>
		<Point>
			<coordinates>-2.947862181311617,53.47362731627058,24.25491287400469</coordinates>
		</Point>
	</Placemark>
	<Placemark id="0F263851283B218BB0B1">
		<name>8</name>
		<LookAt>
			<longitude>-2.948083426719092</longitude>
			<latitude>53.47371575502799</latitude>
			<altitude>24.48750690784385</altitude>
			<heading>24.81455351499681</heading>
			<tilt>0</tilt>
			<gx:fovy>34.99997627834517</gx:fovy>
			<range>249.5555532441722</range>
			<altitudeMode>absolute</altitudeMode>
		</LookAt>
		<styleUrl>#__managed_style_0948DBD1D33B2815523C</styleUrl>
		<Point>
			<coordinates>-2.948228265578078,53.4738783271625,25.44240568459888</coordinates>
		</Point>
	</Placemark>
	<Placemark id="0702300D6C3B2229AA5B">
		<name>9</name>
		<LookAt>
			<longitude>-2.947172992550477</longitude>
			<latitude>53.47394764841472</latitude>
			<altitude>23.56647340051332</altitude>
			<heading>24.83720357261834</heading>
			<tilt>0</tilt>
			<gx:fovy>34.99997627834517</gx:fovy>
			<range>232.4134239352861</range>
			<altitudeMode>absolute</altitudeMode>
		</LookAt>
		<styleUrl>#__managed_style_0948DBD1D33B2815523C</styleUrl>
		<Point>
			<coordinates>-2.947226968803114,53.47399709830081,23.56645619697414</coordinates>
		</Point>
	</Placemark>
	<Placemark id="07E7D1CF453B218BEB6C">
		<name>10</name>
		<LookAt>
			<longitude>-2.947646858236946</longitude>
			<latitude>53.47406921020806</latitude>
			<altitude>23.74360436002066</altitude>
			<heading>24.81490433344445</heading>
			<tilt>0</tilt>
			<gx:fovy>34.99997627834517</gx:fovy>
			<range>250.2994614732233</range>
			<altitudeMode>absolute</altitudeMode>
		</LookAt>
		<styleUrl>#__managed_style_0948DBD1D33B2815523C</styleUrl>
		<Point>
			<coordinates>-2.94769921683908,53.47421677163587,24.92363980631382</coordinates>
		</Point>
	</Placemark>
	<Placemark id="0E653061983B2229CBC0">
		<name>11</name>
		<LookAt>
			<longitude>-2.946518516172614</longitude>
			<latitude>53.47437064374977</latitude>
			<altitude>22.92132074770672</altitude>
			<heading>24.83772949962614</heading>
			<tilt>0</tilt>
			<gx:fovy>34.99997627834517</gx:fovy>
			<range>233.0585260582666</range>
			<altitudeMode>absolute</altitudeMode>
		</LookAt>
		<styleUrl>#__managed_style_0948DBD1D33B2815523C</styleUrl>
		<Point>
			<coordinates>-2.946619299338327,53.47433253664163,24.07829299867073</coordinates>
		</Point>
	</Placemark>
	<Placemark id="05397EA7553B218C292B">
		<name>12</name>
		<LookAt>
			<longitude>-2.946887905568365</longitude>
			<latitude>53.47451302606974</latitude>
			<altitude>22.82959828270851</altitude>
			<heading>24.81551421577598</heading>
			<tilt>0</tilt>
			<gx:fovy>34.99997627834517</gx:fovy>
			<range>251.2134701039759</range>
			<altitudeMode>absolute</altitudeMode>
		</LookAt>
		<styleUrl>#__managed_style_0948DBD1D33B2815523C</styleUrl>
		<Point>
			<coordinates>-2.947150593363111,53.47456872828358,23.0322591825917</coordinates>
		</Point>
	</Placemark>
	<Placemark id="077E89A3BE3B2229FBCC">
		<name>13</name>
		<LookAt>
			<longitude>-2.946212834753506</longitude>
			<latitude>53.47473302199537</latitude>
			<altitude>22.56398237018561</altitude>
			<heading>24.83797514246819</heading>
			<tilt>0</tilt>
			<gx:fovy>34.99997627834517</gx:fovy>
			<range>233.4159014627949</range>
			<altitudeMode>absolute</altitudeMode>
		</LookAt>
		<styleUrl>#__managed_style_0948DBD1D33B2815523C</styleUrl>
		<Point>
			<coordinates>-2.946143559710305,53.47466186125848,22.64542990717975</coordinates>
		</Point>
	</Placemark>
	<Placemark id="0248424EC33B218C5907">
		<name>14</name>
		<LookAt>
			<longitude>-2.946164923959924</longitude>
			<latitude>53.47482511687551</latitude>
			<altitude>22.40347403014528</altitude>
			<heading>24.81609519749807</heading>
			<tilt>0</tilt>
			<gx:fovy>34.99997627834517</gx:fovy>
			<range>251.6395902682052</range>
			<altitudeMode>absolute</altitudeMode>
		</LookAt>
		<styleUrl>#__managed_style_0948DBD1D33B2815523C</styleUrl>
		<Point>
			<coordinates>-2.946632081214224,53.47488994776133,23.47166282313518</coordinates>
		</Point>
	</Placemark>
	<Placemark id="05ACCCFFEE3B222A3E48">
		<name>15</name>
		<LookAt>
			<longitude>-2.946036300208354</longitude>
			<latitude>53.47486114148577</latitude>
			<altitude>22.2770118194979</altitude>
			<heading>24.8381170035325</heading>
			<tilt>0</tilt>
			<gx:fovy>34.99997627834517</gx:fovy>
			<range>233.7028633204682</range>
			<altitudeMode>absolute</altitudeMode>
		</LookAt>
		<styleUrl>#__managed_style_0948DBD1D33B2815523C</styleUrl>
		<Point>
			<coordinates>-2.945594955134607,53.47492087348942,22.09284168273188</coordinates>
		</Point>
	</Placemark>
	<Placemark id="0A8BD6E14F3B218D48CF">
		<name>16</name>
		<LookAt>
			<longitude>-2.945947522972982</longitude>
			<latitude>53.47536880790403</latitude>
			<altitude>21.54692150112071</altitude>
			<heading>24.81631681027943</heading>
			<tilt>0</tilt>
			<gx:fovy>34.99997627834517</gx:fovy>
			<range>311.3840941186936</range>
			<altitudeMode>absolute</altitudeMode>
		</LookAt>
		<styleUrl>#__managed_style_0948DBD1D33B2815523C</styleUrl>
		<Point>
			<coordinates>-2.946171225214233,53.47516884560848,23.01383815456733</coordinates>
		</Point>
	</Placemark>
	<Placemark id="08D7CB6E8A3B222A8787">
		<name>17</name>
		<LookAt>
			<longitude>-2.945595144046433</longitude>
			<latitude>53.4752574156024</latitude>
			<altitude>21.72448578016433</altitude>
			<heading>24.83857421173647</heading>
			<tilt>0</tilt>
			<gx:fovy>34.99997627834517</gx:fovy>
			<range>322.3546313356565</range>
			<altitudeMode>absolute</altitudeMode>
		</LookAt>
		<styleUrl>#__managed_style_0948DBD1D33B2815523C</styleUrl>
		<Point>
			<coordinates>-2.945132822982711,53.47524979624173,22.15271858455584</coordinates>
		</Point>
	</Placemark>
	<Placemark id="00328BDB2C3B218D7DF3">
		<name>18</name>
		<LookAt>
			<longitude>-2.945947522972982</longitude>
			<latitude>53.47536880790403</latitude>
			<altitude>21.54692150112071</altitude>
			<heading>24.81631681027943</heading>
			<tilt>0</tilt>
			<gx:fovy>34.99997627834517</gx:fovy>
			<range>311.3840941186936</range>
			<altitudeMode>absolute</altitudeMode>
		</LookAt>
		<styleUrl>#__managed_style_0948DBD1D33B2815523C</styleUrl>
		<Point>
			<coordinates>-2.945646745653101,53.47549706264668,21.35593946592235</coordinates>
		</Point>
	</Placemark>
	<Placemark id="09D0F115DA3B222CA99F">
		<name>19</name>
		<LookAt>
			<longitude>-2.943861862896516</longitude>
			<latitude>53.47540911257162</latitude>
			<altitude>19.8822148750589</altitude>
			<heading>24.83857454308247</heading>
			<tilt>0</tilt>
			<gx:fovy>34.99997627834517</gx:fovy>
			<range>387.9068621457191</range>
			<altitudeMode>absolute</altitudeMode>
		</LookAt>
		<styleUrl>#__managed_style_0948DBD1D33B2815523C</styleUrl>
		<Point>
			<coordinates>-2.944579142443754,53.47567479473952,20.62131636368385</coordinates>
		</Point>
	</Placemark>
	<Placemark id="0973AA9D2F3B218DD3FE">
		<name>20</name>
		<LookAt>
			<longitude>-2.945064462181941</longitude>
			<latitude>53.47587625264296</latitude>
			<altitude>22.06756652194724</altitude>
			<heading>24.81702643793904</heading>
			<tilt>0</tilt>
			<gx:fovy>34.99997627834517</gx:fovy>
			<range>310.8634557042751</range>
			<altitudeMode>absolute</altitudeMode>
		</LookAt>
		<styleUrl>#__managed_style_0948DBD1D33B2815523C</styleUrl>
		<Point>
			<coordinates>-2.945019440626897,53.47589124250977,20.98759562889099</coordinates>
		</Point>
	</Placemark>
	<Placemark id="0C371A2EA93B222CD597">
		<name>21</name>
		<LookAt>
			<longitude>-2.94334517073478</longitude>
			<latitude>53.47592134220626</latitude>
			<altitude>19.9505015404863</altitude>
			<heading>24.83898976260642</heading>
			<tilt>0</tilt>
			<gx:fovy>34.99997627834517</gx:fovy>
			<range>387.8385809380052</range>
			<altitudeMode>absolute</altitudeMode>
		</LookAt>
		<styleUrl>#__managed_style_0948DBD1D33B2815523C</styleUrl>
		<Point>
			<coordinates>-2.944098733017793,53.47601630704585,20.48424403824088</coordinates>
		</Point>
	</Placemark>
	<Placemark id="0C75E1B4073B218E28EC">
		<name>22</name>
		<LookAt>
			<longitude>-2.944580078400786</longitude>
			<latitude>53.47641283865983</latitude>
			<altitude>20.01834029003526</altitude>
			<heading>24.81741568827518</heading>
			<tilt>0</tilt>
			<gx:fovy>34.99997627834517</gx:fovy>
			<range>312.9126799740698</range>
			<altitudeMode>absolute</altitudeMode>
		</LookAt>
		<styleUrl>#__managed_style_0948DBD1D33B2815523C</styleUrl>
		<Point>
			<coordinates>-2.944481248286953,53.47622655799647,21.27924890202377</coordinates>
		</Point>
	</Placemark>
	<Placemark id="0538B641453B222CE9F3">
		<name>23</name>
		<LookAt>
			<longitude>-2.94334517073478</longitude>
			<latitude>53.47592134220626</latitude>
			<altitude>19.9505015404863</altitude>
			<heading>24.83898976260642</heading>
			<tilt>0</tilt>
			<gx:fovy>34.99997627834517</gx:fovy>
			<range>387.8385809380052</range>
			<altitudeMode>absolute</altitudeMode>
		</LookAt>
		<styleUrl>#__managed_style_0948DBD1D33B2815523C</styleUrl>
		<Point>
			<coordinates>-2.943574958801315,53.47633763917433,21.17177962496737</coordinates>
		</Point>
	</Placemark>
	<Placemark id="092567F5C23B218E49CE">
		<name>24</name>
		<LookAt>
			<longitude>-2.944580078400786</longitude>
			<latitude>53.47641283865983</latitude>
			<altitude>20.01834029003526</altitude>
			<heading>24.81741568827518</heading>
			<tilt>0</tilt>
			<gx:fovy>34.99997627834517</gx:fovy>
			<range>312.9126799740698</range>
			<altitudeMode>absolute</altitudeMode>
		</LookAt>
		<styleUrl>#__managed_style_0948DBD1D33B2815523C</styleUrl>
		<Point>
			<coordinates>-2.943973251804094,53.47655024670639,19.88224907135464</coordinates>
		</Point>
	</Placemark>
	<Placemark id="03E76AABFB3B222D086E">
		<name>25</name>
		<LookAt>
			<longitude>-2.942679616355152</longitude>
			<latitude>53.47674304571758</latitude>
			<altitude>19.43097177752976</altitude>
			<heading>24.83952460162243</heading>
			<tilt>0</tilt>
			<gx:fovy>34.99997627834517</gx:fovy>
			<range>388.3581531828531</range>
			<altitudeMode>absolute</altitudeMode>
		</LookAt>
		<styleUrl>#__managed_style_0948DBD1D33B2815523C</styleUrl>
		<Point>
			<coordinates>-2.943007019954523,53.47670200681838,19.69810387059593</coordinates>
		</Point>
	</Placemark>
	<Placemark id="0CD0AEACD33B218EA4AE">
		<name>26</name>
		<LookAt>
			<longitude>-2.943944675134703</longitude>
			<latitude>53.47678199023357</latitude>
			<altitude>19.64526484313948</altitude>
			<heading>24.81792630379631</heading>
			<tilt>0</tilt>
			<gx:fovy>34.99997627834517</gx:fovy>
			<range>313.2857466133647</range>
			<altitudeMode>absolute</altitudeMode>
		</LookAt>
		<styleUrl>#__managed_style_0948DBD1D33B2815523C</styleUrl>
		<Point>
			<coordinates>-2.943376195734979,53.47691668990768,20.6191328369051</coordinates>
		</Point>
	</Placemark>
	<Placemark id="00DF112EC93B222D25BC">
		<name>27</name>
		<LookAt>
			<longitude>-2.942679616355152</longitude>
			<latitude>53.47674304571758</latitude>
			<altitude>19.43097177752976</altitude>
			<heading>24.83952460162243</heading>
			<tilt>0</tilt>
			<gx:fovy>34.99997627834517</gx:fovy>
			<range>388.3581531828531</range>
			<altitudeMode>absolute</altitudeMode>
		</LookAt>
		<styleUrl>#__managed_style_0948DBD1D33B2815523C</styleUrl>
		<Point>
			<coordinates>-2.942359521120333,53.47704107222743,19.32118168206755</coordinates>
		</Point>
	</Placemark>
	<Placemark id="09C5622BB23B218EC4A4">
		<name>28</name>
		<LookAt>
			<longitude>-2.943290236670943</longitude>
			<latitude>53.47715205652861</latitude>
			<altitude>19.14543620939655</altitude>
			<heading>24.81822309696172</heading>
			<tilt>0</tilt>
			<gx:fovy>34.99997627834517</gx:fovy>
			<range>251.3919607966454</range>
			<altitudeMode>absolute</altitudeMode>
		</LookAt>
		<styleUrl>#__managed_style_0948DBD1D33B2815523C</styleUrl>
		<Point>
			<coordinates>-2.942820581462628,53.47729413694587,20.35910938457792</coordinates>
		</Point>
	</Placemark>
	<Placemark id="02A6AF90793B222D5788">
		<name>29</name>
		<LookAt>
			<longitude>-2.941877445260342</longitude>
			<latitude>53.4773115819191</latitude>
			<altitude>19.25483788060406</altitude>
			<heading>24.83997614452617</heading>
			<tilt>0</tilt>
			<gx:fovy>34.99997627834517</gx:fovy>
			<range>120.4128204562585</range>
			<altitudeMode>absolute</altitudeMode>
		</LookAt>
		<styleUrl>#__managed_style_0948DBD1D33B2815523C</styleUrl>
		<Point>
			<coordinates>-2.941696894098901,53.47731978878784,18.98922448332601</coordinates>
		</Point>
	</Placemark>
	<Placemark id="04E4E701C23B218F1730">
		<name>30</name>
		<LookAt>
			<longitude>-2.942094977894768</longitude>
			<latitude>53.47764722215041</latitude>
			<altitude>19.14547095881981</altitude>
			<heading>24.81918362814635</heading>
			<tilt>0</tilt>
			<gx:fovy>34.99997627834517</gx:fovy>
			<range>251.3919376190461</range>
			<altitudeMode>absolute</altitudeMode>
		</LookAt>
		<styleUrl>#__managed_style_0948DBD1D33B2815523C</styleUrl>
		<Point>
			<coordinates>-2.942278376802838,53.47761077501649,19.14544688150406</coordinates>
		</Point>
	</Placemark>
	<Placemark id="00A20493323B222DC6B8">
		<name>31</name>
		<LookAt>
			<longitude>-2.941915041440042</longitude>
			<latitude>53.47777661546495</latitude>
			<altitude>19.07182763527963</altitude>
			<heading>24.84029140630189</heading>
			<tilt>0</tilt>
			<gx:fovy>34.99997627834517</gx:fovy>
			<range>221.5186542906304</range>
			<altitudeMode>absolute</altitudeMode>
		</LookAt>
		<styleUrl>#__managed_style_0948DBD1D33B2815523C</styleUrl>
		<Point>
			<coordinates>-2.941207409474957,53.47775400306759,19.00722743889454</coordinates>
		</Point>
	</Placemark>
	<Placemark id="05020E8F943B218F4D4C">
		<name>32</name>
		<LookAt>
			<longitude>-2.94158565927354</longitude>
			<latitude>53.47799289150031</latitude>
			<altitude>18.5933487025786</altitude>
			<heading>24.8194526726464</heading>
			<tilt>0</tilt>
			<gx:fovy>34.99997627834517</gx:fovy>
			<range>200.4916116650566</range>
			<altitudeMode>absolute</altitudeMode>
		</LookAt>
		<styleUrl>#__managed_style_0948DBD1D33B2815523C</styleUrl>
		<Point>
			<coordinates>-2.941722706870191,53.47798675332783,19.7666049811594</coordinates>
		</Point>
	</Placemark>
	<Placemark id="05459396553B222DE047">
		<name>33</name>
		<LookAt>
			<longitude>-2.941425688647594</longitude>
			<latitude>53.47832530537829</latitude>
			<altitude>18.22440672249677</altitude>
			<heading>24.84068465982356</heading>
			<tilt>0</tilt>
			<gx:fovy>34.99997627834517</gx:fovy>
			<range>222.3660736784223</range>
			<altitudeMode>absolute</altitudeMode>
		</LookAt>
		<styleUrl>#__managed_style_0948DBD1D33B2815523C</styleUrl>
		<Point>
			<coordinates>-2.94075557757867,53.47813918551374,18.59283416241918</coordinates>
		</Point>
	</Placemark>
	<Placemark id="034694F83E3B218F9668">
		<name>34</name>
		<LookAt>
			<longitude>-2.941072874376116</longitude>
			<latitude>53.47845535953277</latitude>
			<altitude>17.98824709566235</altitude>
			<heading>24.81986475896827</heading>
			<tilt>0</tilt>
			<gx:fovy>34.99997627834517</gx:fovy>
			<range>201.0967324291414</range>
			<altitudeMode>absolute</altitudeMode>
		</LookAt>
		<styleUrl>#__managed_style_0948DBD1D33B2815523C</styleUrl>
		<Point>
			<coordinates>-2.941164635287186,53.47832233043567,19.03686435679307</coordinates>
		</Point>
	</Placemark>
	<Placemark id="0285174D953B222DFF51">
		<name>35</name>
		<LookAt>
			<longitude>-2.941017277562523</longitude>
			<latitude>53.4788210694629</latitude>
			<altitude>17.58673139609475</altitude>
			<heading>24.8410128688397</heading>
			<tilt>0</tilt>
			<gx:fovy>34.99997627834517</gx:fovy>
			<range>223.0037589696076</range>
			<altitudeMode>absolute</altitudeMode>
		</LookAt>
		<styleUrl>#__managed_style_0948DBD1D33B2815523C</styleUrl>
		<Point>
			<coordinates>-2.940225426139211,53.47853199068373,17.48762334605524</coordinates>
		</Point>
	</Placemark>
	<Placemark id="0F6647E3CA3B21906913">
		<name>36</name>
		<LookAt>
			<longitude>-2.94073169846949</longitude>
			<latitude>53.47881434347717</latitude>
			<altitude>17.67492285200709</altitude>
			<heading>24.82024327759598</heading>
			<tilt>0</tilt>
			<gx:fovy>34.99997627834517</gx:fovy>
			<range>214.8693255207036</range>
			<altitudeMode>absolute</altitudeMode>
		</LookAt>
		<styleUrl>#__managed_style_0948DBD1D33B2815523C</styleUrl>
		<Point>
			<coordinates>-2.940777784030947,53.47863935838853,19.14855896793041</coordinates>
		</Point>
	</Placemark>
	<Placemark id="084AA8CD393B222E5AD9">
		<name>37</name>
		<LookAt>
			<longitude>-2.942137277976146</longitude>
			<latitude>53.4794489380171</latitude>
			<altitude>17.33725103959528</altitude>
			<heading>24.84101262879743</heading>
			<tilt>0</tilt>
			<gx:fovy>34.99997627834517</gx:fovy>
			<range>530.787653402149</range>
			<altitudeMode>absolute</altitudeMode>
		</LookAt>
		<styleUrl>#__managed_style_0948DBD1D33B2815523C</styleUrl>
		<Point>
			<coordinates>-2.940120355854029,53.47899378850494,17.269631283277</coordinates>
		</Point>
	</Placemark>
	<Placemark id="0BE3FDB7A43B21904866">
		<name>38</name>
		<LookAt>
			<longitude>-2.94073169846949</longitude>
			<latitude>53.47881434347717</latitude>
			<altitude>17.67492285200709</altitude>
			<heading>24.82024327759598</heading>
			<tilt>0</tilt>
			<gx:fovy>34.99997627834517</gx:fovy>
			<range>214.8693255207036</range>
			<altitudeMode>absolute</altitudeMode>
		</LookAt>
		<styleUrl>#__managed_style_0948DBD1D33B2815523C</styleUrl>
		<Point>
			<coordinates>-2.94061700064711,53.47895776169004,17.74411348483433</coordinates>
		</Point>
	</Placemark>
	<Placemark id="02CE0A7C923B222E7334">
		<name>39</name>
		<LookAt>
			<longitude>-2.942137277976146</longitude>
			<latitude>53.4794489380171</latitude>
			<altitude>17.33725103959528</altitude>
			<heading>24.84101262879743</heading>
			<tilt>0</tilt>
			<gx:fovy>34.99997627834517</gx:fovy>
			<range>530.787653402149</range>
			<altitudeMode>absolute</altitudeMode>
		</LookAt>
		<styleUrl>#__managed_style_0948DBD1D33B2815523C</styleUrl>
		<Point>
			<coordinates>-2.9400776088154,53.4794814380564,16.94718849897518</coordinates>
		</Point>
	</Placemark>
	<Placemark id="042F264EB13B219058DE">
		<name>40</name>
		<LookAt>
			<longitude>-2.94073169846949</longitude>
			<latitude>53.47881434347717</latitude>
			<altitude>17.67492285200709</altitude>
			<heading>24.82024327759598</heading>
			<tilt>0</tilt>
			<gx:fovy>34.99997627834517</gx:fovy>
			<range>214.8693255207036</range>
			<altitudeMode>absolute</altitudeMode>
		</LookAt>
		<styleUrl>#__managed_style_0948DBD1D33B2815523C</styleUrl>
		<Point>
			<coordinates>-2.940738293285893,53.47922907164185,18.50389631396281</coordinates>
		</Point>
	</Placemark>
	<Placemark id="04E7FF58243B222ECCBF">
		<name>41</name>
		<LookAt>
			<longitude>-2.941005797122035</longitude>
			<latitude>53.47974403398819</latitude>
			<altitude>16.98864671401788</altitude>
			<heading>24.84157777427158</heading>
			<tilt>0</tilt>
			<gx:fovy>34.99997627834517</gx:fovy>
			<range>403.0919213198649</range>
			<altitudeMode>absolute</altitudeMode>
		</LookAt>
		<styleUrl>#__managed_style_0948DBD1D33B2815523C</styleUrl>
		<Point>
			<coordinates>-2.940710313866501,53.47982349692745,16.93500857573018</coordinates>
		</Point>
	</Placemark>
	<Placemark id="073CE2E2BC3B21900813">
		<name>42</name>
		<LookAt>
			<longitude>-2.940601860019638</longitude>
			<latitude>53.47892587599197</latitude>
			<altitude>17.39861467181216</altitude>
			<heading>24.82024328135996</heading>
			<tilt>0</tilt>
			<gx:fovy>34.99997627834517</gx:fovy>
			<range>201.6863473792546</range>
			<altitudeMode>absolute</altitudeMode>
		</LookAt>
		<styleUrl>#__managed_style_0948DBD1D33B2815523C</styleUrl>
		<Point>
			<coordinates>-2.941132594781377,53.47948544468508,18.25708233061878</coordinates>
		</Point>
	</Placemark>
	<Placemark id="040161E58C3B222EE953">
		<name>43</name>
		<LookAt>
			<longitude>-2.941005797122035</longitude>
			<latitude>53.47974403398819</latitude>
			<altitude>16.98864671401788</altitude>
			<heading>24.84157777427158</heading>
			<tilt>0</tilt>
			<gx:fovy>34.99997627834517</gx:fovy>
			<range>403.0919213198649</range>
			<altitudeMode>absolute</altitudeMode>
		</LookAt>
		<styleUrl>#__managed_style_0948DBD1D33B2815523C</styleUrl>
		<Point>
			<coordinates>-2.941374535579423,53.47999244849938,18.05484043827402</coordinates>
		</Point>
	</Placemark>
	<Placemark id="0D93117E973B2190AA19">
		<name>44</name>
		<LookAt>
			<longitude>-2.94192952342921</longitude>
			<latitude>53.47917125851555</latitude>
			<altitude>17.48757315715937</altitude>
			<heading>24.81658490968644</heading>
			<tilt>0</tilt>
			<gx:fovy>34.99997627834517</gx:fovy>
			<range>291.3139850378866</range>
			<altitudeMode>absolute</altitudeMode>
		</LookAt>
		<styleUrl>#__managed_style_0948DBD1D33B2815523C</styleUrl>
		<Point>
			<coordinates>-2.941672229618453,53.47965841185889,17.00592811402431</coordinates>
		</Point>
	</Placemark>
	<Placemark id="00D80203883B222F1726">
		<name>45</name>
		<LookAt>
			<longitude>-2.941975186111216</longitude>
			<latitude>53.48012981502231</latitude>
			<altitude>18.13309855425782</altitude>
			<heading>24.84157777427158</heading>
			<tilt>0</tilt>
			<gx:fovy>34.99997627834517</gx:fovy>
			<range>401.8943347609456</range>
			<altitudeMode>absolute</altitudeMode>
		</LookAt>
		<styleUrl>#__managed_style_0948DBD1D33B2815523C</styleUrl>
		<Point>
			<coordinates>-2.941965924838446,53.4801299808004,18.25515546491361</coordinates>
		</Point>
	</Placemark>
	<Placemark id="004B4FDD273B2190CB7C">
		<name>46</name>
		<LookAt>
			<longitude>-2.94192952342921</longitude>
			<latitude>53.47917125851555</latitude>
			<altitude>17.48757315715937</altitude>
			<heading>24.81658490968644</heading>
			<tilt>0</tilt>
			<gx:fovy>34.99997627834517</gx:fovy>
			<range>291.3139850378866</range>
			<altitudeMode>absolute</altitudeMode>
		</LookAt>
		<styleUrl>#__managed_style_0948DBD1D33B2815523C</styleUrl>
		<Point>
			<coordinates>-2.942217793938333,53.47982367830744,18.40878470647873</coordinates>
		</Point>
	</Placemark>
	<Placemark id="012403DACF3B222F2891">
		<name>47</name>
		<LookAt>
			<longitude>-2.941975186111216</longitude>
			<latitude>53.48012981502231</latitude>
			<altitude>18.13309855425782</altitude>
			<heading>24.84157777427158</heading>
			<tilt>0</tilt>
			<gx:fovy>34.99997627834517</gx:fovy>
			<range>401.8943347609456</range>
			<altitudeMode>absolute</altitudeMode>
		</LookAt>
		<styleUrl>#__managed_style_0948DBD1D33B2815523C</styleUrl>
		<Point>
			<coordinates>-2.94261188623385,53.48028896307131,19.32968876074897</coordinates>
		</Point>
	</Placemark>
	<Placemark id="0EE6AF031C3B2190F664">
		<name>48</name>
		<LookAt>
			<longitude>-2.942279858027811</longitude>
			<latitude>53.47960275251891</latitude>
			<altitude>17.48757243851798</altitude>
			<heading>24.81630336547158</heading>
			<tilt>0</tilt>
			<gx:fovy>34.99997627834517</gx:fovy>
			<range>291.3139850378866</range>
			<altitudeMode>absolute</altitudeMode>
		</LookAt>
		<styleUrl>#__managed_style_0948DBD1D33B2815523C</styleUrl>
		<Point>
			<coordinates>-2.942824629950354,53.47999075513336,17.74980654067765</coordinates>
		</Point>
	</Placemark>
	<Placemark id="02EBEB10913B222F449F">
		<name>49</name>
		<LookAt>
			<longitude>-2.941975186111216</longitude>
			<latitude>53.48012981502231</latitude>
			<altitude>18.13309855425782</altitude>
			<heading>24.84157777427158</heading>
			<tilt>0</tilt>
			<gx:fovy>34.99997627834517</gx:fovy>
			<range>401.8943347609456</range>
			<altitudeMode>absolute</altitudeMode>
		</LookAt>
		<styleUrl>#__managed_style_0948DBD1D33B2815523C</styleUrl>
		<Point>
			<coordinates>-2.943224491482939,53.48043066467686,19.66404762646694</coordinates>
		</Point>
	</Placemark>
	<Placemark id="03974DE3483B21912C08">
		<name>50</name>
		<LookAt>
			<longitude>-2.942622739474017</longitude>
			<latitude>53.48007351517304</latitude>
			<altitude>16.93498311630295</altitude>
			<heading>24.81602780858503</heading>
			<tilt>0</tilt>
			<gx:fovy>34.99997627834517</gx:fovy>
			<range>291.8666085394216</range>
			<altitudeMode>absolute</altitudeMode>
		</LookAt>
		<styleUrl>#__managed_style_0948DBD1D33B2815523C</styleUrl>
		<Point>
			<coordinates>-2.943313547380945,53.48008575968161,18.27262224327546</coordinates>
		</Point>
	</Placemark>
	<Placemark id="09021278573B222F7B7C">
		<name>51</name>
		<LookAt>
			<longitude>-2.942896398567213</longitude>
			<latitude>53.48031555629726</latitude>
			<altitude>17.33637226425412</altitude>
			<heading>24.84083744087363</heading>
			<tilt>0</tilt>
			<gx:fovy>34.99997627834517</gx:fovy>
			<range>402.6910879165371</range>
			<altitudeMode>absolute</altitudeMode>
		</LookAt>
		<styleUrl>#__managed_style_0948DBD1D33B2815523C</styleUrl>
		<Point>
			<coordinates>-2.943810620097792,53.48047816198107,20.14961992028961</coordinates>
		</Point>
	</Placemark>
	<Placemark id="012EF9D9793B21919950">
		<name>52</name>
		<LookAt>
			<longitude>-2.943533797239906</longitude>
			<latitude>53.48008177098425</latitude>
			<altitude>16.9957345268885</altitude>
			<heading>24.81529563944648</heading>
			<tilt>0</tilt>
			<gx:fovy>34.99997627834517</gx:fovy>
			<range>291.8058368739003</range>
			<altitudeMode>absolute</altitudeMode>
		</LookAt>
		<styleUrl>#__managed_style_0948DBD1D33B2815523C</styleUrl>
		<Point>
			<coordinates>-2.943818032286305,53.48008125213705,17.00457407199257</coordinates>
		</Point>
	</Placemark>
	<Placemark id="05D2168F563B222F9CD8">
		<name>53</name>
		<LookAt>
			<longitude>-2.942896398567213</longitude>
			<latitude>53.48031555629726</latitude>
			<altitude>17.33637226425412</altitude>
			<heading>24.84083744087363</heading>
			<tilt>0</tilt>
			<gx:fovy>34.99997627834517</gx:fovy>
			<range>402.6910879165371</range>
			<altitudeMode>absolute</altitudeMode>
		</LookAt>
		<styleUrl>#__managed_style_0948DBD1D33B2815523C</styleUrl>
		<Point>
			<coordinates>-2.94452795740078,53.48042769639241,17.80333408175357</coordinates>
		</Point>
	</Placemark>
	<Placemark id="0257E652C83B219188A6">
		<name>54</name>
		<LookAt>
			<longitude>-2.943533797239906</longitude>
			<latitude>53.48008177098425</latitude>
			<altitude>16.9957345268885</altitude>
			<heading>24.81529563944648</heading>
			<tilt>0</tilt>
			<gx:fovy>34.99997627834517</gx:fovy>
			<range>291.8058368739003</range>
			<altitudeMode>absolute</altitudeMode>
		</LookAt>
		<styleUrl>#__managed_style_0948DBD1D33B2815523C</styleUrl>
		<Point>
			<coordinates>-2.944275546119814,53.4800441399017,17.06697609715869</coordinates>
		</Point>
	</Placemark>
	<Placemark id="0051702E9D3B222FB958">
		<name>55</name>
		<LookAt>
			<longitude>-2.942896398567213</longitude>
			<latitude>53.48031555629726</latitude>
			<altitude>17.33637226425412</altitude>
			<heading>24.84083744087363</heading>
			<tilt>0</tilt>
			<gx:fovy>34.99997627834517</gx:fovy>
			<range>402.6910879165371</range>
			<altitudeMode>absolute</altitudeMode>
		</LookAt>
		<styleUrl>#__managed_style_0948DBD1D33B2815523C</styleUrl>
		<Point>
			<coordinates>-2.945175711932593,53.48024285248876,20.06653939098999</coordinates>
		</Point>
	</Placemark>
	<Placemark id="0E6C931E803B2191A89C">
		<name>56</name>
		<LookAt>
			<longitude>-2.943533797239906</longitude>
			<latitude>53.48008177098425</latitude>
			<altitude>16.9957345268885</altitude>
			<heading>24.81529563944648</heading>
			<tilt>0</tilt>
			<gx:fovy>34.99997627834517</gx:fovy>
			<range>291.8058368739003</range>
			<altitudeMode>absolute</altitudeMode>
		</LookAt>
		<styleUrl>#__managed_style_0948DBD1D33B2815523C</styleUrl>
		<Point>
			<coordinates>-2.944734632977023,53.47995239234304,17.1555061873607</coordinates>
		</Point>
	</Placemark>
	<Placemark id="0B62619AAF3B222FFC08">
		<name>57</name>
		<LookAt>
			<longitude>-2.944876685706712</longitude>
			<latitude>53.47966562573898</latitude>
			<altitude>17.11724623346618</altitude>
			<heading>24.83981019088902</heading>
			<tilt>0</tilt>
			<gx:fovy>34.99997627834517</gx:fovy>
			<range>392.6118452829542</range>
			<altitudeMode>absolute</altitudeMode>
		</LookAt>
		<styleUrl>#__managed_style_0948DBD1D33B2815523C</styleUrl>
		<Point>
			<coordinates>-2.945684618726399,53.48002560744991,18.99441219139521</coordinates>
		</Point>
	</Placemark>
	<Placemark id="0814DB81493B21916AFE">
		<name>58</name>
		<LookAt>
			<longitude>-2.943533797239906</longitude>
			<latitude>53.48008177098425</latitude>
			<altitude>16.9957345268885</altitude>
			<heading>24.81529563944648</heading>
			<tilt>0</tilt>
			<gx:fovy>34.99997627834517</gx:fovy>
			<range>291.8058368739003</range>
			<altitudeMode>absolute</altitudeMode>
		</LookAt>
		<styleUrl>#__managed_style_0948DBD1D33B2815523C</styleUrl>
		<Point>
			<coordinates>-2.94510133766272,53.47972990533351,17.25616850169302</coordinates>
		</Point>
	</Placemark>
	<Placemark id="0AFA17B0AA3B22301300">
		<name>59</name>
		<LookAt>
			<longitude>-2.944876685706712</longitude>
			<latitude>53.47966562573898</latitude>
			<altitude>17.11724623346618</altitude>
			<heading>24.83981019088902</heading>
			<tilt>0</tilt>
			<gx:fovy>34.99997627834517</gx:fovy>
			<range>392.6118452829542</range>
			<altitudeMode>absolute</altitudeMode>
		</LookAt>
		<styleUrl>#__managed_style_0948DBD1D33B2815523C</styleUrl>
		<Point>
			<coordinates>-2.946039229950633,53.47970814555318,18.63288427605624</coordinates>
		</Point>
	</Placemark>
	<Placemark id="0213413A833B21924C68">
		<name>60</name>
		<LookAt>
			<longitude>-2.945490705309864</longitude>
			<latitude>53.47945432597689</latitude>
			<altitude>17.67180175144115</altitude>
			<heading>24.8145740590968</heading>
			<tilt>0</tilt>
			<gx:fovy>34.99997627834517</gx:fovy>
			<range>331.935532405405</range>
			<altitudeMode>absolute</altitudeMode>
		</LookAt>
		<styleUrl>#__managed_style_0948DBD1D33B2815523C</styleUrl>
		<Point>
			<coordinates>-2.945425876399224,53.47946648245787,17.67179601928585</coordinates>
		</Point>
	</Placemark>
	<Placemark id="01FB4A2EE93B22356C16">
		<name>61</name>
		<LookAt>
			<longitude>-2.944876685706712</longitude>
			<latitude>53.47966562573898</latitude>
			<altitude>17.11724623346618</altitude>
			<heading>24.83981019088902</heading>
			<tilt>0</tilt>
			<gx:fovy>34.99997627834517</gx:fovy>
			<range>392.6118452829542</range>
			<altitudeMode>absolute</altitudeMode>
		</LookAt>
		<styleUrl>#__managed_style_0948DBD1D33B2815523C</styleUrl>
		<Point>
			<coordinates>-2.946383424176954,53.47941766616592,19.15361878895509</coordinates>
		</Point>
	</Placemark>
	<Placemark id="06012301C73B21923C44">
		<name>62</name>
		<LookAt>
			<longitude>-2.945490705309864</longitude>
			<latitude>53.47945432597689</latitude>
			<altitude>17.67180175144115</altitude>
			<heading>24.8145740590968</heading>
			<tilt>0</tilt>
			<gx:fovy>34.99997627834517</gx:fovy>
			<range>331.935532405405</range>
			<altitudeMode>absolute</altitudeMode>
		</LookAt>
		<styleUrl>#__managed_style_0948DBD1D33B2815523C</styleUrl>
		<Point>
			<coordinates>-2.945786578691549,53.47917720372735,18.91660333520584</coordinates>
		</Point>
	</Placemark>
	<Placemark id="0D637125F63B22365B44">
		<name>63</name>
		<LookAt>
			<longitude>-2.946398102182035</longitude>
			<latitude>53.47907456776419</latitude>
			<altitude>18.01462954560253</altitude>
			<heading>24.83934289721892</heading>
			<tilt>0</tilt>
			<gx:fovy>34.99997627834517</gx:fovy>
			<range>168.5097230572865</range>
			<altitudeMode>absolute</altitudeMode>
		</LookAt>
		<styleUrl>#__managed_style_0948DBD1D33B2815523C</styleUrl>
		<Point>
			<coordinates>-2.946800916961207,53.47908480663602,19.18233886049477</coordinates>
		</Point>
	</Placemark>
	<Placemark id="0565710AA53B2191F98B">
		<name>64</name>
		<LookAt>
			<longitude>-2.945915277922651</longitude>
			<latitude>53.47904092060433</latitude>
			<altitude>17.93436626736866</altitude>
			<heading>24.81413010214041</heading>
			<tilt>0</tilt>
			<gx:fovy>34.99997627834517</gx:fovy>
			<range>239.4972863380099</range>
			<altitudeMode>absolute</altitudeMode>
		</LookAt>
		<styleUrl>#__managed_style_0948DBD1D33B2815523C</styleUrl>
		<Point>
			<coordinates>-2.946196841597687,53.47883958113609,17.92370038571855</coordinates>
		</Point>
	</Placemark>
	<Placemark id="0A10E8369E3B22367E49">
		<name>65</name>
		<LookAt>
			<longitude>-2.947131772909736</longitude>
			<latitude>53.4791238288137</latitude>
			<altitude>18.42083566047319</altitude>
			<heading>24.83919757288382</heading>
			<tilt>0</tilt>
			<gx:fovy>34.99997627834517</gx:fovy>
			<range>485.8651084542362</range>
			<altitudeMode>absolute</altitudeMode>
		</LookAt>
		<styleUrl>#__managed_style_0948DBD1D33B2815523C</styleUrl>
		<Point>
			<coordinates>-2.947171314897,53.47875354637277,18.42084952827144</coordinates>
		</Point>
	</Placemark>
	<Placemark id="0227A3CAA33B2192A880">
		<name>66</name>
		<LookAt>
			<longitude>-2.946559499027414</longitude>
			<latitude>53.47848495336403</latitude>
			<altitude>18.07811884406402</altitude>
			<heading>24.81400514641876</heading>
			<tilt>0</tilt>
			<gx:fovy>34.99997627834517</gx:fovy>
			<range>366.8804916705267</range>
			<altitudeMode>absolute</altitudeMode>
		</LookAt>
		<styleUrl>#__managed_style_0948DBD1D33B2815523C</styleUrl>
		<Point>
			<coordinates>-2.946580036443701,53.47851064366947,19.15737809258484</coordinates>
		</Point>
	</Placemark>
	<Placemark id="0D17F538E83B2236949F">
		<name>67</name>
		<LookAt>
			<longitude>-2.947131772909736</longitude>
			<latitude>53.4791238288137</latitude>
			<altitude>18.42083566047319</altitude>
			<heading>24.83919757288382</heading>
			<tilt>0</tilt>
			<gx:fovy>34.99997627834517</gx:fovy>
			<range>485.8651084542362</range>
			<altitudeMode>absolute</altitudeMode>
		</LookAt>
		<styleUrl>#__managed_style_0948DBD1D33B2815523C</styleUrl>
		<Point>
			<coordinates>-2.947577233315428,53.47840924947489,18.78910981616839</coordinates>
		</Point>
	</Placemark>
	<Placemark id="0348CC9A8C3B2192CC83">
		<name>68</name>
		<LookAt>
			<longitude>-2.946559499027414</longitude>
			<latitude>53.47848495336403</latitude>
			<altitude>18.07811884406402</altitude>
			<heading>24.81400514641876</heading>
			<tilt>0</tilt>
			<gx:fovy>34.99997627834517</gx:fovy>
			<range>366.8804916705267</range>
			<altitudeMode>absolute</altitudeMode>
		</LookAt>
		<styleUrl>#__managed_style_0948DBD1D33B2815523C</styleUrl>
		<Point>
			<coordinates>-2.947001597475434,53.47814419468542,19.43450445873003</coordinates>
		</Point>
	</Placemark>
	<Placemark id="0A530D723D3B2236CB14">
		<name>69</name>
		<LookAt>
			<longitude>-2.948103568937364</longitude>
			<latitude>53.47830736496365</latitude>
			<altitude>19.13749766234533</altitude>
			<heading>24.83841661734674</heading>
			<tilt>0</tilt>
			<gx:fovy>34.99997627834517</gx:fovy>
			<range>485.1484107268334</range>
			<altitudeMode>absolute</altitudeMode>
		</LookAt>
		<styleUrl>#__managed_style_0948DBD1D33B2815523C</styleUrl>
		<Point>
			<coordinates>-2.94807075539671,53.47796795224262,20.63129790209798</coordinates>
		</Point>
	</Placemark>
	<Placemark id="03CDFBA4BC3B21927BFC">
		<name>70</name>
		<LookAt>
			<longitude>-2.946642843137267</longitude>
			<latitude>53.47832943159244</latitude>
			<altitude>18.20919862835377</altitude>
			<heading>24.81393816930969</heading>
			<tilt>0</tilt>
			<gx:fovy>34.99997627834517</gx:fovy>
			<range>366.7493759909485</range>
			<altitudeMode>absolute</altitudeMode>
		</LookAt>
		<styleUrl>#__managed_style_0948DBD1D33B2815523C</styleUrl>
		<Point>
			<coordinates>-2.947483494787218,53.47770559250205,19.11297769038845</coordinates>
		</Point>
	</Placemark>
	<Placemark id="073BC4241F3B2236E5BC">
		<name>71</name>
		<LookAt>
			<longitude>-2.948103568937364</longitude>
			<latitude>53.47830736496365</latitude>
			<altitude>19.13749766234533</altitude>
			<heading>24.83841661734674</heading>
			<tilt>0</tilt>
			<gx:fovy>34.99997627834517</gx:fovy>
			<range>485.1484107268334</range>
			<altitudeMode>absolute</altitudeMode>
		</LookAt>
		<styleUrl>#__managed_style_0948DBD1D33B2815523C</styleUrl>
		<Point>
			<coordinates>-2.948585087840216,53.47750065594274,20.03672681054124</coordinates>
		</Point>
	</Placemark>
	<Placemark id="0DE715FD143B2193333C">
		<name>72</name>
		<LookAt>
			<longitude>-2.947705663971428</longitude>
			<latitude>53.47757075709209</latitude>
			<altitude>19.51530918090657</altitude>
			<heading>24.81308405634564</heading>
			<tilt>0</tilt>
			<gx:fovy>34.99997627834517</gx:fovy>
			<range>365.4432487342274</range>
			<altitudeMode>absolute</altitudeMode>
		</LookAt>
		<styleUrl>#__managed_style_0948DBD1D33B2815523C</styleUrl>
		<Point>
			<coordinates>-2.947980396255201,53.47727170002118,19.69813492354293</coordinates>
		</Point>
	</Placemark>
	<Placemark id="0EBFAB82F23B223722D0">
		<name>73</name>
		<LookAt>
			<longitude>-2.948853192391515</longitude>
			<latitude>53.47741112835601</latitude>
			<altitude>20.16858809470433</altitude>
			<heading>24.83828294373636</heading>
			<tilt>0</tilt>
			<gx:fovy>34.99997627834517</gx:fovy>
			<range>273.8976183733758</range>
			<altitudeMode>absolute</altitudeMode>
		</LookAt>
		<styleUrl>#__managed_style_0948DBD1D33B2815523C</styleUrl>
		<Point>
			<coordinates>-2.94901529330133,53.47714673430856,20.43656506389209</coordinates>
		</Point>
	</Placemark>
	<Placemark id="0C568948C83B219385F6">
		<name>74</name>
		<LookAt>
			<longitude>-2.94831760237256</longitude>
			<latitude>53.47705534610095</latitude>
			<altitude>19.88232305746588</altitude>
			<heading>24.81259228972926</heading>
			<tilt>0</tilt>
			<gx:fovy>34.99997627834517</gx:fovy>
			<range>365.0762778035642</range>
			<altitudeMode>absolute</altitudeMode>
		</LookAt>
		<styleUrl>#__managed_style_0948DBD1D33B2815523C</styleUrl>
		<Point>
			<coordinates>-2.948369494524635,53.47689624495894,21.18047836162845</coordinates>
		</Point>
	</Placemark>
	<Placemark id="0E380584873B22373B14">
		<name>75</name>
		<LookAt>
			<longitude>-2.949342929730887</longitude>
			<latitude>53.47683749122379</latitude>
			<altitude>20.64925180331864</altitude>
			<heading>24.83788938339128</heading>
			<tilt>0</tilt>
			<gx:fovy>34.99997627834517</gx:fovy>
			<range>273.4169381402535</range>
			<altitudeMode>absolute</altitudeMode>
		</LookAt>
		<styleUrl>#__managed_style_0948DBD1D33B2815523C</styleUrl>
		<Point>
			<coordinates>-2.949466502536275,53.47675013298218,22.09272915028108</coordinates>
		</Point>
	</Placemark>
	<Placemark id="0607282FA33B2193EB10">
		<name>76</name>
		<LookAt>
			<longitude>-2.948821751147626</longitude>
			<latitude>53.47678890744142</latitude>
			<altitude>20.11993301578992</altitude>
			<heading>24.81218715170739</heading>
			<tilt>0</tilt>
			<gx:fovy>34.99997627834517</gx:fovy>
			<range>364.8386378773284</range>
			<altitudeMode>absolute</altitudeMode>
		</LookAt>
		<styleUrl>#__managed_style_0948DBD1D33B2815523C</styleUrl>
		<Point>
			<coordinates>-2.94880567627975,53.47651248671403,21.38700971123676</coordinates>
		</Point>
	</Placemark>
	<Placemark id="0C7ACED5C83B22377198">
		<name>77</name>
		<LookAt>
			<longitude>-2.949615208624738</longitude>
			<latitude>53.47628034374246</latitude>
			<altitude>21.57285654021193</altitude>
			<heading>24.83767057920107</heading>
			<tilt>0</tilt>
			<gx:fovy>34.99997627834517</gx:fovy>
			<range>272.4933571609654</range>
			<altitudeMode>absolute</altitudeMode>
		</LookAt>
		<styleUrl>#__managed_style_0948DBD1D33B2815523C</styleUrl>
		<Point>
			<coordinates>-2.949932992383406,53.4763073899825,23.01017361681915</coordinates>
		</Point>
	</Placemark>
	<Placemark id="0FB7EC4F183B2193D3B0">
		<name>78</name>
		<LookAt>
			<longitude>-2.948947565049523</longitude>
			<latitude>53.47626514636457</latitude>
			<altitude>21.35592591217604</altitude>
			<heading>24.81208604838616</heading>
			<tilt>0</tilt>
			<gx:fovy>34.99997627834517</gx:fovy>
			<range>363.6026692138694</range>
			<altitudeMode>absolute</altitudeMode>
		</LookAt>
		<styleUrl>#__managed_style_0948DBD1D33B2815523C</styleUrl>
		<Point>
			<coordinates>-2.949275442820687,53.47604720157994,21.9086114870681</coordinates>
		</Point>
	</Placemark>
	<Placemark id="0FB8B993023B22379BA4">
		<name>79</name>
		<LookAt>
			<longitude>-2.949854071806043</longitude>
			<latitude>53.47604469001109</latitude>
			<altitude>23.01387572338485</altitude>
			<heading>24.83747862847995</heading>
			<tilt>0</tilt>
			<gx:fovy>34.99997627834517</gx:fovy>
			<range>271.0523130983711</range>
			<altitudeMode>absolute</altitudeMode>
		</LookAt>
		<styleUrl>#__managed_style_0948DBD1D33B2815523C</styleUrl>
		<Point>
			<coordinates>-2.950428269084088,53.47587544193798,23.60022171105219</coordinates>
		</Point>
	</Placemark>
	<Placemark id="0D746C94BA3B2194390F">
		<name>80</name>
		<LookAt>
			<longitude>-2.949621653675591</longitude>
			<latitude>53.4755139826244</latitude>
			<altitude>22.82964951420026</altitude>
			<heading>24.81154434693974</heading>
			<tilt>0</tilt>
			<gx:fovy>34.99997627834517</gx:fovy>
			<range>362.1289215585784</range>
			<altitudeMode>absolute</altitudeMode>
		</LookAt>
		<styleUrl>#__managed_style_0948DBD1D33B2815523C</styleUrl>
		<Point>
			<coordinates>-2.949801150388704,53.4756241888001,23.63531052119368</coordinates>
		</Point>
	</Placemark>
	<Placemark id="0EC1B9C4F93B2237B944">
		<name>81</name>
		<LookAt>
			<longitude>-2.950166506897591</longitude>
			<latitude>53.47560323451959</latitude>
			<altitude>22.82961883472045</altitude>
			<heading>24.83722755888376</heading>
			<tilt>0</tilt>
			<gx:fovy>34.99997627834517</gx:fovy>
			<range>271.2365750132813</range>
			<altitudeMode>absolute</altitudeMode>
		</LookAt>
		<styleUrl>#__managed_style_0948DBD1D33B2815523C</styleUrl>
		<Point>
			<coordinates>-2.950914279189289,53.47544979205097,24.28760158177088</coordinates>
		</Point>
	</Placemark>
	<Placemark id="091BBA7EBD3B21947B11">
		<name>82</name>
		<LookAt>
			<longitude>-2.950060869137522</longitude>
			<latitude>53.47509668971584</latitude>
			<altitude>22.77683995386995</altitude>
			<heading>24.81119139551498</heading>
			<tilt>0</tilt>
			<gx:fovy>34.99997627834517</gx:fovy>
			<range>362.1817433075194</range>
			<altitudeMode>absolute</altitudeMode>
		</LookAt>
		<styleUrl>#__managed_style_0948DBD1D33B2815523C</styleUrl>
		<Point>
			<coordinates>-2.950281324888027,53.47520574098719,23.7275021302842</coordinates>
		</Point>
	</Placemark>
	<Placemark id="0F76539BE43B2237D31E">
		<name>83</name>
		<LookAt>
			<longitude>-2.950770169604323</longitude>
			<latitude>53.47503884152046</latitude>
			<altitude>23.01382725187213</altitude>
			<heading>24.83674245857263</heading>
			<tilt>0</tilt>
			<gx:fovy>34.99997627834517</gx:fovy>
			<range>271.0523594535698</range>
			<altitudeMode>absolute</altitudeMode>
		</LookAt>
		<styleUrl>#__managed_style_0948DBD1D33B2815523C</styleUrl>
		<Point>
			<coordinates>-2.951350635511964,53.4750738587057,23.57294063400987</coordinates>
		</Point>
	</Placemark>
	<Placemark id="06FE1BD4A33B21945E38">
		<name>84</name>
		<LookAt>
			<longitude>-2.950060869137522</longitude>
			<latitude>53.47509668971584</latitude>
			<altitude>22.77683995386995</altitude>
			<heading>24.81119139551498</heading>
			<tilt>0</tilt>
			<gx:fovy>34.99997627834517</gx:fovy>
			<range>362.1817433075194</range>
			<altitudeMode>absolute</altitudeMode>
		</LookAt>
		<styleUrl>#__managed_style_0948DBD1D33B2815523C</styleUrl>
		<Point>
			<coordinates>-2.950689964871698,53.47481137691312,24.62881623538775</coordinates>
		</Point>
	</Placemark>
	<Placemark id="0FCB7159A03B22380424">
		<name>85</name>
		<LookAt>
			<longitude>-2.950600766679935</longitude>
			<latitude>53.47503892638316</latitude>
			<altitude>23.13219435491538</altitude>
			<heading>24.83674246550435</heading>
			<tilt>0</tilt>
			<gx:fovy>34.99997627834517</gx:fovy>
			<range>360.707068548254</range>
			<altitudeMode>absolute</altitudeMode>
		</LookAt>
		<styleUrl>#__managed_style_0948DBD1D33B2815523C</styleUrl>
		<Point>
			<coordinates>-2.95178056634227,53.47470456707069,24.08255799949276</coordinates>
		</Point>
	</Placemark>
	<Placemark id="0B95D0DAB93B218005D3">
		<name>86</name>
		<LookAt>
			<longitude>-2.951065362846973</longitude>
			<latitude>53.47430585654712</latitude>
			<altitude>24.26159088728331</altitude>
			<heading>0</heading>
			<tilt>0</tilt>
			<gx:fovy>34.99997627834517</gx:fovy>
			<range>169.4046217573668</range>
			<altitudeMode>absolute</altitudeMode>
		</LookAt>
		<styleUrl>#__managed_style_0948DBD1D33B2815523C</styleUrl>
		<Point>
			<coordinates>-2.951129659462025,53.47445318257711,25.31966412089912</coordinates>
		</Point>
	</Placemark>
	<Placemark id="0C01925B523B223827AC">
		<name>87</name>
		<LookAt>
			<longitude>-2.951788144811243</longitude>
			<latitude>53.47429939984531</latitude>
			<altitude>24.58403770333306</altitude>
			<heading>24.83591366057504</heading>
			<tilt>0</tilt>
			<gx:fovy>34.99997627834517</gx:fovy>
			<range>258.7092216249221</range>
			<altitudeMode>absolute</altitudeMode>
		</LookAt>
		<styleUrl>#__managed_style_0948DBD1D33B2815523C</styleUrl>
		<Point>
			<coordinates>-2.95222128193592,53.47429514986618,25.96120948536357</coordinates>
		</Point>
	</Placemark>
	<Placemark id="0CB3FBB9353B218A69C7">
		<name>88</name>
		<LookAt>
			<longitude>-2.951063618375236</longitude>
			<latitude>53.47418956932161</latitude>
			<altitude>27.31263584070094</altitude>
			<heading>0</heading>
			<tilt>0</tilt>
			<gx:fovy>34.99997627834517</gx:fovy>
			<range>166.3535805216452</range>
			<altitudeMode>absolute</altitudeMode>
		</LookAt>
		<styleUrl>#__managed_style_0948DBD1D33B2815523C</styleUrl>
		<Point>
			<coordinates>-2.951455758523739,53.47413615093172,25.73218980119325</coordinates>
		</Point>
	</Placemark>
	<Placemark id="0D2ED370BA3B223849FC">
		<name>89</name>
		<LookAt>
			<longitude>-2.952066823949479</longitude>
			<latitude>53.47394856324146</latitude>
			<altitude>25.03380021428728</altitude>
			<heading>24.83568972090861</heading>
			<tilt>0</tilt>
			<gx:fovy>34.99997627834517</gx:fovy>
			<range>258.2594371317464</range>
			<altitudeMode>absolute</altitudeMode>
		</LookAt>
		<styleUrl>#__managed_style_0948DBD1D33B2815523C</styleUrl>
		<Point>
			<coordinates>-2.952246599865243,53.47361991789517,26.79200927396278</coordinates>
		</Point>
	</Placemark>
	<Placemark id="078FE4F1C13B218AB02C">
		<name>90</name>
		<LookAt>
			<longitude>-2.951036340525087</longitude>
			<latitude>53.47392404856176</latitude>
			<altitude>25.82797087122681</altitude>
			<heading>24.81219982557579</heading>
			<tilt>0</tilt>
			<gx:fovy>34.99997627834517</gx:fovy>
			<range>167.8382448262346</range>
			<altitudeMode>absolute</altitudeMode>
		</LookAt>
		<styleUrl>#__managed_style_0948DBD1D33B2815523C</styleUrl>
		<Point>
			<coordinates>-2.951413467291442,53.47382922509565,26.18629935550337</coordinates>
		</Point>
	</Placemark>
</Document>
</kml>
